{
"type": "FeatureCollection",
"name": "Daycare_Center",
"crs": { "type": "name", "properties": { "name": "urn:ogc:def:crs:OGC:1.3:CRS84" } },
"features": [
{ "type": "Feature", "properties": { "ID": 1, "BUSINESS_NAME": "DAYCARE CENTER", "FULL_ADDRESS": "5685 N FOSTER DR", "CITY": "BATON ROUGE", "STATE": "LOUISIANA", "ZIP": 70805, "PHONE_NUMBER": null, "WEBSITE": null }, "geometry": { "type": "Point", "coordinates": [ -91.141358828385009, 30.501924680760229 ] } },
{ "type": "Feature", "properties": { "ID": 2, "BUSINESS_NAME": "DONNA'S GUARDIAN ANGEL DAYCARE CENTER", "FULL_ADDRESS": "5557 HALSEY ST", "CITY": "BATON ROUGE", "STATE": "LOUISIANA", "ZIP": 70811, "PHONE_NUMBER": null, "WEBSITE": null }, "geometry": { "type": "Point", "coordinates": [ -91.136192285143579, 30.552497321907325 ] } },
{ "type": "Feature", "properties": { "ID": 3, "BUSINESS_NAME": "LINDA'S GUARDIAN ANGEL DAYCARE", "FULL_ADDRESS": "17077 JEFFERSON HWY", "CITY": "BATON ROUGE", "STATE": "LOUISIANA", "ZIP": 70817, "PHONE_NUMBER": null, "WEBSITE": null }, "geometry": { "type": "Point", "coordinates": [ -91.002589151295922, 30.362626704334161 ] } },
{ "type": "Feature", "properties": { "ID": 4, "BUSINESS_NAME": "VICTORY & POWER DAY CARE", "FULL_ADDRESS": "6966 HARRY DR", "CITY": "BATON ROUGE", "STATE": "LOUISIANA", "ZIP": 70806, "PHONE_NUMBER": null, "WEBSITE": null }, "geometry": { "type": "Point", "coordinates": [ -91.119091538502687, 30.456871057073808 ] } },
{ "type": "Feature", "properties": { "ID": 5, "BUSINESS_NAME": "EMMANUEL CHILD DEVELOPMENT AND LEARNING CENTER", "FULL_ADDRESS": "1384 SWAN AVE", "CITY": "BATON ROUGE", "STATE": "LOUISIANA", "ZIP": 70807, "PHONE_NUMBER": null, "WEBSITE": null }, "geometry": { "type": "Point", "coordinates": [ -91.179389080733586, 30.523597235817363 ] } },
{ "type": "Feature", "properties": { "ID": 6, "BUSINESS_NAME": "CHILDREN'S UNIVERSE", "FULL_ADDRESS": "5646 BROWNFIELDS DR", "CITY": "BATON ROUGE", "STATE": "LOUISIANA", "ZIP": 70811, "PHONE_NUMBER": null, "WEBSITE": null }, "geometry": { "type": "Point", "coordinates": [ -91.135588006086465, 30.554877958330913 ] } },
{ "type": "Feature", "properties": { "ID": 7, "BUSINESS_NAME": "A LIL' ONE'S LEARNING CENTER", "FULL_ADDRESS": "4952 STUMBERG LN", "CITY": "BATON ROUGE", "STATE": "LOUISIANA", "ZIP": 70816, "PHONE_NUMBER": null, "WEBSITE": null }, "geometry": { "type": "Point", "coordinates": [ -91.037868516156948, 30.406339468836094 ] } },
{ "type": "Feature", "properties": { "ID": 8, "BUSINESS_NAME": "A LIL ONE'S LEARNING CENTR INC", "FULL_ADDRESS": "4952 STUMBERG LN", "CITY": "BATON ROUGE", "STATE": "LOUISIANA", "ZIP": 70816, "PHONE_NUMBER": null, "WEBSITE": null }, "geometry": { "type": "Point", "coordinates": [ -91.037868516156948, 30.406339468836094 ] } },
{ "type": "Feature", "properties": { "ID": 9, "BUSINESS_NAME": "TREASURES FROM HEAVEN CHILDCARE AND LEARNING CENTER", "FULL_ADDRESS": "7760 MICKENS RD", "CITY": "BATON ROUGE", "STATE": "LOUISIANA", "ZIP": 70812, "PHONE_NUMBER": null, "WEBSITE": null }, "geometry": { "type": "Point", "coordinates": [ -91.111274155683731, 30.513917132123641 ] } },
{ "type": "Feature", "properties": { "ID": 10, "BUSINESS_NAME": "BROADMOOR DAY CARE CENTER", "FULL_ADDRESS": "220 CORA DR", "CITY": "BATON ROUGE", "STATE": "LOUISIANA", "ZIP": 70815, "PHONE_NUMBER": null, "WEBSITE": null }, "geometry": { "type": "Point", "coordinates": [ -91.08154095315831, 30.453395945938301 ] } },
{ "type": "Feature", "properties": { "ID": 11, "BUSINESS_NAME": "BEST CHILD CARE INC THE", "FULL_ADDRESS": "15134 OLD HAMMOND HWY", "CITY": "BATON ROUGE", "STATE": "LOUISIANA", "ZIP": 70816, "PHONE_NUMBER": null, "WEBSITE": null }, "geometry": { "type": "Point", "coordinates": [ -91.017001547348798, 30.455250568128449 ] } },
{ "type": "Feature", "properties": { "ID": 12, "BUSINESS_NAME": "BEST CHILD CARE", "FULL_ADDRESS": "15134 OLD HAMMOND HWY", "CITY": "BATON ROUGE", "STATE": "LOUISIANA", "ZIP": 70816, "PHONE_NUMBER": null, "WEBSITE": null }, "geometry": { "type": "Point", "coordinates": [ -91.017001547348798, 30.455250568128449 ] } },
{ "type": "Feature", "properties": { "ID": 13, "BUSINESS_NAME": "BONNIE'S DAYCARE & LEARNING CENTER", "FULL_ADDRESS": "14065 GLYNN RD", "CITY": "BATON ROUGE", "STATE": "LOUISIANA", "ZIP": 70807, "PHONE_NUMBER": null, "WEBSITE": null }, "geometry": { "type": "Point", "coordinates": [ -91.200122331884785, 30.573561165173924 ] } },
{ "type": "Feature", "properties": { "ID": 14, "BUSINESS_NAME": "MARANATHA DAYCARE", "FULL_ADDRESS": "1433 SHARP LN", "CITY": "BATON ROUGE", "STATE": "LOUISIANA", "ZIP": 70815, "PHONE_NUMBER": null, "WEBSITE": null }, "geometry": { "type": "Point", "coordinates": [ -91.072735787595221, 30.462057477608042 ] } },
{ "type": "Feature", "properties": { "ID": 15, "BUSINESS_NAME": "COMMUNITY ASSOCIATION FOR WELFARE OF THE CHILD", "FULL_ADDRESS": "4771 GUS YOUNG AVE", "CITY": "BATON ROUGE", "STATE": "LOUISIANA", "ZIP": 70802, "PHONE_NUMBER": null, "WEBSITE": null }, "geometry": { "type": "Point", "coordinates": [ -91.142400912001889, 30.462413117603358 ] } },
{ "type": "Feature", "properties": { "ID": 16, "BUSINESS_NAME": "LONDON BRIDGE EARLY LEARNING CENTER", "FULL_ADDRESS": "4844 MONTICELLO BLVD", "CITY": "BATON ROUGE", "STATE": "LOUISIANA", "ZIP": 70814, "PHONE_NUMBER": null, "WEBSITE": null }, "geometry": { "type": "Point", "coordinates": [ -91.050926644998256, 30.495086148688991 ] } },
{ "type": "Feature", "properties": { "ID": 17, "BUSINESS_NAME": "LIL' RUGRATS DAYCARE CENTER INC.", "FULL_ADDRESS": "10808 GREENWELL SPRINGS RD", "CITY": "BATON ROUGE", "STATE": "LOUISIANA", "ZIP": 70814, "PHONE_NUMBER": null, "WEBSITE": null }, "geometry": { "type": "Point", "coordinates": [ -91.063638650583059, 30.493403335864794 ] } },
{ "type": "Feature", "properties": { "ID": 18, "BUSINESS_NAME": "LITTLE ROYAL JEEWELS LEARNING ACADEMY", "FULL_ADDRESS": "10808 GREENWELL SPRINGS RD", "CITY": "BATON ROUGE", "STATE": "LOUISIANA", "ZIP": 70814, "PHONE_NUMBER": null, "WEBSITE": null }, "geometry": { "type": "Point", "coordinates": [ -91.063638650583059, 30.493403335864794 ] } },
{ "type": "Feature", "properties": { "ID": 19, "BUSINESS_NAME": "GREATER KING DAVID BAPTIST CHURCH INNER CITY MINISTRY", "FULL_ADDRESS": "7305 HARRY DR", "CITY": "BATON ROUGE", "STATE": "LOUISIANA", "ZIP": 70806, "PHONE_NUMBER": null, "WEBSITE": null }, "geometry": { "type": "Point", "coordinates": [ -91.114212897630381, 30.458084107807185 ] } },
{ "type": "Feature", "properties": { "ID": 20, "BUSINESS_NAME": "FAITH CHILD CARE & LEARNING CTR.", "FULL_ADDRESS": "2208 N SHERWOOD FOREST DR", "CITY": "BATON ROUGE", "STATE": "LOUISIANA", "ZIP": 70815, "PHONE_NUMBER": null, "WEBSITE": null }, "geometry": { "type": "Point", "coordinates": [ -91.057758145916893, 30.468693975925341 ] } },
{ "type": "Feature", "properties": { "ID": 21, "BUSINESS_NAME": "KID'S COLLEGE, LLC", "FULL_ADDRESS": "2208 N SHERWOOD FOREST DR", "CITY": "BATON ROUGE", "STATE": "LOUISIANA", "ZIP": 70815, "PHONE_NUMBER": null, "WEBSITE": null }, "geometry": { "type": "Point", "coordinates": [ -91.057758145916893, 30.468693975925341 ] } },
{ "type": "Feature", "properties": { "ID": 22, "BUSINESS_NAME": "KIDS WORLD CHILDCARE", "FULL_ADDRESS": "112 SHIP DR", "CITY": "BATON ROUGE", "STATE": "LOUISIANA", "ZIP": 70806, "PHONE_NUMBER": null, "WEBSITE": null }, "geometry": { "type": "Point", "coordinates": [ -91.116256539392936, 30.449534133590145 ] } },
{ "type": "Feature", "properties": { "ID": 23, "BUSINESS_NAME": "RICHARDSON'S DAY CARE", "FULL_ADDRESS": "1215 S FLANNERY RD", "CITY": "BATON ROUGE", "STATE": "LOUISIANA", "ZIP": 70815, "PHONE_NUMBER": null, "WEBSITE": null }, "geometry": { "type": "Point", "coordinates": [ -91.034387766742597, 30.447476521754545 ] } },
{ "type": "Feature", "properties": { "ID": 24, "BUSINESS_NAME": "CORBAN EARLY CHILDHOOD CENTER", "FULL_ADDRESS": "17450 HOO SHOO TOO RD", "CITY": "BATON ROUGE", "STATE": "LOUISIANA", "ZIP": 70817, "PHONE_NUMBER": null, "WEBSITE": null }, "geometry": { "type": "Point", "coordinates": [ -90.991752307869675, 30.355567779068764 ] } },
{ "type": "Feature", "properties": { "ID": 25, "BUSINESS_NAME": "KUMON LEARNING CENTER", "FULL_ADDRESS": "14506 S HARRELL'S FERRY RD, STE A-C", "CITY": "BATON ROUGE", "STATE": "LOUISIANA", "ZIP": 70816, "PHONE_NUMBER": null, "WEBSITE": null }, "geometry": { "type": "Point", "coordinates": [ -91.024142048125995, 30.42947254471812 ] } },
{ "type": "Feature", "properties": { "ID": 26, "BUSINESS_NAME": "KIDZ KORNER DAYCARE & LEARNING CENTER", "FULL_ADDRESS": "148 CROYDON AVE", "CITY": "BATON ROUGE", "STATE": "LOUISIANA", "ZIP": 70806, "PHONE_NUMBER": null, "WEBSITE": null }, "geometry": { "type": "Point", "coordinates": [ -91.117239894140482, 30.450559313414796 ] } },
{ "type": "Feature", "properties": { "ID": 27, "BUSINESS_NAME": "MINI MIRACLES CHILDCARE", "FULL_ADDRESS": "5212 GLEN OAKS DR", "CITY": "BATON ROUGE", "STATE": "LOUISIANA", "ZIP": 70811, "PHONE_NUMBER": null, "WEBSITE": null }, "geometry": { "type": "Point", "coordinates": [ -91.138712093316656, 30.511059393396142 ] } },
{ "type": "Feature", "properties": { "ID": 28, "BUSINESS_NAME": "CINDY'S LITTLE ANGELS DAYCARE", "FULL_ADDRESS": "2862 N FOSTER DR", "CITY": "BATON ROUGE", "STATE": "LOUISIANA", "ZIP": 70805, "PHONE_NUMBER": null, "WEBSITE": null }, "geometry": { "type": "Point", "coordinates": [ -91.140122719771853, 30.474768433191038 ] } },
{ "type": "Feature", "properties": { "ID": 29, "BUSINESS_NAME": "CINDYS LITTLE ANGELS DAYCARE & PRESCHOOL", "FULL_ADDRESS": "2862 N FOSTER DR", "CITY": "BATON ROUGE", "STATE": "LOUISIANA", "ZIP": 70805, "PHONE_NUMBER": null, "WEBSITE": null }, "geometry": { "type": "Point", "coordinates": [ -91.140122719771853, 30.474768433191038 ] } },
{ "type": "Feature", "properties": { "ID": 30, "BUSINESS_NAME": "BATON ROUGE CHILD DEVELOPMENT CENTER", "FULL_ADDRESS": "248 LOBDELL AVE", "CITY": "BATON ROUGE", "STATE": "LOUISIANA", "ZIP": 70806, "PHONE_NUMBER": null, "WEBSITE": null }, "geometry": { "type": "Point", "coordinates": [ -91.112243923417807, 30.448695429319841 ] } },
{ "type": "Feature", "properties": { "ID": 31, "BUSINESS_NAME": "FUNDAMENTALS LEARNING CENTER", "FULL_ADDRESS": "16013 N FIREWOOD AVE", "CITY": "BATON ROUGE", "STATE": "LOUISIANA", "ZIP": 70816, "PHONE_NUMBER": null, "WEBSITE": null }, "geometry": { "type": "Point", "coordinates": [ -91.008486481885214, 30.43451390023564 ] } },
{ "type": "Feature", "properties": { "ID": 32, "BUSINESS_NAME": "A STEP AHEAD CHILD DEVELOPMENT AND LEARNING CENTER", "FULL_ADDRESS": "1736 LAUREL ST", "CITY": "BATON ROUGE", "STATE": "LOUISIANA", "ZIP": 70802, "PHONE_NUMBER": null, "WEBSITE": null }, "geometry": { "type": "Point", "coordinates": [ -91.170485103323671, 30.450706348864578 ] } },
{ "type": "Feature", "properties": { "ID": 33, "BUSINESS_NAME": "FOOTPRINTS OF LOVE DAYCARE CENTER", "FULL_ADDRESS": "6729 CEZANNE AVE", "CITY": "BATON ROUGE", "STATE": "LOUISIANA", "ZIP": 70806, "PHONE_NUMBER": null, "WEBSITE": null }, "geometry": { "type": "Point", "coordinates": [ -91.122254520724653, 30.460179905545388 ] } },
{ "type": "Feature", "properties": { "ID": 34, "BUSINESS_NAME": "RICHARDSON'S DAY CARE", "FULL_ADDRESS": "14885 OLD HAMMOND HWY", "CITY": "BATON ROUGE", "STATE": "LOUISIANA", "ZIP": 70819, "PHONE_NUMBER": null, "WEBSITE": null }, "geometry": { "type": "Point", "coordinates": [ -91.02041097316787, 30.454185611952997 ] } },
{ "type": "Feature", "properties": { "ID": 35, "BUSINESS_NAME": "COLOR WHEEL LEARNING CENTER", "FULL_ADDRESS": "11637 SHERWOOD FOREST CT", "CITY": "BATON ROUGE", "STATE": "LOUISIANA", "ZIP": 70816, "PHONE_NUMBER": null, "WEBSITE": null }, "geometry": { "type": "Point", "coordinates": [ -91.05298557995259, 30.407864547560902 ] } },
{ "type": "Feature", "properties": { "ID": 36, "BUSINESS_NAME": "PLAYDATES DROP IN HOURLY CHILD CARE", "FULL_ADDRESS": "8821 BLUEBONNET BLVD", "CITY": "BATON ROUGE", "STATE": "LOUISIANA", "ZIP": 70810, "PHONE_NUMBER": null, "WEBSITE": null }, "geometry": { "type": "Point", "coordinates": [ -91.102653561092168, 30.368961925091135 ] } },
{ "type": "Feature", "properties": { "ID": 37, "BUSINESS_NAME": "KINDERCARE LEARNING CENTER #306", "FULL_ADDRESS": "4435 FLOYNELL DR", "CITY": "BATON ROUGE", "STATE": "LOUISIANA", "ZIP": 70809, "PHONE_NUMBER": null, "WEBSITE": null }, "geometry": { "type": "Point", "coordinates": [ -91.073261617306102, 30.409076168669817 ] } },
{ "type": "Feature", "properties": { "ID": 38, "BUSINESS_NAME": "KINDERCARE LEARNING CENTER #952", "FULL_ADDRESS": "11349 GREENWELL SPRINGS RD", "CITY": "BATON ROUGE", "STATE": "LOUISIANA", "ZIP": 70814, "PHONE_NUMBER": null, "WEBSITE": null }, "geometry": { "type": "Point", "coordinates": [ -91.056959278008691, 30.494575512645966 ] } },
{ "type": "Feature", "properties": { "ID": 39, "BUSINESS_NAME": "THE LEARNING CENTER LLC", "FULL_ADDRESS": "10689 PERKINS RD", "CITY": "BATON ROUGE", "STATE": "LOUISIANA", "ZIP": 70810, "PHONE_NUMBER": null, "WEBSITE": null }, "geometry": { "type": "Point", "coordinates": [ -91.092012590085872, 30.376892947813399 ] } },
{ "type": "Feature", "properties": { "ID": 40, "BUSINESS_NAME": "NEW LIFE CHRISTIAN DAY CARE & LEARNING ACADEMY", "FULL_ADDRESS": "170 S ARDENWOOD DR", "CITY": "BATON ROUGE", "STATE": "LOUISIANA", "ZIP": 70806, "PHONE_NUMBER": null, "WEBSITE": null }, "geometry": { "type": "Point", "coordinates": [ -91.127912407961944, 30.449402635852952 ] } },
{ "type": "Feature", "properties": { "ID": 41, "BUSINESS_NAME": "YES WE CAN CHILD DEVELOPMENT CENTER", "FULL_ADDRESS": "1956 DALLAS DR, STE 1", "CITY": "BATON ROUGE", "STATE": "LOUISIANA", "ZIP": 70806, "PHONE_NUMBER": null, "WEBSITE": null }, "geometry": { "type": "Point", "coordinates": [ -91.111313898081775, 30.468053427742351 ] } },
{ "type": "Feature", "properties": { "ID": 42, "BUSINESS_NAME": "ROBSON'S QUALITY CHILDCARE & LEARNING CENTER", "FULL_ADDRESS": "170 S ARDENWOOD DR", "CITY": "BATON ROUGE", "STATE": "LOUISIANA", "ZIP": 70806, "PHONE_NUMBER": null, "WEBSITE": null }, "geometry": { "type": "Point", "coordinates": [ -91.127912407961944, 30.449402635852952 ] } },
{ "type": "Feature", "properties": { "ID": 43, "BUSINESS_NAME": "FIRST STEPS ACADEMY #1", "FULL_ADDRESS": "4742 GROOM RD", "CITY": "BAKER", "STATE": "LOUISIANA", "ZIP": 70714, "PHONE_NUMBER": null, "WEBSITE": null }, "geometry": { "type": "Point", "coordinates": [ -91.148739580880701, 30.58662032639425 ] } },
{ "type": "Feature", "properties": { "ID": 44, "BUSINESS_NAME": "CREATIVE TEACHING TOOLS", "FULL_ADDRESS": "14010 PLANK RD", "CITY": "BAKER", "STATE": "LOUISIANA", "ZIP": 70714, "PHONE_NUMBER": null, "WEBSITE": null }, "geometry": { "type": "Point", "coordinates": [ -91.127925146440944, 30.57476222083875 ] } },
{ "type": "Feature", "properties": { "ID": 45, "BUSINESS_NAME": "DOT'S LEARNING CENTER", "FULL_ADDRESS": "5224 N FLANNERY RD", "CITY": "BATON ROUGE", "STATE": "LOUISIANA", "ZIP": 70814, "PHONE_NUMBER": null, "WEBSITE": null }, "geometry": { "type": "Point", "coordinates": [ -91.041792450771894, 30.497208080520178 ] } },
{ "type": "Feature", "properties": { "ID": 46, "BUSINESS_NAME": "TOTS N TODDLERS INC", "FULL_ADDRESS": "4006 PLATT DR", "CITY": "BATON ROUGE", "STATE": "LOUISIANA", "ZIP": 70814, "PHONE_NUMBER": null, "WEBSITE": null }, "geometry": { "type": "Point", "coordinates": [ -91.075329625341496, 30.487286231726948 ] } },
{ "type": "Feature", "properties": { "ID": 47, "BUSINESS_NAME": "KIDS COVE DAYCARE AND LEARNING CENTER", "FULL_ADDRESS": "12006 COURSEY BLVD", "CITY": "BATON ROUGE", "STATE": "LOUISIANA", "ZIP": 70816, "PHONE_NUMBER": null, "WEBSITE": null }, "geometry": { "type": "Point", "coordinates": [ -91.046312026854181, 30.41127341919962 ] } },
{ "type": "Feature", "properties": { "ID": 48, "BUSINESS_NAME": "ABUNDANT BLESSINGS DAYCARE", "FULL_ADDRESS": "2863 O'NEAL LN", "CITY": "BATON ROUGE", "STATE": "LOUISIANA", "ZIP": 70816, "PHONE_NUMBER": null, "WEBSITE": null }, "geometry": { "type": "Point", "coordinates": [ -91.006941576526884, 30.42712117222101 ] } },
{ "type": "Feature", "properties": { "ID": 49, "BUSINESS_NAME": "COUNTRY MANOR DAY SCHOOL", "FULL_ADDRESS": "17080 MEDICAL CENTER DR", "CITY": "BATON ROUGE", "STATE": "LOUISIANA", "ZIP": 70816, "PHONE_NUMBER": null, "WEBSITE": null }, "geometry": { "type": "Point", "coordinates": [ -90.998500412739602, 30.441024281779569 ] } },
{ "type": "Feature", "properties": { "ID": 50, "BUSINESS_NAME": "CHILDREN'S UNIVERSE", "FULL_ADDRESS": "11375 STAN AVE", "CITY": "BATON ROUGE", "STATE": "LOUISIANA", "ZIP": 70815, "PHONE_NUMBER": null, "WEBSITE": null }, "geometry": { "type": "Point", "coordinates": [ -91.056770799806912, 30.470165160205021 ] } },
{ "type": "Feature", "properties": { "ID": 51, "BUSINESS_NAME": "CREATIVE CHILDRENS LEARNING", "FULL_ADDRESS": "11375 STAN AVE", "CITY": "BATON ROUGE", "STATE": "LOUISIANA", "ZIP": 70815, "PHONE_NUMBER": null, "WEBSITE": null }, "geometry": { "type": "Point", "coordinates": [ -91.056770799806912, 30.470165160205021 ] } },
{ "type": "Feature", "properties": { "ID": 52, "BUSINESS_NAME": "MOTHER'S CHOICE DAYCARE", "FULL_ADDRESS": "621 SHADYGLEN DR", "CITY": "BATON ROUGE", "STATE": "LOUISIANA", "ZIP": 70816, "PHONE_NUMBER": null, "WEBSITE": null }, "geometry": { "type": "Point", "coordinates": [ -91.013775163341947, 30.456952781881949 ] } },
{ "type": "Feature", "properties": { "ID": 53, "BUSINESS_NAME": "KUDDLES AND KISSES DAY CARE CENTER", "FULL_ADDRESS": "14861 OLD HAMMOND HWY", "CITY": "BATON ROUGE", "STATE": "LOUISIANA", "ZIP": 70819, "PHONE_NUMBER": null, "WEBSITE": null }, "geometry": { "type": "Point", "coordinates": [ -91.020796945238587, 30.453979840895563 ] } },
{ "type": "Feature", "properties": { "ID": 54, "BUSINESS_NAME": "A LIL' ONE'S LEARNING CENTER", "FULL_ADDRESS": "13943 PERKINS RD", "CITY": "BATON ROUGE", "STATE": "LOUISIANA", "ZIP": 70810, "PHONE_NUMBER": null, "WEBSITE": null }, "geometry": { "type": "Point", "coordinates": [ -91.062128544945338, 30.364423286810929 ] } },
{ "type": "Feature", "properties": { "ID": 55, "BUSINESS_NAME": "LA CARTA CHILDCARE & LEARNING CENTER", "FULL_ADDRESS": "5360 STEARNS ST", "CITY": "BATON ROUGE", "STATE": "LOUISIANA", "ZIP": 70811, "PHONE_NUMBER": null, "WEBSITE": null }, "geometry": { "type": "Point", "coordinates": [ -91.137085134090938, 30.518204071988809 ] } },
{ "type": "Feature", "properties": { "ID": 56, "BUSINESS_NAME": "PAT'S DAYCARE CENTER", "FULL_ADDRESS": "6637 N FOSTER DR", "CITY": "BATON ROUGE", "STATE": "LOUISIANA", "ZIP": 70811, "PHONE_NUMBER": null, "WEBSITE": null }, "geometry": { "type": "Point", "coordinates": [ -91.141106354724954, 30.510409501740224 ] } },
{ "type": "Feature", "properties": { "ID": 57, "BUSINESS_NAME": "LAD'S & LASSIE'S ACADEMY", "FULL_ADDRESS": "13833 PERKINS RD", "CITY": "BATON ROUGE", "STATE": "LOUISIANA", "ZIP": 70810, "PHONE_NUMBER": null, "WEBSITE": null }, "geometry": { "type": "Point", "coordinates": [ -91.063767946185834, 30.365348304790405 ] } },
{ "type": "Feature", "properties": { "ID": 58, "BUSINESS_NAME": "LADS & LASSIES DAY CARE CENTER", "FULL_ADDRESS": "13833 PERKINS RD", "CITY": "BATON ROUGE", "STATE": "LOUISIANA", "ZIP": 70810, "PHONE_NUMBER": null, "WEBSITE": null }, "geometry": { "type": "Point", "coordinates": [ -91.063767946185834, 30.365348304790405 ] } },
{ "type": "Feature", "properties": { "ID": 59, "BUSINESS_NAME": "LITTLE LAND LEARNING CENTER", "FULL_ADDRESS": "9212 GREENWELL SPRINGS RD", "CITY": "BATON ROUGE", "STATE": "LOUISIANA", "ZIP": 70814, "PHONE_NUMBER": null, "WEBSITE": null }, "geometry": { "type": "Point", "coordinates": [ -91.087195620913732, 30.483840132661712 ] } },
{ "type": "Feature", "properties": { "ID": 60, "BUSINESS_NAME": "LUCY'S DAYCARE", "FULL_ADDRESS": "5811 SILVERLEAF AVE", "CITY": "BATON ROUGE", "STATE": "LOUISIANA", "ZIP": 70812, "PHONE_NUMBER": null, "WEBSITE": null }, "geometry": { "type": "Point", "coordinates": [ -91.125592661124514, 30.503849869797861 ] } },
{ "type": "Feature", "properties": { "ID": 61, "BUSINESS_NAME": "MAISON ACADEMY DAYCARE", "FULL_ADDRESS": "6012 N FOSTER DR", "CITY": "BATON ROUGE", "STATE": "LOUISIANA", "ZIP": 70805, "PHONE_NUMBER": null, "WEBSITE": null }, "geometry": { "type": "Point", "coordinates": [ -91.140820727752029, 30.505015863341185 ] } },
{ "type": "Feature", "properties": { "ID": 62, "BUSINESS_NAME": "RUNNELS SCHOOL PRESCHOOL", "FULL_ADDRESS": "6455 JEFFERSON HWY", "CITY": "BATON ROUGE", "STATE": "LOUISIANA", "ZIP": 70806, "PHONE_NUMBER": null, "WEBSITE": null }, "geometry": { "type": "Point", "coordinates": [ -91.122447830555146, 30.435614287707672 ] } },
{ "type": "Feature", "properties": { "ID": 63, "BUSINESS_NAME": "S & M KIDZ DAYCARE", "FULL_ADDRESS": "1055 N 39TH ST", "CITY": "BATON ROUGE", "STATE": "LOUISIANA", "ZIP": 70802, "PHONE_NUMBER": null, "WEBSITE": null }, "geometry": { "type": "Point", "coordinates": [ -91.151493817996311, 30.457873368382529 ] } },
{ "type": "Feature", "properties": { "ID": 64, "BUSINESS_NAME": "EVAN DAYCARE", "FULL_ADDRESS": "1637 75TH AVE", "CITY": "BATON ROUGE", "STATE": "LOUISIANA", "ZIP": 70807, "PHONE_NUMBER": null, "WEBSITE": null }, "geometry": { "type": "Point", "coordinates": [ -91.175475877975899, 30.516449578887645 ] } },
{ "type": "Feature", "properties": { "ID": 65, "BUSINESS_NAME": "4 KIDS DAYCARE & LEARNING CTR", "FULL_ADDRESS": "3634 PLANK RD", "CITY": "BATON ROUGE", "STATE": "LOUISIANA", "ZIP": 70805, "PHONE_NUMBER": null, "WEBSITE": null }, "geometry": { "type": "Point", "coordinates": [ -91.159122716811453, 30.481537087703643 ] } },
{ "type": "Feature", "properties": { "ID": 66, "BUSINESS_NAME": "JACKSON'S PRE-SCHOOL & CHILD DEVELOPMENT CENTER", "FULL_ADDRESS": "2710 N FOSTER DR", "CITY": "BATON ROUGE", "STATE": "LOUISIANA", "ZIP": 70805, "PHONE_NUMBER": null, "WEBSITE": null }, "geometry": { "type": "Point", "coordinates": [ -91.140061250026619, 30.473109439984746 ] } },
{ "type": "Feature", "properties": { "ID": 67, "BUSINESS_NAME": "ZOES WINDOW LEARNING ACADEMY", "FULL_ADDRESS": "7450 ANTIOCH RD", "CITY": "BATON ROUGE", "STATE": "LOUISIANA", "ZIP": 70817, "PHONE_NUMBER": null, "WEBSITE": null }, "geometry": { "type": "Point", "coordinates": [ -91.00787855701239, 30.383988542297693 ] } },
{ "type": "Feature", "properties": { "ID": 68, "BUSINESS_NAME": "KIDS COUNT", "FULL_ADDRESS": "525 RAPIDES ST", "CITY": "BATON ROUGE", "STATE": "LOUISIANA", "ZIP": 70806, "PHONE_NUMBER": null, "WEBSITE": null }, "geometry": { "type": "Point", "coordinates": [ -91.131224884957973, 30.444053309446698 ] } },
{ "type": "Feature", "properties": { "ID": 69, "BUSINESS_NAME": "LIGHTHOUSE LEARNING CENTER, THE", "FULL_ADDRESS": "162 MARQUETTE AVE", "CITY": "BATON ROUGE", "STATE": "LOUISIANA", "ZIP": 70806, "PHONE_NUMBER": null, "WEBSITE": null }, "geometry": { "type": "Point", "coordinates": [ -91.125500706892709, 30.449572758269287 ] } },
{ "type": "Feature", "properties": { "ID": 70, "BUSINESS_NAME": "GOOD SHEPHERD DAY CARE CENTER", "FULL_ADDRESS": "2863 MISSION DR", "CITY": "BATON ROUGE", "STATE": "LOUISIANA", "ZIP": 70805, "PHONE_NUMBER": null, "WEBSITE": null }, "geometry": { "type": "Point", "coordinates": [ -91.144886024371587, 30.47438934795597 ] } },
{ "type": "Feature", "properties": { "ID": 71, "BUSINESS_NAME": "GREATER NEW GUIDE LEARNING ACADEMY", "FULL_ADDRESS": "3328 ADAMS AVE", "CITY": "BATON ROUGE", "STATE": "LOUISIANA", "ZIP": 70802, "PHONE_NUMBER": null, "WEBSITE": null }, "geometry": { "type": "Point", "coordinates": [ -91.155810794452691, 30.468100726805552 ] } },
{ "type": "Feature", "properties": { "ID": 72, "BUSINESS_NAME": "COMMUNITY DAYCARE CENTER OF SCOTLANDVILLE", "FULL_ADDRESS": "2315 HARDING BLVD", "CITY": "BATON ROUGE", "STATE": "LOUISIANA", "ZIP": 70807, "PHONE_NUMBER": null, "WEBSITE": null }, "geometry": { "type": "Point", "coordinates": [ -91.168964243949816, 30.52112784273697 ] } },
{ "type": "Feature", "properties": { "ID": 73, "BUSINESS_NAME": "YOLANDAS WORLD OF LEARNING CTR", "FULL_ADDRESS": "5270 WINBOURNE AVE", "CITY": "BATON ROUGE", "STATE": "LOUISIANA", "ZIP": 70805, "PHONE_NUMBER": null, "WEBSITE": null }, "geometry": { "type": "Point", "coordinates": [ -91.137842009953019, 30.478786040955374 ] } },
{ "type": "Feature", "properties": { "ID": 74, "BUSINESS_NAME": "COURTNEY'S CHRISTIAN CHILD CARE CENTER", "FULL_ADDRESS": "3054 EVANGELINE ST", "CITY": "BATON ROUGE", "STATE": "LOUISIANA", "ZIP": 70805, "PHONE_NUMBER": null, "WEBSITE": null }, "geometry": { "type": "Point", "coordinates": [ -91.159564397905783, 30.492407336572668 ] } },
{ "type": "Feature", "properties": { "ID": 75, "BUSINESS_NAME": "COURTNEYS CHRISTIAN CHILDCARE", "FULL_ADDRESS": "3054 EVANGELINE ST", "CITY": "BATON ROUGE", "STATE": "LOUISIANA", "ZIP": 70805, "PHONE_NUMBER": null, "WEBSITE": null }, "geometry": { "type": "Point", "coordinates": [ -91.159564397905783, 30.492407336572668 ] } },
{ "type": "Feature", "properties": { "ID": 76, "BUSINESS_NAME": "YWCA ISTROUMA EARLY HEAD START CENTER", "FULL_ADDRESS": "4643 WINBOURNE AVE", "CITY": "BATON ROUGE", "STATE": "LOUISIANA", "ZIP": 70805, "PHONE_NUMBER": null, "WEBSITE": null }, "geometry": { "type": "Point", "coordinates": [ -91.143816390091942, 30.479171276693922 ] } },
{ "type": "Feature", "properties": { "ID": 77, "BUSINESS_NAME": "RENAISSANCE COMMUNITY CENTER & PRESCHOOL", "FULL_ADDRESS": "2783 PLANK RD", "CITY": "BATON ROUGE", "STATE": "LOUISIANA", "ZIP": 70805, "PHONE_NUMBER": null, "WEBSITE": null }, "geometry": { "type": "Point", "coordinates": [ -91.162702827057046, 30.473146261367987 ] } },
{ "type": "Feature", "properties": { "ID": 78, "BUSINESS_NAME": "S & S CHILDCARE", "FULL_ADDRESS": "4029 PLANK RD", "CITY": "BATON ROUGE", "STATE": "LOUISIANA", "ZIP": 70805, "PHONE_NUMBER": null, "WEBSITE": null }, "geometry": { "type": "Point", "coordinates": [ -91.158038123020376, 30.486434143327404 ] } },
{ "type": "Feature", "properties": { "ID": 79, "BUSINESS_NAME": "TRAINING FOR TOMORROW  ACADEMY #2", "FULL_ADDRESS": "3936 PLANK RD", "CITY": "BATON ROUGE", "STATE": "LOUISIANA", "ZIP": 70805, "PHONE_NUMBER": null, "WEBSITE": null }, "geometry": { "type": "Point", "coordinates": [ -91.157898141955911, 30.48533152463337 ] } },
{ "type": "Feature", "properties": { "ID": 80, "BUSINESS_NAME": "TNT CHRISTIAN DAYCARE", "FULL_ADDRESS": "3250 LONE OAK DR", "CITY": "BATON ROUGE", "STATE": "LOUISIANA", "ZIP": 70814, "PHONE_NUMBER": null, "WEBSITE": null }, "geometry": { "type": "Point", "coordinates": [ -91.105432058830829, 30.479551415888743 ] } },
{ "type": "Feature", "properties": { "ID": 81, "BUSINESS_NAME": "BLESSED ONES EARLY LEARNING ACADEMY", "FULL_ADDRESS": "9783 GREENWELL SPRINGS RD", "CITY": "BATON ROUGE", "STATE": "LOUISIANA", "ZIP": 70814, "PHONE_NUMBER": null, "WEBSITE": null }, "geometry": { "type": "Point", "coordinates": [ -91.077325008323101, 30.488896162581327 ] } },
{ "type": "Feature", "properties": { "ID": 82, "BUSINESS_NAME": "ABLE COMMUNITY SERVICES LLC", "FULL_ADDRESS": "8152 SCENIC HWY", "CITY": "BATON ROUGE", "STATE": "LOUISIANA", "ZIP": 70807, "PHONE_NUMBER": null, "WEBSITE": null }, "geometry": { "type": "Point", "coordinates": [ -91.179687092335698, 30.521805604523713 ] } },
{ "type": "Feature", "properties": { "ID": 83, "BUSINESS_NAME": "KIDS WORLD CHILD CARE", "FULL_ADDRESS": "1183 GARDERE LN", "CITY": "BATON ROUGE", "STATE": "LOUISIANA", "ZIP": 70820, "PHONE_NUMBER": null, "WEBSITE": null }, "geometry": { "type": "Point", "coordinates": [ -91.124297853632783, 30.359242905218405 ] } },
{ "type": "Feature", "properties": { "ID": 84, "BUSINESS_NAME": "WESTMINSTER ACADEMY #3", "FULL_ADDRESS": "10079 BURBANK DR", "CITY": "BATON ROUGE", "STATE": "LOUISIANA", "ZIP": 70810, "PHONE_NUMBER": null, "WEBSITE": null }, "geometry": { "type": "Point", "coordinates": [ -91.114781750244845, 30.356586933243349 ] } },
{ "type": "Feature", "properties": { "ID": 85, "BUSINESS_NAME": "NEIGHBORHOOD DAY CARE LEARNING CENTER #2", "FULL_ADDRESS": "5245 WINBOURNE AVE", "CITY": "BATON ROUGE", "STATE": "LOUISIANA", "ZIP": 70805, "PHONE_NUMBER": null, "WEBSITE": null }, "geometry": { "type": "Point", "coordinates": [ -91.138121322062617, 30.479185429592821 ] } },
{ "type": "Feature", "properties": { "ID": 86, "BUSINESS_NAME": "LADY T ENTERPRISE DAYCARE", "FULL_ADDRESS": "2560 72ND AVE", "CITY": "BATON ROUGE", "STATE": "LOUISIANA", "ZIP": 70807, "PHONE_NUMBER": null, "WEBSITE": null }, "geometry": { "type": "Point", "coordinates": [ -91.166372765412177, 30.514294323094756 ] } },
{ "type": "Feature", "properties": { "ID": 87, "BUSINESS_NAME": "YWCA PRESCOTT EARLY HEAD START CENTER", "FULL_ADDRESS": "5262 PRESCOTT RD", "CITY": "BATON ROUGE", "STATE": "LOUISIANA", "ZIP": 70805, "PHONE_NUMBER": null, "WEBSITE": null }, "geometry": { "type": "Point", "coordinates": [ -91.136628343894102, 30.487310550949406 ] } },
{ "type": "Feature", "properties": { "ID": 88, "BUSINESS_NAME": "NIKI'S DAYCARE", "FULL_ADDRESS": "8157 PLANK RD", "CITY": "BATON ROUGE", "STATE": "LOUISIANA", "ZIP": 70811, "PHONE_NUMBER": null, "WEBSITE": null }, "geometry": { "type": "Point", "coordinates": [ -91.145509256624237, 30.522850524942502 ] } },
{ "type": "Feature", "properties": { "ID": 89, "BUSINESS_NAME": "NURSERY RHYME, THE", "FULL_ADDRESS": "3590 JONES CREEK RD", "CITY": "BATON ROUGE", "STATE": "LOUISIANA", "ZIP": 70816, "PHONE_NUMBER": null, "WEBSITE": null }, "geometry": { "type": "Point", "coordinates": [ -91.014487608246725, 30.419933891497536 ] } },
{ "type": "Feature", "properties": { "ID": 90, "BUSINESS_NAME": "AMAZING KIDS CABBY LLC", "FULL_ADDRESS": "14532 CHIMNEYWOOD AVE", "CITY": "BATON ROUGE", "STATE": "LOUISIANA", "ZIP": 70816, "PHONE_NUMBER": null, "WEBSITE": null }, "geometry": { "type": "Point", "coordinates": [ -91.023324636699428, 30.436426782687668 ] } },
{ "type": "Feature", "properties": { "ID": 91, "BUSINESS_NAME": "STEPPING STONES INC, THE", "FULL_ADDRESS": "940 O'NEAL LN", "CITY": "BATON ROUGE", "STATE": "LOUISIANA", "ZIP": 70816, "PHONE_NUMBER": null, "WEBSITE": null }, "geometry": { "type": "Point", "coordinates": [ -91.008784999900882, 30.454873652110958 ] } },
{ "type": "Feature", "properties": { "ID": 92, "BUSINESS_NAME": "MARY LEES DAY CARE", "FULL_ADDRESS": "420 N ACADIAN THWY", "CITY": "BATON ROUGE", "STATE": "LOUISIANA", "ZIP": 70806, "PHONE_NUMBER": null, "WEBSITE": null }, "geometry": { "type": "Point", "coordinates": [ -91.154427738644671, 30.451888012280133 ] } },
{ "type": "Feature", "properties": { "ID": 93, "BUSINESS_NAME": "EMERALD FOREST LEARNING CENTER", "FULL_ADDRESS": "420 N ACADIAN THWY", "CITY": "BATON ROUGE", "STATE": "LOUISIANA", "ZIP": 70806, "PHONE_NUMBER": null, "WEBSITE": null }, "geometry": { "type": "Point", "coordinates": [ -91.154427738644671, 30.451888012280133 ] } },
{ "type": "Feature", "properties": { "ID": 94, "BUSINESS_NAME": "CLAY'S DAY CARE", "FULL_ADDRESS": "2009 GEORGIA ST", "CITY": "BATON ROUGE", "STATE": "LOUISIANA", "ZIP": 70802, "PHONE_NUMBER": null, "WEBSITE": null }, "geometry": { "type": "Point", "coordinates": [ -91.175112086003978, 30.428930202129163 ] } },
{ "type": "Feature", "properties": { "ID": 95, "BUSINESS_NAME": "KIDS ARE SPECIAL LEARNING CENTER", "FULL_ADDRESS": "5455 PARKVIEW CHURCH RD", "CITY": "BATON ROUGE", "STATE": "LOUISIANA", "ZIP": 70816, "PHONE_NUMBER": null, "WEBSITE": null }, "geometry": { "type": "Point", "coordinates": [ -91.048727934583084, 30.400537944895248 ] } },
{ "type": "Feature", "properties": { "ID": 96, "BUSINESS_NAME": "LITTLE STARS DAYCARE LEARNING CENTER", "FULL_ADDRESS": "4244 NORTH BLVD", "CITY": "BATON ROUGE", "STATE": "LOUISIANA", "ZIP": 70806, "PHONE_NUMBER": null, "WEBSITE": null }, "geometry": { "type": "Point", "coordinates": [ -91.145682104346733, 30.448258107738862 ] } },
{ "type": "Feature", "properties": { "ID": 97, "BUSINESS_NAME": "YWCA GLEN OAKS EARLY HEAD START CENTER", "FULL_ADDRESS": "7055 GLEN OAKS DR", "CITY": "BATON ROUGE", "STATE": "LOUISIANA", "ZIP": 70812, "PHONE_NUMBER": null, "WEBSITE": null }, "geometry": { "type": "Point", "coordinates": [ -91.119798041693841, 30.510342867833447 ] } },
{ "type": "Feature", "properties": { "ID": 98, "BUSINESS_NAME": "LSU CHILD CARE CENTER", "FULL_ADDRESS": "4001 GOURRIER AVE", "CITY": "BATON ROUGE", "STATE": "LOUISIANA", "ZIP": 70808, "PHONE_NUMBER": null, "WEBSITE": null }, "geometry": { "type": "Point", "coordinates": [ -91.180941286646188, 30.404586126672754 ] } },
{ "type": "Feature", "properties": { "ID": 99, "BUSINESS_NAME": "LITTLE BO-PEEP DAY CARE & LEARNING CENTER", "FULL_ADDRESS": "1227 LEE DR", "CITY": "BATON ROUGE", "STATE": "LOUISIANA", "ZIP": 70808, "PHONE_NUMBER": null, "WEBSITE": null }, "geometry": { "type": "Point", "coordinates": [ -91.150264690047223, 30.406013469942515 ] } },
{ "type": "Feature", "properties": { "ID": 100, "BUSINESS_NAME": "CHARITY CHRISTIAN PRE-SCHOOL", "FULL_ADDRESS": "871 O'NEAL LN", "CITY": "BATON ROUGE", "STATE": "LOUISIANA", "ZIP": 70816, "PHONE_NUMBER": null, "WEBSITE": null }, "geometry": { "type": "Point", "coordinates": [ -91.007421353806592, 30.456135548135062 ] } },
{ "type": "Feature", "properties": { "ID": 101, "BUSINESS_NAME": "SUNSET, THE", "FULL_ADDRESS": "7295 EXCHANGE PL", "CITY": "BATON ROUGE", "STATE": "LOUISIANA", "ZIP": 70806, "PHONE_NUMBER": null, "WEBSITE": null }, "geometry": { "type": "Point", "coordinates": [ -91.114742766971673, 30.464414929159865 ] } },
{ "type": "Feature", "properties": { "ID": 102, "BUSINESS_NAME": "EDEN OF EDEN CHRISTIAN ACADEMY", "FULL_ADDRESS": "7315 EXCHANGE PL", "CITY": "BATON ROUGE", "STATE": "LOUISIANA", "ZIP": 70806, "PHONE_NUMBER": null, "WEBSITE": null }, "geometry": { "type": "Point", "coordinates": [ -91.114454980303705, 30.464282016863994 ] } },
{ "type": "Feature", "properties": { "ID": 103, "BUSINESS_NAME": "KINDER CARE LEARNING CENTERS LLC", "FULL_ADDRESS": "1188 O'NEAL LN", "CITY": "BATON ROUGE", "STATE": "LOUISIANA", "ZIP": 70816, "PHONE_NUMBER": null, "WEBSITE": null }, "geometry": { "type": "Point", "coordinates": [ -91.008818560326333, 30.452159785985518 ] } },
{ "type": "Feature", "properties": { "ID": 104, "BUSINESS_NAME": "IFA DAYCARE", "FULL_ADDRESS": "5675 LANCASTER AVE", "CITY": "BATON ROUGE", "STATE": "LOUISIANA", "ZIP": 70805, "PHONE_NUMBER": null, "WEBSITE": null }, "geometry": { "type": "Point", "coordinates": [ -91.140094370863196, 30.501782348223667 ] } },
{ "type": "Feature", "properties": { "ID": 105, "BUSINESS_NAME": "ANIMAL CRACKER LEARNING CENTER", "FULL_ADDRESS": "15025 JEFFERSON HWY", "CITY": "BATON ROUGE", "STATE": "LOUISIANA", "ZIP": 70817, "PHONE_NUMBER": null, "WEBSITE": null }, "geometry": { "type": "Point", "coordinates": [ -91.021086215034387, 30.378471803948312 ] } },
{ "type": "Feature", "properties": { "ID": 106, "BUSINESS_NAME": "BATON ROUGE CHRISTIAN ACADEMY", "FULL_ADDRESS": "2432 MONROE AVE", "CITY": "BATON ROUGE", "STATE": "LOUISIANA", "ZIP": 70802, "PHONE_NUMBER": null, "WEBSITE": null }, "geometry": { "type": "Point", "coordinates": [ -91.164652737587517, 30.469341971447488 ] } },
{ "type": "Feature", "properties": { "ID": 107, "BUSINESS_NAME": "MCKANSTRY PREPARATORY SCHOOL OF MUSIC AND PERFORMING ARTS", "FULL_ADDRESS": "10022 GREENWELL SPRINGS RD", "CITY": "BATON ROUGE", "STATE": "LOUISIANA", "ZIP": 70814, "PHONE_NUMBER": null, "WEBSITE": null }, "geometry": { "type": "Point", "coordinates": [ -91.07318367957599, 30.489954366099841 ] } },
{ "type": "Feature", "properties": { "ID": 108, "BUSINESS_NAME": "BUSY TOTS AND TODDLERS", "FULL_ADDRESS": "4183 NORTH BLVD", "CITY": "BATON ROUGE", "STATE": "LOUISIANA", "ZIP": 70806, "PHONE_NUMBER": null, "WEBSITE": null }, "geometry": { "type": "Point", "coordinates": [ -91.146504396212123, 30.448720644835188 ] } },
{ "type": "Feature", "properties": { "ID": 109, "BUSINESS_NAME": "KIDDOSCOPE", "FULL_ADDRESS": "4183 NORTH BLVD", "CITY": "BATON ROUGE", "STATE": "LOUISIANA", "ZIP": 70806, "PHONE_NUMBER": null, "WEBSITE": null }, "geometry": { "type": "Point", "coordinates": [ -91.146504396212123, 30.448720644835188 ] } },
{ "type": "Feature", "properties": { "ID": 110, "BUSINESS_NAME": "BRILLIANT BEGINNINGS CHILD DEVELOPMENT AND LEARNING CENTER", "FULL_ADDRESS": "4338 HARDING BLVD", "CITY": "BATON ROUGE", "STATE": "LOUISIANA", "ZIP": 70807, "PHONE_NUMBER": null, "WEBSITE": null }, "geometry": { "type": "Point", "coordinates": [ -91.146872673869083, 30.520437531370234 ] } },
{ "type": "Feature", "properties": { "ID": 111, "BUSINESS_NAME": "BUMBLEBEEZ DAYCARE", "FULL_ADDRESS": "5676 PLANK RD", "CITY": "BATON ROUGE", "STATE": "LOUISIANA", "ZIP": 70805, "PHONE_NUMBER": null, "WEBSITE": null }, "geometry": { "type": "Point", "coordinates": [ -91.151948919613616, 30.501878675905825 ] } },
{ "type": "Feature", "properties": { "ID": 112, "BUSINESS_NAME": "CATERPILLAR'S COLLEGE", "FULL_ADDRESS": "4904 WINBOURNE AVE", "CITY": "BATON ROUGE", "STATE": "LOUISIANA", "ZIP": 70805, "PHONE_NUMBER": null, "WEBSITE": null }, "geometry": { "type": "Point", "coordinates": [ -91.141434523339214, 30.478656070261323 ] } },
{ "type": "Feature", "properties": { "ID": 113, "BUSINESS_NAME": "NEXT TO PARENTS DAYCARE INC", "FULL_ADDRESS": "4946 EVANGELINE ST", "CITY": "BATON ROUGE", "STATE": "LOUISIANA", "ZIP": 70805, "PHONE_NUMBER": null, "WEBSITE": null }, "geometry": { "type": "Point", "coordinates": [ -91.14129814939551, 30.492898435068927 ] } },
{ "type": "Feature", "properties": { "ID": 114, "BUSINESS_NAME": "JENKINS INFANT & TODDLER", "FULL_ADDRESS": "3173 WASHINGTON AVE", "CITY": "BATON ROUGE", "STATE": "LOUISIANA", "ZIP": 70802, "PHONE_NUMBER": null, "WEBSITE": null }, "geometry": { "type": "Point", "coordinates": [ -91.156507435104956, 30.46570503701443 ] } },
{ "type": "Feature", "properties": { "ID": 115, "BUSINESS_NAME": "WESTMINSTER ACADEMY #1", "FULL_ADDRESS": "3393 VICTORIA DR", "CITY": "BATON ROUGE", "STATE": "LOUISIANA", "ZIP": 70805, "PHONE_NUMBER": null, "WEBSITE": null }, "geometry": { "type": "Point", "coordinates": [ -91.117884576259044, 30.480698018779012 ] } },
{ "type": "Feature", "properties": { "ID": 116, "BUSINESS_NAME": "KIDZ KORNER DAYCARE #2", "FULL_ADDRESS": "1306 THOMAS H DELPIT DR", "CITY": "BATON ROUGE", "STATE": "LOUISIANA", "ZIP": 70802, "PHONE_NUMBER": null, "WEBSITE": null }, "geometry": { "type": "Point", "coordinates": [ -91.180052404528467, 30.435953527140168 ] } },
{ "type": "Feature", "properties": { "ID": 117, "BUSINESS_NAME": "KIDZ KORNER DAYCARE #2", "FULL_ADDRESS": "14635 S HARRELL'S FERRY RD, STE 3", "CITY": "BATON ROUGE", "STATE": "LOUISIANA", "ZIP": 70816, "PHONE_NUMBER": null, "WEBSITE": null }, "geometry": { "type": "Point", "coordinates": [ -91.022819578878341, 30.430376830847141 ] } },
{ "type": "Feature", "properties": { "ID": 118, "BUSINESS_NAME": "LUCY'S DAYCARE", "FULL_ADDRESS": "5488 GREENWELL ST", "CITY": "BATON ROUGE", "STATE": "LOUISIANA", "ZIP": 70805, "PHONE_NUMBER": null, "WEBSITE": null }, "geometry": { "type": "Point", "coordinates": [ -91.135589369393486, 30.502050830933968 ] } },
{ "type": "Feature", "properties": { "ID": 119, "BUSINESS_NAME": "NEVAEH'S DAYCARE & LEARNING CENTER", "FULL_ADDRESS": "6437 MICKENS RD", "CITY": "BATON ROUGE", "STATE": "LOUISIANA", "ZIP": 70811, "PHONE_NUMBER": null, "WEBSITE": null }, "geometry": { "type": "Point", "coordinates": [ -91.12407154183829, 30.52275420775501 ] } },
{ "type": "Feature", "properties": { "ID": 120, "BUSINESS_NAME": "TIGER TOTS,LLC", "FULL_ADDRESS": "8216 BRIARWOOD PL", "CITY": "BATON ROUGE", "STATE": "LOUISIANA", "ZIP": 70809, "PHONE_NUMBER": null, "WEBSITE": null }, "geometry": { "type": "Point", "coordinates": [ -91.034329200033639, 30.374710479072732 ] } },
{ "type": "Feature", "properties": { "ID": 121, "BUSINESS_NAME": "OCCUPANCY-CHILD CARE CENTER", "FULL_ADDRESS": "1075 EXECUTIVE PARK AVE", "CITY": "BATON ROUGE", "STATE": "LOUISIANA", "ZIP": 70806, "PHONE_NUMBER": null, "WEBSITE": null }, "geometry": { "type": "Point", "coordinates": [ -91.125600047811133, 30.459868983559367 ] } },
{ "type": "Feature", "properties": { "ID": 122, "BUSINESS_NAME": "A TOTAL LEARNING CENTER", "FULL_ADDRESS": "20440 HIGHLAND RD", "CITY": "BATON ROUGE", "STATE": "LOUISIANA", "ZIP": 70817, "PHONE_NUMBER": null, "WEBSITE": null }, "geometry": { "type": "Point", "coordinates": [ -91.00524148181465, 30.361037563321776 ] } },
{ "type": "Feature", "properties": { "ID": 123, "BUSINESS_NAME": "FOSTER'S CHILD CARE AND LEARNING", "FULL_ADDRESS": "3233 MICHELLI DR", "CITY": "BATON ROUGE", "STATE": "LOUISIANA", "ZIP": 70805, "PHONE_NUMBER": null, "WEBSITE": null }, "geometry": { "type": "Point", "coordinates": [ -91.127175460734847, 30.4788090724544 ] } },
{ "type": "Feature", "properties": { "ID": 124, "BUSINESS_NAME": "BEST OF CARE", "FULL_ADDRESS": "13636 AIRLINE HWY", "CITY": "BATON ROUGE", "STATE": "LOUISIANA", "ZIP": 70809, "PHONE_NUMBER": null, "WEBSITE": null }, "geometry": { "type": "Point", "coordinates": [ -91.03222663051416, 30.372465558338501 ] } },
{ "type": "Feature", "properties": { "ID": 125, "BUSINESS_NAME": "LIL PEOPLE LEARNING ACADEMY LLC", "FULL_ADDRESS": "4157 N SHERWOOD FOREST DR", "CITY": "BATON ROUGE", "STATE": "LOUISIANA", "ZIP": 70814, "PHONE_NUMBER": null, "WEBSITE": null }, "geometry": { "type": "Point", "coordinates": [ -91.06099300579811, 30.489302805331334 ] } },
{ "type": "Feature", "properties": { "ID": 126, "BUSINESS_NAME": "LATONYAS FAMILY IN HOME", "FULL_ADDRESS": "9050 METAIRIE DR", "CITY": "BATON ROUGE", "STATE": "LOUISIANA", "ZIP": 70810, "PHONE_NUMBER": null, "WEBSITE": null }, "geometry": { "type": "Point", "coordinates": [ -91.066668454676545, 30.367093194383358 ] } },
{ "type": "Feature", "properties": { "ID": 127, "BUSINESS_NAME": "LITTLE JEWELS AND GEMS LEARNING ACADEMY", "FULL_ADDRESS": "2024 THOMAS RD", "CITY": "BATON ROUGE", "STATE": "LOUISIANA", "ZIP": 70807, "PHONE_NUMBER": null, "WEBSITE": null }, "geometry": { "type": "Point", "coordinates": [ -91.172623948608049, 30.558320766363853 ] } },
{ "type": "Feature", "properties": { "ID": 128, "BUSINESS_NAME": "ALWAYS LEARNING DAYCARE & LEARNING CENTER", "FULL_ADDRESS": "3321 JO ANNE DR", "CITY": "BATON ROUGE", "STATE": "LOUISIANA", "ZIP": 70814, "PHONE_NUMBER": null, "WEBSITE": null }, "geometry": { "type": "Point", "coordinates": [ -91.073310140333206, 30.479315539726269 ] } },
{ "type": "Feature", "properties": { "ID": 129, "BUSINESS_NAME": "BAP'S CHILDCARE & LEARNING CENTER 2", "FULL_ADDRESS": "1787 N REDONDO DR", "CITY": "BATON ROUGE", "STATE": "LOUISIANA", "ZIP": 70815, "PHONE_NUMBER": null, "WEBSITE": null }, "geometry": { "type": "Point", "coordinates": [ -91.083643641924368, 30.466547384200616 ] } },
{ "type": "Feature", "properties": { "ID": 130, "BUSINESS_NAME": "TRACYS CHILD CARE MS", "FULL_ADDRESS": "4635 MAPLE DR", "CITY": "BATON ROUGE", "STATE": "LOUISIANA", "ZIP": 70805, "PHONE_NUMBER": null, "WEBSITE": null }, "geometry": { "type": "Point", "coordinates": [ -91.152662660713787, 30.492553167089415 ] } },
{ "type": "Feature", "properties": { "ID": 131, "BUSINESS_NAME": "TRINITYS CHILDREN ACADEMY", "FULL_ADDRESS": "7136 HOOPER RD", "CITY": "BATON ROUGE", "STATE": "LOUISIANA", "ZIP": 70811, "PHONE_NUMBER": null, "WEBSITE": null }, "geometry": { "type": "Point", "coordinates": [ -91.119828138888323, 30.526479120631649 ] } },
{ "type": "Feature", "properties": { "ID": 132, "BUSINESS_NAME": "MS. KIM'S EARLY ACHIEVES CHILDCARE", "FULL_ADDRESS": "2918 RAY WEILAND DR", "CITY": "BAKER", "STATE": "LOUISIANA", "ZIP": 70714, "PHONE_NUMBER": null, "WEBSITE": null }, "geometry": { "type": "Point", "coordinates": [ -91.171105050283771, 30.586070532730531 ] } },
{ "type": "Feature", "properties": { "ID": 133, "BUSINESS_NAME": "CREATIVE TEACHING TOOLS", "FULL_ADDRESS": "2944 RAY WEILAND DR", "CITY": "BAKER", "STATE": "LOUISIANA", "ZIP": 70714, "PHONE_NUMBER": null, "WEBSITE": null }, "geometry": { "type": "Point", "coordinates": [ -91.17064013998754, 30.586017781227071 ] } },
{ "type": "Feature", "properties": { "ID": 134, "BUSINESS_NAME": "BUSY TOTS AND TODDLERS", "FULL_ADDRESS": "3615 GROOM RD", "CITY": "BAKER", "STATE": "LOUISIANA", "ZIP": 70714, "PHONE_NUMBER": null, "WEBSITE": null }, "geometry": { "type": "Point", "coordinates": [ -91.162086089178317, 30.587998691457017 ] } }
]
}
