{
"type": "FeatureCollection",
"name": "EV_Charging_Sites",
"crs": { "type": "name", "properties": { "name": "urn:ogc:def:crs:OGC:1.3:CRS84" } },
"features": [
{ "type": "Feature", "properties": { "OBJECTID": 1, "LOCATION": "Parking", "ADDRESS": "151 Lafayette St", "CITY": "BR", "ZIP": 70801, "NUM_CHARGERS": 2, "HIGH_POWER": "N" }, "geometry": { "type": "Point", "coordinates": [ -91.189439584332206, 30.447596383236998 ] } },
{ "type": "Feature", "properties": { "OBJECTID": 2, "LOCATION": "Convention St Garage", "ADDRESS": "201 Convention St", "CITY": "BR", "ZIP": 70801, "NUM_CHARGERS": 1, "HIGH_POWER": "N" }, "geometry": { "type": "Point", "coordinates": [ -91.188505948624694, 30.448495696620999 ] } },
{ "type": "Feature", "properties": { "OBJECTID": 3, "LOCATION": "Parking", "ADDRESS": "590 Lafayette St", "CITY": "BR", "ZIP": 70802, "NUM_CHARGERS": 2, "HIGH_POWER": "N" }, "geometry": { "type": "Point", "coordinates": [ -91.1895349505334, 30.452157048106798 ] } },
{ "type": "Feature", "properties": { "OBJECTID": 4, "LOCATION": "Lasalle Garage", "ADDRESS": "521 3rd St", "CITY": "BR", "ZIP": 70802, "NUM_CHARGERS": 2, "HIGH_POWER": "N" }, "geometry": { "type": "Point", "coordinates": [ -91.1887762259081, 30.451923512902901 ] } },
{ "type": "Feature", "properties": { "OBJECTID": 5, "LOCATION": "Parking", "ADDRESS": "550 Main St", "CITY": "BR", "ZIP": 70802, "NUM_CHARGERS": 2, "HIGH_POWER": "N" }, "geometry": { "type": "Point", "coordinates": [ -91.185053802147905, 30.451483162460502 ] } },
{ "type": "Feature", "properties": { "OBJECTID": 6, "LOCATION": "Parking", "ADDRESS": "333 Louisiana Ave", "CITY": "BR", "ZIP": 70802, "NUM_CHARGERS": 1, "HIGH_POWER": "N" }, "geometry": { "type": "Point", "coordinates": [ -91.186965518154196, 30.4449271153495 ] } },
{ "type": "Feature", "properties": { "OBJECTID": 7, "LOCATION": "Parking", "ADDRESS": "200 Water St", "CITY": "BR", "ZIP": 70802, "NUM_CHARGERS": 2, "HIGH_POWER": "Y" }, "geometry": { "type": "Point", "coordinates": [ -91.188643737519101, 30.437248404256898 ] } },
{ "type": "Feature", "properties": { "OBJECTID": 8, "LOCATION": "LSU Lot X79", "ADDRESS": "789 W Chimes St", "CITY": "BR", "ZIP": 70803, "NUM_CHARGERS": 1, "HIGH_POWER": "N" }, "geometry": { "type": "Point", "coordinates": [ -91.185017101343504, 30.4169249439921 ] } },
{ "type": "Feature", "properties": { "OBJECTID": 9, "LOCATION": "LSU Hart Lot", "ADDRESS": "Spruce Ln", "CITY": "BR", "ZIP": 70803, "NUM_CHARGERS": 1, "HIGH_POWER": "N" }, "geometry": { "type": "Point", "coordinates": [ -91.1802709052984, 30.418587489357201 ] } },
{ "type": "Feature", "properties": { "OBJECTID": 10, "LOCATION": "LSU S Stadium Lot", "ADDRESS": "211 S Stadium Dr", "CITY": "BR", "ZIP": 70803, "NUM_CHARGERS": 2, "HIGH_POWER": "N" }, "geometry": { "type": "Point", "coordinates": [ -91.184148639978702, 30.409463468394701 ] } },
{ "type": "Feature", "properties": { "OBJECTID": 11, "LOCATION": "Touchdown Village Lot", "ADDRESS": "300 S Quad Dr", "CITY": "BR", "ZIP": 70803, "NUM_CHARGERS": 1, "HIGH_POWER": "N" }, "geometry": { "type": "Point", "coordinates": [ -91.181731430620104, 30.4069803270785 ] } },
{ "type": "Feature", "properties": { "OBJECTID": 12, "LOCATION": "Gerry Lane Chevrolet", "ADDRESS": "6505 Florida Blvd", "CITY": "BR", "ZIP": 70806, "NUM_CHARGERS": 2, "HIGH_POWER": "Y" }, "geometry": { "type": "Point", "coordinates": [ -91.123533570579198, 30.451865303669699 ] } },
{ "type": "Feature", "properties": { "OBJECTID": 13, "LOCATION": "Acadian Village (Rivian)", "ADDRESS": "3535 Perkins Rd Ste 105", "CITY": "BR", "ZIP": 70808, "NUM_CHARGERS": 6, "HIGH_POWER": "Y" }, "geometry": { "type": "Point", "coordinates": [ -91.154844162389097, 30.423998529448198 ] } },
{ "type": "Feature", "properties": { "OBJECTID": 14, "LOCATION": "Acadian Village (Tesla)", "ADDRESS": "3535 Perkins Rd Ste 110", "CITY": "BR", "ZIP": 70802, "NUM_CHARGERS": 6, "HIGH_POWER": "Y" }, "geometry": { "type": "Point", "coordinates": [ -91.154639969900998, 30.423780627327101 ] } },
{ "type": "Feature", "properties": { "OBJECTID": 15, "LOCATION": "Marriott Hotel", "ADDRESS": "5500 Hilton Ave", "CITY": "BR", "ZIP": 70808, "NUM_CHARGERS": 1, "HIGH_POWER": "N" }, "geometry": { "type": "Point", "coordinates": [ -91.134252619136205, 30.4233631865959 ] } },
{ "type": "Feature", "properties": { "OBJECTID": 16, "LOCATION": "Richmond Inn and Suites", "ADDRESS": "2683 Energy Dr", "CITY": "BR", "ZIP": 70808, "NUM_CHARGERS": 3, "HIGH_POWER": "N" }, "geometry": { "type": "Point", "coordinates": [ -91.131836833037596, 30.4236639451032 ] } },
{ "type": "Feature", "properties": { "OBJECTID": 17, "LOCATION": "Cadence Bank", "ADDRESS": "6889 Corporate Blvd", "CITY": "BR", "ZIP": 70809, "NUM_CHARGERS": 1, "HIGH_POWER": "N" }, "geometry": { "type": "Point", "coordinates": [ -91.120538470503803, 30.427590056964299 ] } },
{ "type": "Feature", "properties": { "OBJECTID": 20, "LOCATION": "Bocage Village", "ADDRESS": "7649 Jefferson Hwy", "CITY": "BR", "ZIP": 70809, "NUM_CHARGERS": 1, "HIGH_POWER": "N" }, "geometry": { "type": "Point", "coordinates": [ -91.107740241216106, 30.429813434386201 ] } },
{ "type": "Feature", "properties": { "OBJECTID": 21, "LOCATION": "Tapestry Bocage Apts", "ADDRESS": "7857 Jefferson Hwy", "CITY": "BR", "ZIP": 70809, "NUM_CHARGERS": 1, "HIGH_POWER": "N" }, "geometry": { "type": "Point", "coordinates": [ -91.105194076001794, 30.427816557024801 ] } },
{ "type": "Feature", "properties": { "OBJECTID": 22, "LOCATION": "Element BR South", "ADDRESS": "8649 Summa Ave", "CITY": "BR", "ZIP": 70809, "NUM_CHARGERS": 4, "HIGH_POWER": "N" }, "geometry": { "type": "Point", "coordinates": [ -91.095827548136299, 30.3974604947812 ] } },
{ "type": "Feature", "properties": { "OBJECTID": 23, "LOCATION": "Royal Nissan", "ADDRESS": "9325 Airline Hwy", "CITY": "BR", "ZIP": 70815, "NUM_CHARGERS": 1, "HIGH_POWER": "N" }, "geometry": { "type": "Point", "coordinates": [ -91.085512427019594, 30.439660621146299 ] } },
{ "type": "Feature", "properties": { "OBJECTID": 24, "LOCATION": "Hammond Aire Plaza", "ADDRESS": "9650 Airline Hwy", "CITY": "BR", "ZIP": 70815, "NUM_CHARGERS": 12, "HIGH_POWER": "Y" }, "geometry": { "type": "Point", "coordinates": [ -91.084530529377005, 30.432978608532402 ] } },
{ "type": "Feature", "properties": { "OBJECTID": 25, "LOCATION": "Richards Honda", "ADDRESS": "13413 Millerville Greens Blvd", "CITY": "BR", "ZIP": 70816, "NUM_CHARGERS": 2, "HIGH_POWER": "N" }, "geometry": { "type": "Point", "coordinates": [ -91.0296708301763, 30.437838917242701 ] } },
{ "type": "Feature", "properties": { "OBJECTID": 26, "LOCATION": "Royal Palms Apartments", "ADDRESS": "10245 Airline Hwy", "CITY": "BR", "ZIP": 70816, "NUM_CHARGERS": 1, "HIGH_POWER": "N" }, "geometry": { "type": "Point", "coordinates": [ -91.069554870564403, 30.419547451545501 ] } },
{ "type": "Feature", "properties": { "OBJECTID": 27, "LOCATION": "L'Auberge Casino", "ADDRESS": "777 L'Auberge Ave", "CITY": "BR", "ZIP": 70820, "NUM_CHARGERS": 6, "HIGH_POWER": "N" }, "geometry": { "type": "Point", "coordinates": [ -91.152161698792, 30.346279395247901 ] } },
{ "type": "Feature", "properties": { "OBJECTID": 29, "LOCATION": "Team Honda", "ADDRESS": "6363 Siegen Ln", "CITY": "SG", "ZIP": 70809, "NUM_CHARGERS": 1, "HIGH_POWER": "N" }, "geometry": { "type": "Point", "coordinates": [ -91.058908630749102, 30.391341851937401 ] } },
{ "type": "Feature", "properties": { "OBJECTID": 30, "LOCATION": "Tru by Hilton", "ADDRESS": "10960 Siegen-Holiday Cir", "CITY": "SG", "ZIP": 70809, "NUM_CHARGERS": 2, "HIGH_POWER": "N" }, "geometry": { "type": "Point", "coordinates": [ -91.061447800283901, 30.3931685406288 ] } },
{ "type": "Feature", "properties": { "OBJECTID": 31, "LOCATION": "Brian Harris Porche", "ADDRESS": "12326 Airline Hwy", "CITY": "SG", "ZIP": 70809, "NUM_CHARGERS": 6, "HIGH_POWER": "Y" }, "geometry": { "type": "Point", "coordinates": [ -91.044636326511394, 30.387037740551499 ] } },
{ "type": "Feature", "properties": { "OBJECTID": 32, "LOCATION": "11019 Perkins Bldg", "ADDRESS": "11019 Perkins Rd", "CITY": "SG", "ZIP": 70810, "NUM_CHARGERS": 1, "HIGH_POWER": "N" }, "geometry": { "type": "Point", "coordinates": [ -91.089255392126105, 30.374371462928199 ] } },
{ "type": "Feature", "properties": { "OBJECTID": 33, "LOCATION": "Calandro's", "ADDRESS": "12732 Perkins Rd", "CITY": "SG", "ZIP": 70810, "NUM_CHARGERS": 1, "HIGH_POWER": "N" }, "geometry": { "type": "Point", "coordinates": [ -91.076018071925205, 30.3676350402624 ] } },
{ "type": "Feature", "properties": { "OBJECTID": 34, "LOCATION": "Circle K", "ADDRESS": "18149 Highland Rd", "CITY": "SG", "ZIP": 70810, "NUM_CHARGERS": 8, "HIGH_POWER": "Y" }, "geometry": { "type": "Point", "coordinates": [ -91.028221621310195, 30.348647597206501 ] } },
{ "type": "Feature", "properties": { "OBJECTID": 35, "LOCATION": "Team Mazda", "ADDRESS": "10968 Airline Hwy", "CITY": "SG", "ZIP": 70816, "NUM_CHARGERS": 1, "HIGH_POWER": "N" }, "geometry": { "type": "Point", "coordinates": [ -91.060039224008506, 30.404148463772898 ] } },
{ "type": "Feature", "properties": { "OBJECTID": 36, "LOCATION": "Royal Buick GMC", "ADDRESS": "11055 Airline Hwy", "CITY": "SG", "ZIP": 70816, "NUM_CHARGERS": 1, "HIGH_POWER": "N" }, "geometry": { "type": "Point", "coordinates": [ -91.056448451626693, 30.403119338057099 ] } },
{ "type": "Feature", "properties": { "OBJECTID": 37, "LOCATION": "The Addison", "ADDRESS": "10231 The Grove Blvd", "CITY": "BR", "ZIP": 70836, "NUM_CHARGERS": 6, "HIGH_POWER": "N" }, "geometry": { "type": "Point", "coordinates": [ -91.079290326465696, 30.3869262599951 ] } },
{ "type": "Feature", "properties": { "OBJECTID": 38, "LOCATION": "All Star Hyundai", "ADDRESS": "12730 Airline Hwy", "CITY": "SG", "ZIP": 70817, "NUM_CHARGERS": 4, "HIGH_POWER": "Y" }, "geometry": { "type": "Point", "coordinates": [ -91.040455394164596, 30.381830117157001 ] } },
{ "type": "Feature", "properties": { "OBJECTID": 39, "LOCATION": "Hi Nabor", "ADDRESS": "5383 Jones Creek Rd", "CITY": "SG", "ZIP": 70817, "NUM_CHARGERS": 1, "HIGH_POWER": "N" }, "geometry": { "type": "Point", "coordinates": [ -91.015543648939897, 30.405284975990799 ] } },
{ "type": "Feature", "properties": { "OBJECTID": 41, "LOCATION": "DEMCO HQ", "ADDRESS": "16262 Wax Rd", "CITY": "C", "ZIP": 70739, "NUM_CHARGERS": 1, "HIGH_POWER": "N" }, "geometry": { "type": "Point", "coordinates": [ -91.008959081139196, 30.541200635097599 ] } },
{ "type": "Feature", "properties": { "OBJECTID": 42, "LOCATION": "Zoar Baptist Church", "ADDRESS": "11848 Hooper Rd", "CITY": "C", "ZIP": 70818, "NUM_CHARGERS": 2, "HIGH_POWER": "N" }, "geometry": { "type": "Point", "coordinates": [ -91.054002563075798, 30.5453334189896 ] } },
{ "type": "Feature", "properties": { "OBJECTID": 43, "LOCATION": "Villages of Americana", "ADDRESS": "1185 Americana Blvd", "CITY": "Z", "ZIP": 70791, "NUM_CHARGERS": 1, "HIGH_POWER": "N" }, "geometry": { "type": "Point", "coordinates": [ -91.212021534611395, 30.651207533546401 ] } },
{ "type": "Feature", "properties": { "OBJECTID": 44, "LOCATION": "Superior Ford", "ADDRESS": "4303 Hwy 19", "CITY": "Z", "ZIP": 70791, "NUM_CHARGERS": 1, "HIGH_POWER": "N" }, "geometry": { "type": "Point", "coordinates": [ -91.1510499021947, 30.646284955635998 ] } },
{ "type": "Feature", "properties": { "OBJECTID": 45, "LOCATION": "DEMCO", "ADDRESS": "20110 Plank Rd", "CITY": "Z", "ZIP": 70791, "NUM_CHARGERS": 1, "HIGH_POWER": "N" }, "geometry": { "type": "Point", "coordinates": [ -91.105540575082699, 30.6461093363998 ] } }
]
}
