{
"type": "FeatureCollection",
"name": "Fitness_Center",
"crs": { "type": "name", "properties": { "name": "urn:ogc:def:crs:OGC:1.3:CRS84" } },
"features": [
{ "type": "Feature", "properties": { "ID": 1, "BUSINESS_NAME": "KETCHAM FITNESS CENTER", "FULL_ADDRESS": "7222 BLUEBONNET BLVD", "CITY": "BATON ROUGE", "STATE": "LOUISIANA", "ZIP": 70810, "PHONE_NUMBER": null, "WEBSITE": null }, "geometry": { "type": "Point", "coordinates": [ -91.095738599628191, 30.385962846221226 ] } },
{ "type": "Feature", "properties": { "ID": 2, "BUSINESS_NAME": "AQUATIC CLUB OF BATON ROUGE", "FULL_ADDRESS": "10555 MOLLYLEA DR", "CITY": "BATON ROUGE", "STATE": "LOUISIANA", "ZIP": 70815, "PHONE_NUMBER": null, "WEBSITE": null }, "geometry": { "type": "Point", "coordinates": [ -91.067583322424809, 30.453583224712023 ] } },
{ "type": "Feature", "properties": { "ID": 3, "BUSINESS_NAME": "SPECTRUM FITNESS CLUB", "FULL_ADDRESS": "3103 MONTERREY DR", "CITY": "BATON ROUGE", "STATE": "LOUISIANA", "ZIP": 70814, "PHONE_NUMBER": null, "WEBSITE": null }, "geometry": { "type": "Point", "coordinates": [ -91.084297830779306, 30.476970784884617 ] } },
{ "type": "Feature", "properties": { "ID": 4, "BUSINESS_NAME": "AMERICANA YMCA", "FULL_ADDRESS": "4200 LIBERTY WAY", "CITY": "ZACHARY", "STATE": "LOUISIANA", "ZIP": 70791, "PHONE_NUMBER": "225-654-9622", "WEBSITE": "http://ymcabr.org/" }, "geometry": { "type": "Point", "coordinates": [ -91.208905784845768, 30.646881401627432 ] } },
{ "type": "Feature", "properties": { "ID": 5, "BUSINESS_NAME": "AMERICANA YMCA", "FULL_ADDRESS": "4200 LIBERTY WAY", "CITY": "ZACHARY", "STATE": "LOUISIANA", "ZIP": 70791, "PHONE_NUMBER": "225-654-9622", "WEBSITE": "http://ymcabr.org/" }, "geometry": { "type": "Point", "coordinates": [ -91.208905784845768, 30.646881401627432 ] } },
{ "type": "Feature", "properties": { "ID": 6, "BUSINESS_NAME": "C. G.'S GYMNASTICS CLUB", "FULL_ADDRESS": "14550 FLORIDA BLVD", "CITY": "BATON ROUGE", "STATE": "LOUISIANA", "ZIP": 70819, "PHONE_NUMBER": null, "WEBSITE": null }, "geometry": { "type": "Point", "coordinates": [ -91.024081759782007, 30.463135615217698 ] } },
{ "type": "Feature", "properties": { "ID": 7, "BUSINESS_NAME": "MAGNOLIA WOOD SWIM AND RACQUET CLUB", "FULL_ADDRESS": "1159 MAGNOLIA WOOD AVE", "CITY": "BATON ROUGE", "STATE": "LOUISIANA", "ZIP": 70808, "PHONE_NUMBER": null, "WEBSITE": null }, "geometry": { "type": "Point", "coordinates": [ -91.117272150092276, 30.388244249313072 ] } },
{ "type": "Feature", "properties": { "ID": 8, "BUSINESS_NAME": "SOUTHSIDE YMCA", "FULL_ADDRESS": "8482 PERKINS RD", "CITY": "BATON ROUGE", "STATE": "LOUISIANA", "ZIP": 70810, "PHONE_NUMBER": null, "WEBSITE": "http://ymcabr.org/" }, "geometry": { "type": "Point", "coordinates": [ -91.105274127956235, 30.387827426326211 ] } },
{ "type": "Feature", "properties": { "ID": 9, "BUSINESS_NAME": "FOXY'S HEALTH & RACQUET CLUB", "FULL_ADDRESS": "4343 RHODA DR", "CITY": "BATON ROUGE", "STATE": "LOUISIANA", "ZIP": 70816, "PHONE_NUMBER": null, "WEBSITE": null }, "geometry": { "type": "Point", "coordinates": [ -91.061076499113298, 30.411087940444851 ] } },
{ "type": "Feature", "properties": { "ID": 10, "BUSINESS_NAME": "CENTURION FITNESS", "FULL_ADDRESS": "14241 AIRLINE HWY", "CITY": "BATON ROUGE", "STATE": "LOUISIANA", "ZIP": 70817, "PHONE_NUMBER": null, "WEBSITE": null }, "geometry": { "type": "Point", "coordinates": [ -91.022806967462756, 30.36576746238919 ] } },
{ "type": "Feature", "properties": { "ID": 11, "BUSINESS_NAME": "FUTURE FITNESS WELLNESS CENTER", "FULL_ADDRESS": "674 CADDO ST", "CITY": "BATON ROUGE", "STATE": "LOUISIANA", "ZIP": 70806, "PHONE_NUMBER": null, "WEBSITE": null }, "geometry": { "type": "Point", "coordinates": [ -91.137683586406581, 30.442908283015342 ] } },
{ "type": "Feature", "properties": { "ID": 12, "BUSINESS_NAME": "A.C. LEWIS YMCA", "FULL_ADDRESS": "350 S FOSTER DR", "CITY": "BATON ROUGE", "STATE": "LOUISIANA", "ZIP": 70806, "PHONE_NUMBER": "225-924-3606", "WEBSITE": "http://ymcabr.org/" }, "geometry": { "type": "Point", "coordinates": [ -91.139391047637318, 30.445937159633143 ] } },
{ "type": "Feature", "properties": { "ID": 13, "BUSINESS_NAME": "A.C. LEWIS YMCA", "FULL_ADDRESS": "350 S FOSTER DR", "CITY": "BATON ROUGE", "STATE": "LOUISIANA", "ZIP": 70806, "PHONE_NUMBER": "225-924-3606", "WEBSITE": "http://ymcabr.org/" }, "geometry": { "type": "Point", "coordinates": [ -91.139391047637318, 30.445937159633143 ] } },
{ "type": "Feature", "properties": { "ID": 14, "BUSINESS_NAME": "C.B. PENNINGTON JR. YMCA", "FULL_ADDRESS": "15550 OLD HAMMOND HWY", "CITY": "BATON ROUGE", "STATE": "LOUISIANA", "ZIP": 70816, "PHONE_NUMBER": "225-272-9622", "WEBSITE": "http://ymcabr.org/" }, "geometry": { "type": "Point", "coordinates": [ -91.011579902588721, 30.457338137897455 ] } },
{ "type": "Feature", "properties": { "ID": 15, "BUSINESS_NAME": "PAULA G. MANSHIP YMCA & LAMAR TENNIS CENTER", "FULL_ADDRESS": "8100 YMCA PLAZA DR", "CITY": "BATON ROUGE", "STATE": "LOUISIANA", "ZIP": 70810, "PHONE_NUMBER": "225-767-9622", "WEBSITE": "http://ymcabr.org/" }, "geometry": { "type": "Point", "coordinates": [ -91.076141869752732, 30.375108102401366 ] } },
{ "type": "Feature", "properties": { "ID": 16, "BUSINESS_NAME": "PAULA G. MANSHIP YMCA & LAMAR TENNIS CENTER", "FULL_ADDRESS": "8100 YMCA PLAZA DR", "CITY": "BATON ROUGE", "STATE": "LOUISIANA", "ZIP": 70810, "PHONE_NUMBER": "225-767-9622", "WEBSITE": "http://ymcabr.org/" }, "geometry": { "type": "Point", "coordinates": [ -91.076141869752732, 30.375108102401366 ] } },
{ "type": "Feature", "properties": { "ID": 17, "BUSINESS_NAME": "FLIPS AND FITNESS", "FULL_ADDRESS": "5517 JONES CREEK RD", "CITY": "BATON ROUGE", "STATE": "LOUISIANA", "ZIP": 70817, "PHONE_NUMBER": null, "WEBSITE": null }, "geometry": { "type": "Point", "coordinates": [ -91.016141019586314, 30.404007968493413 ] } },
{ "type": "Feature", "properties": { "ID": 18, "BUSINESS_NAME": "PARK FOREST SWIM CLUB", "FULL_ADDRESS": "10085 GREAT SMOKY AVE", "CITY": "BATON ROUGE", "STATE": "LOUISIANA", "ZIP": 70814, "PHONE_NUMBER": null, "WEBSITE": null }, "geometry": { "type": "Point", "coordinates": [ -91.072239581327395, 30.478957674742382 ] } },
{ "type": "Feature", "properties": { "ID": 19, "BUSINESS_NAME": "RESULTS PERSONAL FITNESS", "FULL_ADDRESS": "7520 PERKINS RD", "CITY": "BATON ROUGE", "STATE": "LOUISIANA", "ZIP": 70808, "PHONE_NUMBER": null, "WEBSITE": null }, "geometry": { "type": "Point", "coordinates": [ -91.110909489790487, 30.395455855328489 ] } },
{ "type": "Feature", "properties": { "ID": 20, "BUSINESS_NAME": "JAZZERCISE", "FULL_ADDRESS": "2561 CITIPLACE CT", "CITY": "BATON ROUGE", "STATE": "LOUISIANA", "ZIP": 70808, "PHONE_NUMBER": null, "WEBSITE": null }, "geometry": { "type": "Point", "coordinates": [ -91.129348904910785, 30.423890135134563 ] } },
{ "type": "Feature", "properties": { "ID": 21, "BUSINESS_NAME": "JAZZERCISE", "FULL_ADDRESS": "8821 HIGHLAND RD", "CITY": "BATON ROUGE", "STATE": "LOUISIANA", "ZIP": 70808, "PHONE_NUMBER": null, "WEBSITE": null }, "geometry": { "type": "Point", "coordinates": [ -91.123123008950955, 30.370132997230613 ] } },
{ "type": "Feature", "properties": { "ID": 22, "BUSINESS_NAME": "TRINITY HOLISTIC HEALTH & TRAINING", "FULL_ADDRESS": "13219 PERKINS RD", "CITY": "BATON ROUGE", "STATE": "LOUISIANA", "ZIP": 70810, "PHONE_NUMBER": null, "WEBSITE": null }, "geometry": { "type": "Point", "coordinates": [ -91.07148275506168, 30.367614649334257 ] } },
{ "type": "Feature", "properties": { "ID": 23, "BUSINESS_NAME": "GO VAPOR", "FULL_ADDRESS": "8841 HIGHLAND RD", "CITY": "BATON ROUGE", "STATE": "LOUISIANA", "ZIP": 70808, "PHONE_NUMBER": null, "WEBSITE": null }, "geometry": { "type": "Point", "coordinates": [ -91.122700615439726, 30.369991350002991 ] } },
{ "type": "Feature", "properties": { "ID": 24, "BUSINESS_NAME": "MAX FITNESS", "FULL_ADDRESS": "7353 HIGHLAND RD", "CITY": "BATON ROUGE", "STATE": "LOUISIANA", "ZIP": 70808, "PHONE_NUMBER": null, "WEBSITE": null }, "geometry": { "type": "Point", "coordinates": [ -91.138267242763263, 30.379445304110362 ] } },
{ "type": "Feature", "properties": { "ID": 25, "BUSINESS_NAME": "MAX FITNESS", "FULL_ADDRESS": "7347 HIGHLAND RD", "CITY": "BATON ROUGE", "STATE": "LOUISIANA", "ZIP": 70808, "PHONE_NUMBER": null, "WEBSITE": null }, "geometry": { "type": "Point", "coordinates": [ -91.138653605255925, 30.379618761536616 ] } },
{ "type": "Feature", "properties": { "ID": 26, "BUSINESS_NAME": "JAZZERCISE", "FULL_ADDRESS": "4606 JONES CREEK RD, STE 160", "CITY": "BATON ROUGE", "STATE": "LOUISIANA", "ZIP": 70817, "PHONE_NUMBER": null, "WEBSITE": null }, "geometry": { "type": "Point", "coordinates": [ -91.015893773667983, 30.411928150329789 ] } },
{ "type": "Feature", "properties": { "ID": 27, "BUSINESS_NAME": "ANYTIME FITNESS", "FULL_ADDRESS": "8827 HIGHLAND RD", "CITY": "BATON ROUGE", "STATE": "LOUISIANA", "ZIP": 70808, "PHONE_NUMBER": null, "WEBSITE": null }, "geometry": { "type": "Point", "coordinates": [ -91.123279002162349, 30.369959257403249 ] } },
{ "type": "Feature", "properties": { "ID": 28, "BUSINESS_NAME": "CHAMPIONS FITNESS LLC", "FULL_ADDRESS": "5441 JONES CREEK RD", "CITY": "BATON ROUGE", "STATE": "LOUISIANA", "ZIP": 70817, "PHONE_NUMBER": null, "WEBSITE": null }, "geometry": { "type": "Point", "coordinates": [ -91.015180089969448, 30.404523307258835 ] } },
{ "type": "Feature", "properties": { "ID": 29, "BUSINESS_NAME": "BODY MECHANICS PERSONAL FITNESS", "FULL_ADDRESS": "7580 CORPORATE BLVD", "CITY": "BATON ROUGE", "STATE": "LOUISIANA", "ZIP": 70809, "PHONE_NUMBER": null, "WEBSITE": null }, "geometry": { "type": "Point", "coordinates": [ -91.110947468830517, 30.430307021198189 ] } },
{ "type": "Feature", "properties": { "ID": 30, "BUSINESS_NAME": "DEFINITIONS PERSONAL TRAINERS-FITNESS", "FULL_ADDRESS": "16645 HIGHLAND RD, STE G2", "CITY": "BATON ROUGE", "STATE": "LOUISIANA", "ZIP": 70810, "PHONE_NUMBER": null, "WEBSITE": null }, "geometry": { "type": "Point", "coordinates": [ -91.042866470829665, 30.346265122234609 ] } },
{ "type": "Feature", "properties": { "ID": 31, "BUSINESS_NAME": "WEIGHT ROOM, THE", "FULL_ADDRESS": "3556 MONTERREY DR", "CITY": "BATON ROUGE", "STATE": "LOUISIANA", "ZIP": 70814, "PHONE_NUMBER": null, "WEBSITE": null }, "geometry": { "type": "Point", "coordinates": [ -91.083144120562451, 30.483720570993878 ] } },
{ "type": "Feature", "properties": { "ID": 32, "BUSINESS_NAME": "YOUR TIME FITNESS", "FULL_ADDRESS": "15450 GEORGE O'NEAL RD", "CITY": "BATON ROUGE", "STATE": "LOUISIANA", "ZIP": 70817, "PHONE_NUMBER": null, "WEBSITE": null }, "geometry": { "type": "Point", "coordinates": [ -91.013513103938266, 30.406947241539427 ] } },
{ "type": "Feature", "properties": { "ID": 33, "BUSINESS_NAME": "CITY FITNESS CLUB", "FULL_ADDRESS": "15356 OLD HAMMOND HWY", "CITY": "BATON ROUGE", "STATE": "LOUISIANA", "ZIP": 70816, "PHONE_NUMBER": null, "WEBSITE": null }, "geometry": { "type": "Point", "coordinates": [ -91.014945449462743, 30.456358344534674 ] } },
{ "type": "Feature", "properties": { "ID": 34, "BUSINESS_NAME": "PROGRESSIVE FITNESS", "FULL_ADDRESS": "5041 ZACHARY-SLAUGHTER HWY", "CITY": "ZACHARY", "STATE": "LOUISIANA", "ZIP": 70791, "PHONE_NUMBER": null, "WEBSITE": null }, "geometry": { "type": "Point", "coordinates": [ -91.150236050258272, 30.652603933348427 ] } },
{ "type": "Feature", "properties": { "ID": 35, "BUSINESS_NAME": "MERGE FITNESS", "FULL_ADDRESS": "1326 CHURCH ST", "CITY": "ZACHARY", "STATE": "LOUISIANA", "ZIP": 70791, "PHONE_NUMBER": null, "WEBSITE": null }, "geometry": { "type": "Point", "coordinates": [ -91.190532093623531, 30.653551876118769 ] } },
{ "type": "Feature", "properties": { "ID": 36, "BUSINESS_NAME": "VILLAGE ST. GEORGE AQUATIC CLUB", "FULL_ADDRESS": "1708 PECK DR", "CITY": "BATON ROUGE", "STATE": "LOUISIANA", "ZIP": 70810, "PHONE_NUMBER": null, "WEBSITE": null }, "geometry": { "type": "Point", "coordinates": [ -91.070609603866885, 30.360247260101008 ] } },
{ "type": "Feature", "properties": { "ID": 37, "BUSINESS_NAME": "TAEKWONDO PLUS FITNESS CENTER", "FULL_ADDRESS": "14160 COURSEY BLVD", "CITY": "BATON ROUGE", "STATE": "LOUISIANA", "ZIP": 70817, "PHONE_NUMBER": null, "WEBSITE": null }, "geometry": { "type": "Point", "coordinates": [ -91.020420820501499, 30.407222126942532 ] } },
{ "type": "Feature", "properties": { "ID": 38, "BUSINESS_NAME": "S. E. MACKEY FITNESS CENTER", "FULL_ADDRESS": "6534 FORD ST", "CITY": "BATON ROUGE", "STATE": "LOUISIANA", "ZIP": 70811, "PHONE_NUMBER": null, "WEBSITE": null }, "geometry": { "type": "Point", "coordinates": [ -91.125805219175689, 30.51878738919736 ] } },
{ "type": "Feature", "properties": { "ID": 39, "BUSINESS_NAME": "SPECTRUM FITNESS & LADY SPECTRUM", "FULL_ADDRESS": "4355 PERKINS RD", "CITY": "BATON ROUGE", "STATE": "LOUISIANA", "ZIP": 70808, "PHONE_NUMBER": null, "WEBSITE": null }, "geometry": { "type": "Point", "coordinates": [ -91.144970191882365, 30.418107005005265 ] } },
{ "type": "Feature", "properties": { "ID": 40, "BUSINESS_NAME": "BR FITNESS LLC", "FULL_ADDRESS": "10778 N HARRELL'S FERRY RD", "CITY": "BATON ROUGE", "STATE": "LOUISIANA", "ZIP": 70816, "PHONE_NUMBER": null, "WEBSITE": null }, "geometry": { "type": "Point", "coordinates": [ -91.065182029783372, 30.432906229751335 ] } },
{ "type": "Feature", "properties": { "ID": 41, "BUSINESS_NAME": "FITNESS CONCEPTS OF BATON ROUGE LLC", "FULL_ADDRESS": "11143 MURIEL AVE", "CITY": "BATON ROUGE", "STATE": "LOUISIANA", "ZIP": 70816, "PHONE_NUMBER": null, "WEBSITE": null }, "geometry": { "type": "Point", "coordinates": [ -91.059517926086471, 30.434909584214701 ] } },
{ "type": "Feature", "properties": { "ID": 42, "BUSINESS_NAME": "CHARLES W. LAMAR, JR. YMCA", "FULL_ADDRESS": "521 3RD ST", "CITY": "BATON ROUGE", "STATE": "LOUISIANA", "ZIP": 70802, "PHONE_NUMBER": "225-612-9622", "WEBSITE": "http://ymcabr.org/" }, "geometry": { "type": "Point", "coordinates": [ -91.188507394347255, 30.452367300895386 ] } },
{ "type": "Feature", "properties": { "ID": 43, "BUSINESS_NAME": "CHARLES W. LAMAR, JR. YMCA", "FULL_ADDRESS": "521 3RD ST", "CITY": "BATON ROUGE", "STATE": "LOUISIANA", "ZIP": 70802, "PHONE_NUMBER": "225-612-9622", "WEBSITE": "http://ymcabr.org/" }, "geometry": { "type": "Point", "coordinates": [ -91.188507394347255, 30.452367300895386 ] } },
{ "type": "Feature", "properties": { "ID": 44, "BUSINESS_NAME": "BARANCO-CLARK YMCA", "FULL_ADDRESS": "1735 THOMAS H DELPIT DR", "CITY": "BATON ROUGE", "STATE": "LOUISIANA", "ZIP": 70802, "PHONE_NUMBER": "225-344-6775", "WEBSITE": "http://ymcabr.org/" }, "geometry": { "type": "Point", "coordinates": [ -91.176792933793564, 30.432019301326115 ] } },
{ "type": "Feature", "properties": { "ID": 45, "BUSINESS_NAME": "BARANCO-CLARK YMCA", "FULL_ADDRESS": "1735 THOMAS H DELPIT DR", "CITY": "BATON ROUGE", "STATE": "LOUISIANA", "ZIP": 70802, "PHONE_NUMBER": "225-344-6775", "WEBSITE": "http://ymcabr.org/" }, "geometry": { "type": "Point", "coordinates": [ -91.176792933793564, 30.432019301326115 ] } },
{ "type": "Feature", "properties": { "ID": 46, "BUSINESS_NAME": "THERAPUTIC BY DESIGN FITNESS AND WELLNESS", "FULL_ADDRESS": "8752 QUARTERS LAKE RD", "CITY": "BATON ROUGE", "STATE": "LOUISIANA", "ZIP": 70809, "PHONE_NUMBER": null, "WEBSITE": null }, "geometry": { "type": "Point", "coordinates": [ -91.09368099974408, 30.416217963935807 ] } },
{ "type": "Feature", "properties": { "ID": 47, "BUSINESS_NAME": "EXXONMOBIL YMCA", "FULL_ADDRESS": "7717 HOWELL BLVD", "CITY": "BATON ROUGE", "STATE": "LOUISIANA", "ZIP": 70807, "PHONE_NUMBER": "225-906-5424", "WEBSITE": "http://ymcabr.org/" }, "geometry": { "type": "Point", "coordinates": [ -91.15554661318852, 30.515508423245866 ] } },
{ "type": "Feature", "properties": { "ID": 48, "BUSINESS_NAME": "EXXONMOBIL YMCA", "FULL_ADDRESS": "7717 HOWELL BLVD", "CITY": "BATON ROUGE", "STATE": "LOUISIANA", "ZIP": 70807, "PHONE_NUMBER": "225-906-5424", "WEBSITE": "http://ymcabr.org/" }, "geometry": { "type": "Point", "coordinates": [ -91.15554661318852, 30.515508423245866 ] } },
{ "type": "Feature", "properties": { "ID": 49, "BUSINESS_NAME": "RED STICK CROSSFIT", "FULL_ADDRESS": "3057 GOVERNMENT ST", "CITY": "BATON ROUGE", "STATE": "LOUISIANA", "ZIP": 70806, "PHONE_NUMBER": null, "WEBSITE": null }, "geometry": { "type": "Point", "coordinates": [ -91.156962145148654, 30.44447612663226 ] } },
{ "type": "Feature", "properties": { "ID": 50, "BUSINESS_NAME": "SPECTRUM PERKINS", "FULL_ADDRESS": "7069 PERKINS RD", "CITY": "BATON ROUGE", "STATE": "LOUISIANA", "ZIP": 70808, "PHONE_NUMBER": null, "WEBSITE": null }, "geometry": { "type": "Point", "coordinates": [ -91.115643268655219, 30.399769978826829 ] } },
{ "type": "Feature", "properties": { "ID": 51, "BUSINESS_NAME": "NICK ORTEGO FITNESS, LLC", "FULL_ADDRESS": "8224 SUMMA AVE", "CITY": "BATON ROUGE", "STATE": "LOUISIANA", "ZIP": 70809, "PHONE_NUMBER": null, "WEBSITE": null }, "geometry": { "type": "Point", "coordinates": [ -91.100656498547266, 30.398878929357476 ] } },
{ "type": "Feature", "properties": { "ID": 52, "BUSINESS_NAME": "POWER GYM OF BATON ROUGE", "FULL_ADDRESS": "2084 S SHERWOOD FOREST BLVD", "CITY": "BATON ROUGE", "STATE": "LOUISIANA", "ZIP": 70816, "PHONE_NUMBER": null, "WEBSITE": null }, "geometry": { "type": "Point", "coordinates": [ -91.058558414648431, 30.434499345809012 ] } },
{ "type": "Feature", "properties": { "ID": 53, "BUSINESS_NAME": "PLANET FITNESS", "FULL_ADDRESS": "8620 AIRLINE HWY", "CITY": "BATON ROUGE", "STATE": "LOUISIANA", "ZIP": 70806, "PHONE_NUMBER": null, "WEBSITE": null }, "geometry": { "type": "Point", "coordinates": [ -91.09702014210535, 30.450582053383066 ] } },
{ "type": "Feature", "properties": { "ID": 54, "BUSINESS_NAME": "ANYTIME FITNESS", "FULL_ADDRESS": "200 GOVERNMENT ST", "CITY": "BATON ROUGE", "STATE": "LOUISIANA", "ZIP": 70802, "PHONE_NUMBER": null, "WEBSITE": null }, "geometry": { "type": "Point", "coordinates": [ -91.188284594669554, 30.443011074997898 ] } },
{ "type": "Feature", "properties": { "ID": 55, "BUSINESS_NAME": "ANYTIME FITNESS", "FULL_ADDRESS": "13711 COURSEY BLVD", "CITY": "BATON ROUGE", "STATE": "LOUISIANA", "ZIP": 70817, "PHONE_NUMBER": null, "WEBSITE": null }, "geometry": { "type": "Point", "coordinates": [ -91.025374558451276, 30.409128736356489 ] } },
{ "type": "Feature", "properties": { "ID": 56, "BUSINESS_NAME": "QUALITY FITNESS PERFECTED - QFP", "FULL_ADDRESS": "8882 SYBLE DR", "CITY": "BATON ROUGE", "STATE": "LOUISIANA", "ZIP": 70814, "PHONE_NUMBER": null, "WEBSITE": null }, "geometry": { "type": "Point", "coordinates": [ -91.093358898032136, 30.479588170938381 ] } },
{ "type": "Feature", "properties": { "ID": 57, "BUSINESS_NAME": "JEFFERSON TERRACE AQUATIC CLUB", "FULL_ADDRESS": "10183 E INNISWOLD RD", "CITY": "BATON ROUGE", "STATE": "LOUISIANA", "ZIP": 70809, "PHONE_NUMBER": null, "WEBSITE": null }, "geometry": { "type": "Point", "coordinates": [ -91.071356341924584, 30.399829007513713 ] } },
{ "type": "Feature", "properties": { "ID": 58, "BUSINESS_NAME": "NO EGO FITNESS LLC", "FULL_ADDRESS": "11930 INDUSTRIPLEX BLVD, STE 9", "CITY": "BATON ROUGE", "STATE": "LOUISIANA", "ZIP": 70809, "PHONE_NUMBER": null, "WEBSITE": null }, "geometry": { "type": "Point", "coordinates": [ -91.049130116063765, 30.384272384865717 ] } },
{ "type": "Feature", "properties": { "ID": 59, "BUSINESS_NAME": "LA FITNESS AND PRO RESULTS", "FULL_ADDRESS": "6474 SIEGEN LN", "CITY": "BATON ROUGE", "STATE": "LOUISIANA", "ZIP": 70809, "PHONE_NUMBER": null, "WEBSITE": null }, "geometry": { "type": "Point", "coordinates": [ -91.062937195223995, 30.391777755645954 ] } },
{ "type": "Feature", "properties": { "ID": 60, "BUSINESS_NAME": "SHERWOOD FOREST JAZZERCISE", "FULL_ADDRESS": "1357 SHARP RD", "CITY": "BATON ROUGE", "STATE": "LOUISIANA", "ZIP": 70815, "PHONE_NUMBER": null, "WEBSITE": null }, "geometry": { "type": "Point", "coordinates": [ -91.064743370713472, 30.440783466179752 ] } },
{ "type": "Feature", "properties": { "ID": 61, "BUSINESS_NAME": "CHAMPIONS FITNESS LLC", "FULL_ADDRESS": "5664 JONES CREEK RD, STE C-D", "CITY": "BATON ROUGE", "STATE": "LOUISIANA", "ZIP": 70817, "PHONE_NUMBER": null, "WEBSITE": null }, "geometry": { "type": "Point", "coordinates": [ -91.017447438804311, 30.402298858225556 ] } }
]
}
