{
"type": "FeatureCollection",
"name": "Government_Agency",
"crs": { "type": "name", "properties": { "name": "urn:ogc:def:crs:OGC:1.3:CRS84" } },
"features": [
{ "type": "Feature", "properties": { "ID": 3063, "BUSINESS_NAME": "LA CLERKS OF COURT ASSOC", "FULL_ADDRESS": "11745 BRICKSOME AVE, STE B1", "CITY": "BATON ROUGE", "STATE": "LOUISIANA", "ZIP": 70816, "PHONE_NUMBER": null, "WEBSITE": null, "RESOURCE_TYPE": "GOVERNMENT AGENCIES" }, "geometry": { "type": "Point", "coordinates": [ -91.051130994007778, 30.426679149430779 ] } },
{ "type": "Feature", "properties": { "ID": 12026, "BUSINESS_NAME": "SOCIAL SECURITY ADMINISTRATION", "FULL_ADDRESS": "4332 HARDING BLVD", "CITY": "BATON ROUGE", "STATE": "LOUISIANA", "ZIP": 70807, "PHONE_NUMBER": "866-613-3070", "WEBSITE": null, "RESOURCE_TYPE": "GOVERNMENT AGENCIES" }, "geometry": { "type": "Point", "coordinates": [ -91.147641076428016, 30.520996805275523 ] } },
{ "type": "Feature", "properties": { "ID": 17986, "BUSINESS_NAME": "LA DISASTER RELIEF FOUNDATION", "FULL_ADDRESS": "445 N 6TH ST", "CITY": "BATON ROUGE", "STATE": "LOUISIANA", "ZIP": 70801, "PHONE_NUMBER": null, "WEBSITE": null, "RESOURCE_TYPE": "GOVERNMENT AGENCIES" }, "geometry": { "type": "Point", "coordinates": [ -91.184866726079122, 30.45122840781244 ] } },
{ "type": "Feature", "properties": { "ID": 24458, "BUSINESS_NAME": "LA. SENATE DISTRICT 16", "FULL_ADDRESS": "7520 PERKINS RD", "CITY": "BATON ROUGE", "STATE": "LOUISIANA", "ZIP": 70808, "PHONE_NUMBER": null, "WEBSITE": null, "RESOURCE_TYPE": "GOVERNMENT AGENCIES" }, "geometry": { "type": "Point", "coordinates": [ -91.110909489790487, 30.395455855328489 ] } },
{ "type": "Feature", "properties": { "ID": 24903, "BUSINESS_NAME": "LOUISIANA BOARD OF WHOLESALE DRUG DISTRIBUTORS", "FULL_ADDRESS": "12091 BRICKSOME AVE", "CITY": "BATON ROUGE", "STATE": "LOUISIANA", "ZIP": 70816, "PHONE_NUMBER": null, "WEBSITE": null, "RESOURCE_TYPE": "GOVERNMENT AGENCIES" }, "geometry": { "type": "Point", "coordinates": [ -91.046542697836699, 30.424384170598398 ] } },
{ "type": "Feature", "properties": { "ID": 26765, "BUSINESS_NAME": "LOUISIANA REHABILITATION SERVICES", "FULL_ADDRESS": "8225 FLORIDA BLVD", "CITY": "BATON ROUGE", "STATE": "LOUISIANA", "ZIP": 70806, "PHONE_NUMBER": "225-295-8900", "WEBSITE": "http://laworks.net/WorkforceDev/LRS/LRS_Main.asp", "RESOURCE_TYPE": "GOVERNMENT AGENCIES" }, "geometry": { "type": "Point", "coordinates": [ -91.102112559399416, 30.452898114998156 ] } },
{ "type": "Feature", "properties": { "ID": 27557, "BUSINESS_NAME": "LOUISIANA BOARD OF PHARMACY", "FULL_ADDRESS": "3388 BRENTWOOD DR", "CITY": "BATON ROUGE", "STATE": "LOUISIANA", "ZIP": 70809, "PHONE_NUMBER": null, "WEBSITE": null, "RESOURCE_TYPE": "GOVERNMENT AGENCIES" }, "geometry": { "type": "Point", "coordinates": [ -91.10039550254659, 30.419078436594045 ] } },
{ "type": "Feature", "properties": { "ID": 28439, "BUSINESS_NAME": "LOUISIANA REHABILITATION SERVICES", "FULL_ADDRESS": "3651 CEDARCREST AVE", "CITY": "BATON ROUGE", "STATE": "LOUISIANA", "ZIP": 70816, "PHONE_NUMBER": "225-295-8900", "WEBSITE": "http://laworks.net/WorkforceDev/LRS/LRS_Main.asp", "RESOURCE_TYPE": "GOVERNMENT AGENCIES" }, "geometry": { "type": "Point", "coordinates": [ -91.066799034126461, 30.41828519612352 ] } },
{ "type": "Feature", "properties": { "ID": 30489, "BUSINESS_NAME": "LOUISIANA BOARD OF ETHICS", "FULL_ADDRESS": "2415 QUAIL DR", "CITY": "BATON ROUGE", "STATE": "LOUISIANA", "ZIP": 70808, "PHONE_NUMBER": null, "WEBSITE": null, "RESOURCE_TYPE": "GOVERNMENT AGENCIES" }, "geometry": { "type": "Point", "coordinates": [ -91.126235491062971, 30.403304594265489 ] } },
{ "type": "Feature", "properties": { "ID": 38680, "BUSINESS_NAME": "LOUISIANA BOARD OF EXAMINERS FOR SPEECH LANGUAGE PATHOLOGY AND AUDIOLOGY", "FULL_ADDRESS": "11930 PERKINS RD", "CITY": "BATON ROUGE", "STATE": "LOUISIANA", "ZIP": 70810, "PHONE_NUMBER": null, "WEBSITE": null, "RESOURCE_TYPE": "GOVERNMENT AGENCIES" }, "geometry": { "type": "Point", "coordinates": [ -91.083271564801819, 30.370738132799595 ] } },
{ "type": "Feature", "properties": { "ID": 38898, "BUSINESS_NAME": "BEACON HOUSE ADOPTION SERVICES", "FULL_ADDRESS": "5917 JONES CREEK RD", "CITY": "BATON ROUGE", "STATE": "LOUISIANA", "ZIP": 70817, "PHONE_NUMBER": null, "WEBSITE": null, "RESOURCE_TYPE": "GOVERNMENT AGENCIES" }, "geometry": { "type": "Point", "coordinates": [ -91.01683892828872, 30.399608959042602 ] } },
{ "type": "Feature", "properties": { "ID": 39892, "BUSINESS_NAME": "LOUISIANA BOARD OF PHARMACY", "FULL_ADDRESS": "5615 CORPORATE BLVD", "CITY": "BATON ROUGE", "STATE": "LOUISIANA", "ZIP": 70808, "PHONE_NUMBER": null, "WEBSITE": null, "RESOURCE_TYPE": "GOVERNMENT AGENCIES" }, "geometry": { "type": "Point", "coordinates": [ -91.13272319851616, 30.425156969082529 ] } },
{ "type": "Feature", "properties": { "ID": 39907, "BUSINESS_NAME": "US DEPT OF HOUSING & URBAN DEV.", "FULL_ADDRESS": "5757 CORPORATE BLVD", "CITY": "BATON ROUGE", "STATE": "LOUISIANA", "ZIP": 70808, "PHONE_NUMBER": null, "WEBSITE": null, "RESOURCE_TYPE": "GOVERNMENT AGENCIES" }, "geometry": { "type": "Point", "coordinates": [ -91.131744321487162, 30.425389413625794 ] } },
{ "type": "Feature", "properties": { "ID": 42203, "BUSINESS_NAME": "US COAST GUARD MARINE SAFETY UNIT", "FULL_ADDRESS": "6031 CRESTMOUNT DR, STE A", "CITY": "BATON ROUGE", "STATE": "LOUISIANA", "ZIP": 70809, "PHONE_NUMBER": null, "WEBSITE": null, "RESOURCE_TYPE": "GOVERNMENT AGENCIES" }, "geometry": { "type": "Point", "coordinates": [ -91.056078355368044, 30.393433309882216 ] } },
{ "type": "Feature", "properties": { "ID": 42435, "BUSINESS_NAME": "US GEOLOGICAL SURVEY", "FULL_ADDRESS": "3535 S SHERWOOD FOREST BLVD", "CITY": "BATON ROUGE", "STATE": "LOUISIANA", "ZIP": 70816, "PHONE_NUMBER": null, "WEBSITE": null, "RESOURCE_TYPE": "GOVERNMENT AGENCIES" }, "geometry": { "type": "Point", "coordinates": [ -91.050364030860877, 30.420989332954811 ] } },
{ "type": "Feature", "properties": { "ID": 44045, "BUSINESS_NAME": "L.A. STATE BOARD OF EXAMINERS OF PSYCHOLOGISTS", "FULL_ADDRESS": "8280 YMCA PLAZA DR", "CITY": "BATON ROUGE", "STATE": "LOUISIANA", "ZIP": 70810, "PHONE_NUMBER": null, "WEBSITE": null, "RESOURCE_TYPE": "GOVERNMENT AGENCIES" }, "geometry": { "type": "Point", "coordinates": [ -91.077578335126873, 30.371852509028432 ] } },
{ "type": "Feature", "properties": { "ID": 44687, "BUSINESS_NAME": "US ARMY RECRUITING", "FULL_ADDRESS": "1023 LOBDELL BLVD", "CITY": "BATON ROUGE", "STATE": "LOUISIANA", "ZIP": 70806, "PHONE_NUMBER": null, "WEBSITE": null, "RESOURCE_TYPE": "GOVERNMENT AGENCIES" }, "geometry": { "type": "Point", "coordinates": [ -91.114420430502747, 30.459464855692978 ] } },
{ "type": "Feature", "properties": { "ID": 47337, "BUSINESS_NAME": "LOUISIANA ASSESSORS ASSOCIATION", "FULL_ADDRESS": "3060 VALLEY CREEK DR", "CITY": "BATON ROUGE", "STATE": "LOUISIANA", "ZIP": 70808, "PHONE_NUMBER": null, "WEBSITE": null, "RESOURCE_TYPE": "GOVERNMENT AGENCIES" }, "geometry": { "type": "Point", "coordinates": [ -91.138475305784084, 30.418353325988882 ] } },
{ "type": "Feature", "properties": { "ID": 51266, "BUSINESS_NAME": "LOUISIANA BOARD OF EXAMINERS FOR SPEECH LANGUAGE PATHOLOGY AND AUDIOLOGY", "FULL_ADDRESS": "18550 HIGHLAND RD", "CITY": "BATON ROUGE", "STATE": "LOUISIANA", "ZIP": 70809, "PHONE_NUMBER": null, "WEBSITE": null, "RESOURCE_TYPE": "GOVERNMENT AGENCIES" }, "geometry": { "type": "Point", "coordinates": [ -91.023223320957655, 30.351194297498814 ] } },
{ "type": "Feature", "properties": { "ID": 52639, "BUSINESS_NAME": "GREATER BATON ROUGE AIRPORT DISTRICT POLICE", "FULL_ADDRESS": "9412 JACKIE COCHRAN DR", "CITY": "BATON ROUGE", "STATE": "LOUISIANA", "ZIP": 70807, "PHONE_NUMBER": null, "WEBSITE": null, "RESOURCE_TYPE": "GOVERNMENT AGENCIES" }, "geometry": { "type": "Point", "coordinates": [ -91.156597911221297, 30.5315025367678 ] } },
{ "type": "Feature", "properties": { "ID": 52640, "BUSINESS_NAME": "B.R. METROPOLITAN AIRPORT AIRCRAFT RESCUE FIRE FIGHTING FACILITY", "FULL_ADDRESS": "9412 JACKIE COCHRAN DR", "CITY": "BATON ROUGE", "STATE": "LOUISIANA", "ZIP": 70807, "PHONE_NUMBER": null, "WEBSITE": null, "RESOURCE_TYPE": "GOVERNMENT AGENCIES" }, "geometry": { "type": "Point", "coordinates": [ -91.156597911221297, 30.5315025367678 ] } },
{ "type": "Feature", "properties": { "ID": 127369, "BUSINESS_NAME": "B R E P C", "FULL_ADDRESS": "3170 BOOTSIE DR", "CITY": "BATON ROUGE", "STATE": "LOUISIANA", "ZIP": 70805, "PHONE_NUMBER": null, "WEBSITE": null, "RESOURCE_TYPE": "GOVERNMENT AGENCIES" }, "geometry": { "type": "Point", "coordinates": [ -91.132735967978618, 30.477973671178848 ] } },
{ "type": "Feature", "properties": { "ID": 144919, "BUSINESS_NAME": "STATE OF LA PLUMBING BOARD", "FULL_ADDRESS": "12497 AIRLINE HWY", "CITY": "BATON ROUGE", "STATE": "LOUISIANA", "ZIP": 70817, "PHONE_NUMBER": null, "WEBSITE": null, "RESOURCE_TYPE": "GOVERNMENT AGENCIES" }, "geometry": { "type": "Point", "coordinates": [ -91.043261076181651, 30.388000568007147 ] } },
{ "type": "Feature", "properties": { "ID": 144985, "BUSINESS_NAME": "ARMY/NAVY RECRUITING OFFICE", "FULL_ADDRESS": "6725 SIEGEN LN", "CITY": "BATON ROUGE", "STATE": "LOUISIANA", "ZIP": 70809, "PHONE_NUMBER": null, "WEBSITE": null, "RESOURCE_TYPE": "GOVERNMENT AGENCIES" }, "geometry": { "type": "Point", "coordinates": [ -91.061002250260785, 30.387421765082426 ] } },
{ "type": "Feature", "properties": { "ID": 145439, "BUSINESS_NAME": "OFFICE OF STATE REPRESENTATIVE REGINA BARROW", "FULL_ADDRESS": "4305 AIRLINE HWY", "CITY": "BATON ROUGE", "STATE": "LOUISIANA", "ZIP": 70811, "PHONE_NUMBER": null, "WEBSITE": null, "RESOURCE_TYPE": "GOVERNMENT AGENCIES" }, "geometry": { "type": "Point", "coordinates": [ -91.146411516502496, 30.51012331381682 ] } },
{ "type": "Feature", "properties": { "ID": 146903, "BUSINESS_NAME": "BEARD GARY STATE REPRESENTATIVE", "FULL_ADDRESS": "2380 O'NEAL LN, STE J", "CITY": "BATON ROUGE", "STATE": "LOUISIANA", "ZIP": 70816, "PHONE_NUMBER": null, "WEBSITE": null, "RESOURCE_TYPE": "GOVERNMENT AGENCIES" }, "geometry": { "type": "Point", "coordinates": [ -91.008313877018225, 30.434878189186534 ] } },
{ "type": "Feature", "properties": { "ID": 147175, "BUSINESS_NAME": "DIVISION OF ADMINISTRATIVE LAW", "FULL_ADDRESS": "654 MAIN ST", "CITY": "BATON ROUGE", "STATE": "LOUISIANA", "ZIP": 70801, "PHONE_NUMBER": "225-342-1800", "WEBSITE": "http://adminlaw.state.la.us", "RESOURCE_TYPE": "GOVERNMENT AGENCIES" }, "geometry": { "type": "Point", "coordinates": [ -91.183803974673197, 30.451455241475706 ] } },
{ "type": "Feature", "properties": { "ID": 147854, "BUSINESS_NAME": "RADIO & TELEVISION TECHNICAL BOARD", "FULL_ADDRESS": "9071 INTERLINE AVE", "CITY": "BATON ROUGE", "STATE": "LOUISIANA", "ZIP": 70809, "PHONE_NUMBER": null, "WEBSITE": null, "RESOURCE_TYPE": "GOVERNMENT AGENCIES" }, "geometry": { "type": "Point", "coordinates": [ -91.085508676913165, 30.420543671039788 ] } },
{ "type": "Feature", "properties": { "ID": 148097, "BUSINESS_NAME": "NATIONAL HANSENS DISEASE PROGRAMS", "FULL_ADDRESS": "1770 PHYSICIANS PARK DR", "CITY": "BATON ROUGE", "STATE": "LOUISIANA", "ZIP": 70816, "PHONE_NUMBER": null, "WEBSITE": null, "RESOURCE_TYPE": "GOVERNMENT AGENCIES" }, "geometry": { "type": "Point", "coordinates": [ -90.999845245405865, 30.440192840909113 ] } },
{ "type": "Feature", "properties": { "ID": 149480, "BUSINESS_NAME": "LOUISIANA TREASURY DEPT UNCLAIMED PROPERTY DIVISION", "FULL_ADDRESS": "626 MAIN ST", "CITY": "BATON ROUGE", "STATE": "LOUISIANA", "ZIP": 70801, "PHONE_NUMBER": null, "WEBSITE": null, "RESOURCE_TYPE": "GOVERNMENT AGENCIES" }, "geometry": { "type": "Point", "coordinates": [ -91.184031992648855, 30.451462381022015 ] } },
{ "type": "Feature", "properties": { "ID": 150072, "BUSINESS_NAME": "LA LAND TRUST", "FULL_ADDRESS": "11601 SOUTHFORK AVE", "CITY": "BATON ROUGE", "STATE": "LOUISIANA", "ZIP": 70816, "PHONE_NUMBER": null, "WEBSITE": null, "RESOURCE_TYPE": "GOVERNMENT AGENCIES" }, "geometry": { "type": "Point", "coordinates": [ -91.053702054810216, 30.422170187874052 ] } },
{ "type": "Feature", "properties": { "ID": 150083, "BUSINESS_NAME": "LA CONTRACTORS LICENSING SERVICE", "FULL_ADDRESS": "2834 S SHERWOOD FOREST BLVD, STE D2", "CITY": "BATON ROUGE", "STATE": "LOUISIANA", "ZIP": 70816, "PHONE_NUMBER": null, "WEBSITE": null, "RESOURCE_TYPE": "GOVERNMENT AGENCIES" }, "geometry": { "type": "Point", "coordinates": [ -91.053560530049836, 30.425765677915646 ] } },
{ "type": "Feature", "properties": { "ID": 151264, "BUSINESS_NAME": "DISTRICT OFFICE OF STATE REP. EDWARD JAMES ", "FULL_ADDRESS": "3552 MONTERREY DR", "CITY": "BATON ROUGE", "STATE": "LOUISIANA", "ZIP": 70814, "PHONE_NUMBER": null, "WEBSITE": null, "RESOURCE_TYPE": "GOVERNMENT AGENCIES" }, "geometry": { "type": "Point", "coordinates": [ -91.083145162208893, 30.483560228063066 ] } },
{ "type": "Feature", "properties": { "ID": 155598, "BUSINESS_NAME": "SOCIAL SECURITY ADMINISTRATION", "FULL_ADDRESS": "5455 BANKERS AVE", "CITY": "BATON ROUGE", "STATE": "LOUISIANA", "ZIP": 70808, "PHONE_NUMBER": "866-613-3070", "WEBSITE": null, "RESOURCE_TYPE": "GOVERNMENT AGENCIES" }, "geometry": { "type": "Point", "coordinates": [ -91.134443442176206, 30.427350221193961 ] } },
{ "type": "Feature", "properties": { "ID": 164009, "BUSINESS_NAME": "UNITED STATES FEDERAL AVIATION ADMINISTRATION", "FULL_ADDRESS": "8326 MERLE GUSTAFSON DR", "CITY": "BATON ROUGE", "STATE": "LOUISIANA", "ZIP": 70807, "PHONE_NUMBER": null, "WEBSITE": null, "RESOURCE_TYPE": "GOVERNMENT AGENCIES" }, "geometry": { "type": "Point", "coordinates": [ -91.148943379321452, 30.523964040800376 ] } },
{ "type": "Feature", "properties": { "ID": 164386, "BUSINESS_NAME": "EXPRESS OMV LLC", "FULL_ADDRESS": "12690 PERKINS RD", "CITY": "BATON ROUGE", "STATE": "LOUISIANA", "ZIP": 70810, "PHONE_NUMBER": null, "WEBSITE": null, "RESOURCE_TYPE": "GOVERNMENT AGENCIES" }, "geometry": { "type": "Point", "coordinates": [ -91.076611755990299, 30.36780244936719 ] } },
{ "type": "Feature", "properties": { "ID": 164756, "BUSINESS_NAME": "CAPITAL AREA LAW ENFORCEMENT PLANNING COUNCIL", "FULL_ADDRESS": "15254 OLD HAMMOND HWY, STE A3", "CITY": "BATON ROUGE", "STATE": "LOUISIANA", "ZIP": 70816, "PHONE_NUMBER": null, "WEBSITE": null, "RESOURCE_TYPE": "GOVERNMENT AGENCIES" }, "geometry": { "type": "Point", "coordinates": [ -91.01636931072089, 30.455509350544304 ] } },
{ "type": "Feature", "properties": { "ID": 172453, "BUSINESS_NAME": "USDA HONEY BEE BREEDING, GENETICS, & PHYSIOLOGY RESEARCH LABORATORY", "FULL_ADDRESS": "1157 BEN HUR RD", "CITY": "BATON ROUGE", "STATE": "LOUISIANA", "ZIP": 70820, "PHONE_NUMBER": null, "WEBSITE": null, "RESOURCE_TYPE": "GOVERNMENT AGENCIES" }, "geometry": { "type": "Point", "coordinates": [ -91.16738540746384, 30.379376124754337 ] } },
{ "type": "Feature", "properties": { "ID": 173079, "BUSINESS_NAME": "LOUISIANA BOARD OF WHOLESALE DRUG DISTRIBUTORS", "FULL_ADDRESS": "12091 BRICKSOME AVE, STE A", "CITY": "BATON ROUGE", "STATE": "LOUISIANA", "ZIP": 70816, "PHONE_NUMBER": null, "WEBSITE": null, "RESOURCE_TYPE": "GOVERNMENT AGENCIES" }, "geometry": { "type": "Point", "coordinates": [ -91.046570481009041, 30.424430018091211 ] } },
{ "type": "Feature", "properties": { "ID": 188258, "BUSINESS_NAME": "US COAST GUARD MARINE SAFETY UNIT", "FULL_ADDRESS": "6031 CRESTMOUNT DR, STE B", "CITY": "BATON ROUGE", "STATE": "LOUISIANA", "ZIP": 70809, "PHONE_NUMBER": null, "WEBSITE": null, "RESOURCE_TYPE": "GOVERNMENT AGENCIES" }, "geometry": { "type": "Point", "coordinates": [ -91.056034076866922, 30.393412006949625 ] } },
{ "type": "Feature", "properties": { "ID": 188259, "BUSINESS_NAME": "US COAST GUARD MARINE SAFETY UNIT", "FULL_ADDRESS": "6031 CRESTMOUNT DR, STE C", "CITY": "BATON ROUGE", "STATE": "LOUISIANA", "ZIP": 70809, "PHONE_NUMBER": null, "WEBSITE": null, "RESOURCE_TYPE": "GOVERNMENT AGENCIES" }, "geometry": { "type": "Point", "coordinates": [ -91.055996104094774, 30.393394178569892 ] } },
{ "type": "Feature", "properties": { "ID": 189071, "BUSINESS_NAME": "US COAST GUARD MARINE SAFETY UNIT", "FULL_ADDRESS": "6031 CRESTMOUNT DR, STE D", "CITY": "BATON ROUGE", "STATE": "LOUISIANA", "ZIP": 70809, "PHONE_NUMBER": null, "WEBSITE": null, "RESOURCE_TYPE": "GOVERNMENT AGENCIES" }, "geometry": { "type": "Point", "coordinates": [ -91.05595522142238, 30.393371273398625 ] } },
{ "type": "Feature", "properties": { "ID": 190650, "BUSINESS_NAME": "US DEPT OF AGRICULTURE-FOOD & NUTRITION SERVICE", "FULL_ADDRESS": "5304 FLANDERS DR, STE B", "CITY": "BATON ROUGE", "STATE": "LOUISIANA", "ZIP": 70808, "PHONE_NUMBER": "225-757-7710", "WEBSITE": null, "RESOURCE_TYPE": "GOVERNMENT AGENCIES" }, "geometry": { "type": "Point", "coordinates": [ -91.108747838000994, 30.400274725383717 ] } },
{ "type": "Feature", "properties": { "ID": 201953, "BUSINESS_NAME": "GOVERNOR'S OFFICE OF ELDERLY AFFAIRS", "FULL_ADDRESS": "525 FLORIDA ST", "CITY": "BATON ROUGE", "STATE": "LOUISIANA", "ZIP": 70801, "PHONE_NUMBER": "225-342-7100", "WEBSITE": "http://goea.louisiana.gov/", "RESOURCE_TYPE": "GOVERNMENT AGENCIES" }, "geometry": { "type": "Point", "coordinates": [ -91.185572449768671, 30.449725932461558 ] } },
{ "type": "Feature", "properties": { "ID": 202624, "BUSINESS_NAME": "US COAST GUARD MARINE SAFETY UNIT", "FULL_ADDRESS": "6041 CRESTMOUNT DR", "CITY": "BATON ROUGE", "STATE": "LOUISIANA", "ZIP": 70809, "PHONE_NUMBER": null, "WEBSITE": null, "RESOURCE_TYPE": "GOVERNMENT AGENCIES" }, "geometry": { "type": "Point", "coordinates": [ -91.056178167183049, 30.393255636957747 ] } },
{ "type": "Feature", "properties": { "ID": 202659, "BUSINESS_NAME": "LA STATE BOARD OF NURSING", "FULL_ADDRESS": "17373 PERKINS RD", "CITY": "BATON ROUGE", "STATE": "LOUISIANA", "ZIP": 70810, "PHONE_NUMBER": null, "WEBSITE": null, "RESOURCE_TYPE": "GOVERNMENT AGENCIES" }, "geometry": { "type": "Point", "coordinates": [ -91.034976325306005, 30.350778889497125 ] } }
]
}
