{
"type": "FeatureCollection",
"name": "Grocery",
"crs": { "type": "name", "properties": { "name": "urn:ogc:def:crs:OGC:1.3:CRS84" } },
"features": [
{ "type": "Feature", "properties": { "ID": 7424, "BUSINESS_NAME": "FOSTER FOOD MART INC", "FULL_ADDRESS": "2534 N FOSTER DR", "CITY": "BATON ROUGE", "STATE": "LOUISIANA", "ZIP": 70805, "PHONE_NUMBER": null, "WEBSITE": null, "RESOURCE_TYPE": "RETAIL", "SUB_RESOURCE_TYPE": "HEALTHY CORNER STORE" }, "geometry": { "type": "Point", "coordinates": [ -91.139870905048127, 30.471224277331753 ] } },
{ "type": "Feature", "properties": { "ID": 8739, "BUSINESS_NAME": "SCENIC MARKET LLC", "FULL_ADDRESS": "890 SCENIC HWY", "CITY": "BATON ROUGE", "STATE": "LOUISIANA", "ZIP": 70802, "PHONE_NUMBER": null, "WEBSITE": null, "RESOURCE_TYPE": "RETAIL", "SUB_RESOURCE_TYPE": "HEALTHY CORNER STORE" }, "geometry": { "type": "Point", "coordinates": [ -91.167139623509854, 30.456178481952239 ] } },
{ "type": "Feature", "properties": { "ID": 10344, "BUSINESS_NAME": "TAK'S FOOD MART", "FULL_ADDRESS": "5765 PRESCOTT RD", "CITY": "BATON ROUGE", "STATE": "LOUISIANA", "ZIP": 70805, "PHONE_NUMBER": null, "WEBSITE": null, "RESOURCE_TYPE": "FOOD ACCESS", "SUB_RESOURCE_TYPE": "GROCERY" }, "geometry": { "type": "Point", "coordinates": [ -91.133128774473249, 30.48800888051062 ] } },
{ "type": "Feature", "properties": { "ID": 12164, "BUSINESS_NAME": "KELLY'S MEAT MART", "FULL_ADDRESS": "7744 PLANK RD", "CITY": "BATON ROUGE", "STATE": "LOUISIANA", "ZIP": 70811, "PHONE_NUMBER": null, "WEBSITE": null, "RESOURCE_TYPE": "FOOD ACCESS", "SUB_RESOURCE_TYPE": "GROCERY" }, "geometry": { "type": "Point", "coordinates": [ -91.146053436162219, 30.518948189529873 ] } },
{ "type": "Feature", "properties": { "ID": 12277, "BUSINESS_NAME": "SHOPPERS VALUE", "FULL_ADDRESS": "5963 PLANK RD", "CITY": "BATON ROUGE", "STATE": "LOUISIANA", "ZIP": 70805, "PHONE_NUMBER": "225-357-7400", "WEBSITE": "http://shoppersvaluefoodla.com/", "RESOURCE_TYPE": "RETAIL", "SUB_RESOURCE_TYPE": "GROCERY" }, "geometry": { "type": "Point", "coordinates": [ -91.153323352092542, 30.504167254704338 ] } },
{ "type": "Feature", "properties": { "ID": 12334, "BUSINESS_NAME": "DOWNTOWN GROCER", "FULL_ADDRESS": "263 3RD ST", "CITY": "BATON ROUGE", "STATE": "LOUISIANA", "ZIP": 70801, "PHONE_NUMBER": null, "WEBSITE": null, "RESOURCE_TYPE": "RETAIL", "SUB_RESOURCE_TYPE": "GROCERY" }, "geometry": { "type": "Point", "coordinates": [ -91.188391244128368, 30.449131918027277 ] } },
{ "type": "Feature", "properties": { "ID": 13895, "BUSINESS_NAME": "SCOTLAND MONEY MART", "FULL_ADDRESS": "10888 SCOTLAND AVE", "CITY": "BATON ROUGE", "STATE": "LOUISIANA", "ZIP": 70807, "PHONE_NUMBER": null, "WEBSITE": null, "RESOURCE_TYPE": "RETAIL", "SUB_RESOURCE_TYPE": "HEALTHY CORNER STORE" }, "geometry": { "type": "Point", "coordinates": [ -91.17643594678492, 30.543154604353791 ] } },
{ "type": "Feature", "properties": { "ID": 14214, "BUSINESS_NAME": "WELLER FOOD MART", "FULL_ADDRESS": "2605 WELLER AVE", "CITY": "BATON ROUGE", "STATE": "LOUISIANA", "ZIP": 70805, "PHONE_NUMBER": "225-358-0681", "WEBSITE": null, "RESOURCE_TYPE": "RETAIL", "SUB_RESOURCE_TYPE": "GROCERY" }, "geometry": { "type": "Point", "coordinates": [ -91.163282195868447, 30.485767507913785 ] } },
{ "type": "Feature", "properties": { "ID": 16438, "BUSINESS_NAME": "MIEN TAY GROCERY", "FULL_ADDRESS": "1125 MARQUE ANN DR", "CITY": "BATON ROUGE", "STATE": "LOUISIANA", "ZIP": 70815, "PHONE_NUMBER": null, "WEBSITE": null, "RESOURCE_TYPE": "FOOD ACCESS", "SUB_RESOURCE_TYPE": "GROCERY" }, "geometry": { "type": "Point", "coordinates": [ -91.043545945315117, 30.462087166659273 ] } },
{ "type": "Feature", "properties": { "ID": 17634, "BUSINESS_NAME": "MONTALBANO'S SEAFOOD MARKET", "FULL_ADDRESS": "12740 FLORIDA BLVD", "CITY": "BATON ROUGE", "STATE": "LOUISIANA", "ZIP": 70815, "PHONE_NUMBER": null, "WEBSITE": null, "RESOURCE_TYPE": "FOOD ACCESS", "SUB_RESOURCE_TYPE": "GROCERY" }, "geometry": { "type": "Point", "coordinates": [ -91.041378646070967, 30.460987832533181 ] } },
{ "type": "Feature", "properties": { "ID": 18550, "BUSINESS_NAME": "PETE'S FARMER'S MARKET/PETE'S SNOWBALL STAND", "FULL_ADDRESS": "4919 AIRLINE HWY", "CITY": "BATON ROUGE", "STATE": "LOUISIANA", "ZIP": 70811, "PHONE_NUMBER": null, "WEBSITE": null, "RESOURCE_TYPE": "FOOD ACCESS", "SUB_RESOURCE_TYPE": "GROCERY" }, "geometry": { "type": "Point", "coordinates": [ -91.141022297549213, 30.509149329571581 ] } },
{ "type": "Feature", "properties": { "ID": 19100, "BUSINESS_NAME": "KING'S MEAT MARKET", "FULL_ADDRESS": "6525 GREENWELL ST", "CITY": "BATON ROUGE", "STATE": "LOUISIANA", "ZIP": 70812, "PHONE_NUMBER": null, "WEBSITE": null, "RESOURCE_TYPE": "FOOD ACCESS", "SUB_RESOURCE_TYPE": "GROCERY" }, "geometry": { "type": "Point", "coordinates": [ -91.126407353545929, 30.502682619575239 ] } },
{ "type": "Feature", "properties": { "ID": 21598, "BUSINESS_NAME": "HONG KONG SEAFOOD MARKET", "FULL_ADDRESS": "1295 N SHERWOOD FOREST DR", "CITY": "BATON ROUGE", "STATE": "LOUISIANA", "ZIP": 70815, "PHONE_NUMBER": null, "WEBSITE": null, "RESOURCE_TYPE": "FOOD ACCESS", "SUB_RESOURCE_TYPE": "GROCERY" }, "geometry": { "type": "Point", "coordinates": [ -91.058692718257291, 30.460466109485033 ] } },
{ "type": "Feature", "properties": { "ID": 21608, "BUSINESS_NAME": "SAIGON HONG KONG SEAFOOD MARKET", "FULL_ADDRESS": "1295 N SHERWOOD FOREST DR", "CITY": "BATON ROUGE", "STATE": "LOUISIANA", "ZIP": 70815, "PHONE_NUMBER": "225-272-8822", "WEBSITE": null, "RESOURCE_TYPE": "RETAIL", "SUB_RESOURCE_TYPE": "GROCERY" }, "geometry": { "type": "Point", "coordinates": [ -91.058692718257291, 30.460466109485033 ] } },
{ "type": "Feature", "properties": { "ID": 22202, "BUSINESS_NAME": "GULFSIDE SEAFOOD MARKET", "FULL_ADDRESS": "7965 AIRLINE HWY", "CITY": "BATON ROUGE", "STATE": "LOUISIANA", "ZIP": 70815, "PHONE_NUMBER": null, "WEBSITE": null, "RESOURCE_TYPE": "FOOD ACCESS", "SUB_RESOURCE_TYPE": "GROCERY" }, "geometry": { "type": "Point", "coordinates": [ -91.105524202943485, 30.467344315337119 ] } },
{ "type": "Feature", "properties": { "ID": 22360, "BUSINESS_NAME": "SHOPPERS CHOICE", "FULL_ADDRESS": "8151 AIRLINE HWY", "CITY": "BATON ROUGE", "STATE": "LOUISIANA", "ZIP": 70815, "PHONE_NUMBER": null, "WEBSITE": null, "RESOURCE_TYPE": "RETAIL", "SUB_RESOURCE_TYPE": "GROCERY" }, "geometry": { "type": "Point", "coordinates": [ -91.103130232893136, 30.464008538720325 ] } },
{ "type": "Feature", "properties": { "ID": 23446, "BUSINESS_NAME": "WALMART NEIGHBORHOOD MARKET", "FULL_ADDRESS": "11550 COURSEY BLVD", "CITY": "BATON ROUGE", "STATE": "LOUISIANA", "ZIP": 70816, "PHONE_NUMBER": null, "WEBSITE": null, "RESOURCE_TYPE": "FOOD ACCESS", "SUB_RESOURCE_TYPE": "GROCERY" }, "geometry": { "type": "Point", "coordinates": [ -91.054338825938871, 30.409747321727707 ] } },
{ "type": "Feature", "properties": { "ID": 25371, "BUSINESS_NAME": "ACADIAN FOOD MART", "FULL_ADDRESS": "2223 N ACADIAN THWY W", "CITY": "BATON ROUGE", "STATE": "LOUISIANA", "ZIP": 70802, "PHONE_NUMBER": null, "WEBSITE": null, "RESOURCE_TYPE": "RETAIL", "SUB_RESOURCE_TYPE": "HEALTHY CORNER STORE" }, "geometry": { "type": "Point", "coordinates": [ -91.156632110655622, 30.468159594363247 ] } },
{ "type": "Feature", "properties": { "ID": 26045, "BUSINESS_NAME": "Q MART", "FULL_ADDRESS": "585 N FOSTER DR", "CITY": "BATON ROUGE", "STATE": "LOUISIANA", "ZIP": 70806, "PHONE_NUMBER": null, "WEBSITE": null, "RESOURCE_TYPE": "RETAIL", "SUB_RESOURCE_TYPE": "HEALTHY CORNER STORE" }, "geometry": { "type": "Point", "coordinates": [ -91.139605746114555, 30.453619667599902 ] } },
{ "type": "Feature", "properties": { "ID": 28302, "BUSINESS_NAME": "BARKAT INTERNATIONAL GROCERY", "FULL_ADDRESS": "191 WOODDALE BLVD", "CITY": "BATON ROUGE", "STATE": "LOUISIANA", "ZIP": 70806, "PHONE_NUMBER": null, "WEBSITE": null, "RESOURCE_TYPE": "FOOD ACCESS", "SUB_RESOURCE_TYPE": "GROCERY" }, "geometry": { "type": "Point", "coordinates": [ -91.104962764540375, 30.452709661308994 ] } },
{ "type": "Feature", "properties": { "ID": 28309, "BUSINESS_NAME": "LA MORENITA MEAT MARKET", "FULL_ADDRESS": "7981 FLORIDA BLVD", "CITY": "BATON ROUGE", "STATE": "LOUISIANA", "ZIP": 70806, "PHONE_NUMBER": "225-231-3234", "WEBSITE": null, "RESOURCE_TYPE": "RETAIL", "SUB_RESOURCE_TYPE": "GROCERY" }, "geometry": { "type": "Point", "coordinates": [ -91.106015841311319, 30.453051552756492 ] } },
{ "type": "Feature", "properties": { "ID": 30872, "BUSINESS_NAME": "A-Z INTERNATIONAL FINE FOODS", "FULL_ADDRESS": "13461 TIGER BEND RD", "CITY": "BATON ROUGE", "STATE": "LOUISIANA", "ZIP": 70817, "PHONE_NUMBER": "225-756-5003", "WEBSITE": null, "RESOURCE_TYPE": "RETAIL", "SUB_RESOURCE_TYPE": "GROCERY" }, "geometry": { "type": "Point", "coordinates": [ -91.034785063225897, 30.392578624405626 ] } },
{ "type": "Feature", "properties": { "ID": 31814, "BUSINESS_NAME": "GARDERE MEAT MARKET", "FULL_ADDRESS": "2509 GARDERE LN", "CITY": "BATON ROUGE", "STATE": "LOUISIANA", "ZIP": 70810, "PHONE_NUMBER": null, "WEBSITE": null, "RESOURCE_TYPE": "FOOD ACCESS", "SUB_RESOURCE_TYPE": "GROCERY" }, "geometry": { "type": "Point", "coordinates": [ -91.133716374087527, 30.349704230289341 ] } },
{ "type": "Feature", "properties": { "ID": 33905, "BUSINESS_NAME": "A & M TIME SAVER FOOD MART", "FULL_ADDRESS": "3655 O'NEAL LN", "CITY": "BATON ROUGE", "STATE": "LOUISIANA", "ZIP": 70816, "PHONE_NUMBER": null, "WEBSITE": null, "RESOURCE_TYPE": "FOOD ACCESS", "SUB_RESOURCE_TYPE": "GROCERY" }, "geometry": { "type": "Point", "coordinates": [ -91.007289384835317, 30.419715519250545 ] } },
{ "type": "Feature", "properties": { "ID": 34385, "BUSINESS_NAME": "MAXWELLS MARKET", "FULL_ADDRESS": "7620 CORPORATE BLVD, STE A", "CITY": "BATON ROUGE", "STATE": "LOUISIANA", "ZIP": 70809, "PHONE_NUMBER": "225-216-0030", "WEBSITE": "http://maxwells-market.com/", "RESOURCE_TYPE": "RETAIL", "SUB_RESOURCE_TYPE": "GROCERY" }, "geometry": { "type": "Point", "coordinates": [ -91.110519931325072, 30.430282368277425 ] } },
{ "type": "Feature", "properties": { "ID": 34665, "BUSINESS_NAME": "ALEXANDER'S HIGHLAND MARKET", "FULL_ADDRESS": "18111 HIGHLAND MARKET DR", "CITY": "BATON ROUGE", "STATE": "LOUISIANA", "ZIP": 70810, "PHONE_NUMBER": "225-615-7800", "WEBSITE": "http://alexandersmkt.com/", "RESOURCE_TYPE": "RETAIL", "SUB_RESOURCE_TYPE": "GROCERY" }, "geometry": { "type": "Point", "coordinates": [ -91.024841677271297, 30.348621922902989 ] } },
{ "type": "Feature", "properties": { "ID": 35232, "BUSINESS_NAME": "CALANDROS SUPER MARKET #2", "FULL_ADDRESS": "12732 PERKINS RD", "CITY": "BATON ROUGE", "STATE": "LOUISIANA", "ZIP": 70810, "PHONE_NUMBER": "225-767-6659", "WEBSITE": "http://calandros.com/", "RESOURCE_TYPE": "RETAIL", "SUB_RESOURCE_TYPE": "GROCERY" }, "geometry": { "type": "Point", "coordinates": [ -91.076151666319788, 30.367235023866833 ] } },
{ "type": "Feature", "properties": { "ID": 38696, "BUSINESS_NAME": "COSTCO WHOLESALE", "FULL_ADDRESS": "10000 DAWNADELE AVE", "CITY": "BATON ROUGE", "STATE": "LOUISIANA", "ZIP": 70809, "PHONE_NUMBER": null, "WEBSITE": null, "RESOURCE_TYPE": "RETAIL", "SUB_RESOURCE_TYPE": "GROCERY" }, "geometry": { "type": "Point", "coordinates": [ -91.074310907863349, 30.419529783722066 ] } },
{ "type": "Feature", "properties": { "ID": 67821, "BUSINESS_NAME": "TRAMONTES MEAT & SEAFOOD MARKET", "FULL_ADDRESS": "12451 JEFFERSON HWY", "CITY": "BATON ROUGE", "STATE": "LOUISIANA", "ZIP": 70816, "PHONE_NUMBER": null, "WEBSITE": null, "RESOURCE_TYPE": "FOOD ACCESS", "SUB_RESOURCE_TYPE": "GROCERY" }, "geometry": { "type": "Point", "coordinates": [ -91.044644431496451, 30.395082640159711 ] } },
{ "type": "Feature", "properties": { "ID": 89101, "BUSINESS_NAME": "FRESH MARKET THE, INC", "FULL_ADDRESS": "10555 PERKINS RD", "CITY": "BATON ROUGE", "STATE": "LOUISIANA", "ZIP": 70810, "PHONE_NUMBER": "225-765-2915", "WEBSITE": null, "RESOURCE_TYPE": "RETAIL", "SUB_RESOURCE_TYPE": "GROCERY" }, "geometry": { "type": "Point", "coordinates": [ -91.093321554251631, 30.377741977444575 ] } },
{ "type": "Feature", "properties": { "ID": 89726, "BUSINESS_NAME": "MAXWELLS MARKET", "FULL_ADDRESS": "6241 PERKINS RD", "CITY": "BATON ROUGE", "STATE": "LOUISIANA", "ZIP": 70808, "PHONE_NUMBER": "225-766-9150", "WEBSITE": "http://maxwells-market.com/", "RESOURCE_TYPE": "RETAIL", "SUB_RESOURCE_TYPE": "GROCERY" }, "geometry": { "type": "Point", "coordinates": [ -91.124053828320754, 30.406291093003063 ] } },
{ "type": "Feature", "properties": { "ID": 90453, "BUSINESS_NAME": "MAXWELLS MARKET", "FULL_ADDRESS": "18135 E PETROLEUM DR, STE A", "CITY": "BATON ROUGE", "STATE": "LOUISIANA", "ZIP": 70809, "PHONE_NUMBER": null, "WEBSITE": "http://maxwells-market.com/", "RESOURCE_TYPE": "RETAIL", "SUB_RESOURCE_TYPE": "GROCERY" }, "geometry": { "type": "Point", "coordinates": [ -91.020194037697095, 30.352352962430224 ] } },
{ "type": "Feature", "properties": { "ID": 102918, "BUSINESS_NAME": "HENRY'S SEAFOOD LLC", "FULL_ADDRESS": "638 PENALVER ST", "CITY": "BATON ROUGE", "STATE": "LOUISIANA", "ZIP": 70802, "PHONE_NUMBER": null, "WEBSITE": null, "RESOURCE_TYPE": "FOOD ACCESS", "SUB_RESOURCE_TYPE": "GROCERY" }, "geometry": { "type": "Point", "coordinates": [ -91.185802440396955, 30.442364154659749 ] } },
{ "type": "Feature", "properties": { "ID": 103344, "BUSINESS_NAME": "GUS YOUNG MEAT MARKET", "FULL_ADDRESS": "4896 GUS YOUNG AVE", "CITY": "BATON ROUGE", "STATE": "LOUISIANA", "ZIP": 70802, "PHONE_NUMBER": null, "WEBSITE": null, "RESOURCE_TYPE": "FOOD ACCESS", "SUB_RESOURCE_TYPE": "GROCERY" }, "geometry": { "type": "Point", "coordinates": [ -91.141506695915794, 30.461896007005041 ] } },
{ "type": "Feature", "properties": { "ID": 105162, "BUSINESS_NAME": "GUS YOUNG GROCERY", "FULL_ADDRESS": "4412 GUS YOUNG AVE", "CITY": "BATON ROUGE", "STATE": "LOUISIANA", "ZIP": 70802, "PHONE_NUMBER": null, "WEBSITE": null, "RESOURCE_TYPE": "RETAIL", "SUB_RESOURCE_TYPE": "HEALTHY CORNER STORE" }, "geometry": { "type": "Point", "coordinates": [ -91.145082695390855, 30.46186590502381 ] } },
{ "type": "Feature", "properties": { "ID": 106131, "BUSINESS_NAME": "BET-R-STORE 0", "FULL_ADDRESS": "2812 KALURAH ST", "CITY": "BATON ROUGE", "STATE": "LOUISIANA", "ZIP": 70808, "PHONE_NUMBER": "225-343-2361", "WEBSITE": null, "RESOURCE_TYPE": "RETAIL", "SUB_RESOURCE_TYPE": "GROCERY" }, "geometry": { "type": "Point", "coordinates": [ -91.160167859512356, 30.42585492937495 ] } },
{ "type": "Feature", "properties": { "ID": 109505, "BUSINESS_NAME": "ADAMS GROCERY", "FULL_ADDRESS": "1455 N ACADIAN THWY W", "CITY": "BATON ROUGE", "STATE": "LOUISIANA", "ZIP": 70802, "PHONE_NUMBER": null, "WEBSITE": null, "RESOURCE_TYPE": "RETAIL", "SUB_RESOURCE_TYPE": "HEALTHY CORNER STORE" }, "geometry": { "type": "Point", "coordinates": [ -91.156355165604566, 30.461180917209226 ] } },
{ "type": "Feature", "properties": { "ID": 116932, "BUSINESS_NAME": "BROWIE'S KITCHEN & GROCERY, LLC", "FULL_ADDRESS": "8154 GREENWELL SPRINGS RD", "CITY": "BATON ROUGE", "STATE": "LOUISIANA", "ZIP": 70814, "PHONE_NUMBER": null, "WEBSITE": null, "RESOURCE_TYPE": "FOOD ACCESS", "SUB_RESOURCE_TYPE": "GROCERY" }, "geometry": { "type": "Point", "coordinates": [ -91.104850002998802, 30.479115261595272 ] } },
{ "type": "Feature", "properties": { "ID": 127808, "BUSINESS_NAME": "OUR DAILY BREAD MARKET & BAKERY", "FULL_ADDRESS": "9414 FLORIDA BLVD", "CITY": "BATON ROUGE", "STATE": "LOUISIANA", "ZIP": 70815, "PHONE_NUMBER": "225-924-9910", "WEBSITE": "http://ourdailybreadbr.com/", "RESOURCE_TYPE": "RETAIL", "SUB_RESOURCE_TYPE": "GROCERY" }, "geometry": { "type": "Point", "coordinates": [ -91.08342634220881, 30.454348254254825 ] } },
{ "type": "Feature", "properties": { "ID": 141396, "BUSINESS_NAME": "HI NABOR SUPERMARKET", "FULL_ADDRESS": "9620 FLORIDA BLVD, STE 100", "CITY": "BATON ROUGE", "STATE": "LOUISIANA", "ZIP": 70815, "PHONE_NUMBER": null, "WEBSITE": "http://hinabor.com/", "RESOURCE_TYPE": "RETAIL", "SUB_RESOURCE_TYPE": "GROCERY" }, "geometry": { "type": "Point", "coordinates": [ -91.078813302990895, 30.453824544832639 ] } },
{ "type": "Feature", "properties": { "ID": 142056, "BUSINESS_NAME": "SHOPPERS VALUE FOODS", "FULL_ADDRESS": "5932 AIRLINE HWY", "CITY": "BATON ROUGE", "STATE": "LOUISIANA", "ZIP": 70805, "PHONE_NUMBER": "225-355-0025", "WEBSITE": "http://shoppersvaluefoodla.com/", "RESOURCE_TYPE": "RETAIL", "SUB_RESOURCE_TYPE": "GROCERY" }, "geometry": { "type": "Point", "coordinates": [ -91.133162312932086, 30.500899348988217 ] } },
{ "type": "Feature", "properties": { "ID": 142776, "BUSINESS_NAME": "WHOLE FOODS MARKET", "FULL_ADDRESS": "7529 CORPORATE BLVD", "CITY": "BATON ROUGE", "STATE": "LOUISIANA", "ZIP": 70806, "PHONE_NUMBER": "225-218-0452", "WEBSITE": "http://wholefoodsmarket.com/", "RESOURCE_TYPE": "RETAIL", "SUB_RESOURCE_TYPE": "GROCERY" }, "geometry": { "type": "Point", "coordinates": [ -91.111458539360868, 30.432219053371238 ] } },
{ "type": "Feature", "properties": { "ID": 143275, "BUSINESS_NAME": "JIMBOS SEAFOOD MARKET", "FULL_ADDRESS": "5511 JONES CREEK RD", "CITY": "BATON ROUGE", "STATE": "LOUISIANA", "ZIP": 70817, "PHONE_NUMBER": null, "WEBSITE": null, "RESOURCE_TYPE": "FOOD ACCESS", "SUB_RESOURCE_TYPE": "GROCERY" }, "geometry": { "type": "Point", "coordinates": [ -91.016132332236722, 30.403899937362937 ] } },
{ "type": "Feature", "properties": { "ID": 148347, "BUSINESS_NAME": "BOCAGE SUPERMARKET LLC", "FULL_ADDRESS": "7675 JEFFERSON HWY", "CITY": "BATON ROUGE", "STATE": "LOUISIANA", "ZIP": 70809, "PHONE_NUMBER": null, "WEBSITE": null, "RESOURCE_TYPE": "RETAIL", "SUB_RESOURCE_TYPE": "GROCERY" }, "geometry": { "type": "Point", "coordinates": [ -91.107558393139058, 30.429775865217248 ] } },
{ "type": "Feature", "properties": { "ID": 148349, "BUSINESS_NAME": "CALVINS BOCAGE MARKET", "FULL_ADDRESS": "7675 JEFFERSON HWY", "CITY": "BATON ROUGE", "STATE": "LOUISIANA", "ZIP": 70809, "PHONE_NUMBER": "225-927-2051", "WEBSITE": "http://calvinsbocage.com/", "RESOURCE_TYPE": "RETAIL", "SUB_RESOURCE_TYPE": "GROCERY" }, "geometry": { "type": "Point", "coordinates": [ -91.107558393139058, 30.429775865217248 ] } },
{ "type": "Feature", "properties": { "ID": 159265, "BUSINESS_NAME": "MATHERNES MARKET @ 440 ON 3RD", "FULL_ADDRESS": "440 3RD ST, STE 100", "CITY": "BATON ROUGE", "STATE": "LOUISIANA", "ZIP": 70802, "PHONE_NUMBER": null, "WEBSITE": "http://mathernes.com/", "RESOURCE_TYPE": "RETAIL", "SUB_RESOURCE_TYPE": "GROCERY" }, "geometry": { "type": "Point", "coordinates": [ -91.188170878380333, 30.450946487555267 ] } },
{ "type": "Feature", "properties": { "ID": 162753, "BUSINESS_NAME": "SHOPPERS VALUE FOODS", "FULL_ADDRESS": "5908 AIRLINE HWY", "CITY": "BATON ROUGE", "STATE": "LOUISIANA", "ZIP": 70805, "PHONE_NUMBER": "225-355-0025", "WEBSITE": "http://shoppersvaluefoodla.com/", "RESOURCE_TYPE": "RETAIL", "SUB_RESOURCE_TYPE": "GROCERY" }, "geometry": { "type": "Point", "coordinates": [ -91.133447995761969, 30.500505042407713 ] } },
{ "type": "Feature", "properties": { "ID": 163335, "BUSINESS_NAME": "ROBERT FRESH MARKET", "FULL_ADDRESS": "7355 HIGHLAND RD", "CITY": "BATON ROUGE", "STATE": "LOUISIANA", "ZIP": 70808, "PHONE_NUMBER": null, "WEBSITE": "http://robertfreshmarket.com/", "RESOURCE_TYPE": "RETAIL", "SUB_RESOURCE_TYPE": "GROCERY" }, "geometry": { "type": "Point", "coordinates": [ -91.138016633507291, 30.379332739309 ] } },
{ "type": "Feature", "properties": { "ID": 163885, "BUSINESS_NAME": "VINH PHAT ORIENTAL MARKET", "FULL_ADDRESS": "12351 FLORIDA BLVD", "CITY": "BATON ROUGE", "STATE": "LOUISIANA", "ZIP": 70815, "PHONE_NUMBER": "225-273-1175", "WEBSITE": null, "RESOURCE_TYPE": "RETAIL", "SUB_RESOURCE_TYPE": "GROCERY" }, "geometry": { "type": "Point", "coordinates": [ -91.044767747765519, 30.46193146811731 ] } },
{ "type": "Feature", "properties": { "ID": 164193, "BUSINESS_NAME": "HI NABOR SUPER MARKET LLC", "FULL_ADDRESS": "7201 WINBOURNE AVE", "CITY": "BATON ROUGE", "STATE": "LOUISIANA", "ZIP": 70805, "PHONE_NUMBER": null, "WEBSITE": "http://hinabor.com/", "RESOURCE_TYPE": "RETAIL", "SUB_RESOURCE_TYPE": "GROCERY" }, "geometry": { "type": "Point", "coordinates": [ -91.117123554839537, 30.480279426841921 ] } },
{ "type": "Feature", "properties": { "ID": 165753, "BUSINESS_NAME": "WAL MART NEIGHBORHOOD MARKET #4659", "FULL_ADDRESS": "5255 HIGHLAND RD", "CITY": "BATON ROUGE", "STATE": "LOUISIANA", "ZIP": 70808, "PHONE_NUMBER": "225-766-7776", "WEBSITE": "http://walmart.com/", "RESOURCE_TYPE": "RETAIL", "SUB_RESOURCE_TYPE": "GROCERY" }, "geometry": { "type": "Point", "coordinates": [ -91.15992718787102, 30.395250974844139 ] } },
{ "type": "Feature", "properties": { "ID": 165816, "BUSINESS_NAME": "ROUSES MARKET #69", "FULL_ADDRESS": "7580 BLUEBONNET BLVD", "CITY": "BATON ROUGE", "STATE": "LOUISIANA", "ZIP": 70810, "PHONE_NUMBER": null, "WEBSITE": null, "RESOURCE_TYPE": "FOOD ACCESS", "SUB_RESOURCE_TYPE": "GROCERY" }, "geometry": { "type": "Point", "coordinates": [ -91.098522585249654, 30.381615621945272 ] } },
{ "type": "Feature", "properties": { "ID": 165818, "BUSINESS_NAME": "MATHERNES SUPERMARKET", "FULL_ADDRESS": "7580 BLUEBONNET BLVD", "CITY": "BATON ROUGE", "STATE": "LOUISIANA", "ZIP": 70810, "PHONE_NUMBER": "225-767-0074", "WEBSITE": "http://mathernes.com/", "RESOURCE_TYPE": "RETAIL", "SUB_RESOURCE_TYPE": "GROCERY" }, "geometry": { "type": "Point", "coordinates": [ -91.098522585249654, 30.381615621945272 ] } },
{ "type": "Feature", "properties": { "ID": 166216, "BUSINESS_NAME": "SHOPPERS VALUE FOODS", "FULL_ADDRESS": "5355 GOVERNMENT ST, STE B", "CITY": "BATON ROUGE", "STATE": "LOUISIANA", "ZIP": 70806, "PHONE_NUMBER": null, "WEBSITE": null, "RESOURCE_TYPE": "RETAIL", "SUB_RESOURCE_TYPE": "GROCERY" }, "geometry": { "type": "Point", "coordinates": [ -91.135348235381443, 30.446189306698415 ] } },
{ "type": "Feature", "properties": { "ID": 166428, "BUSINESS_NAME": "SHOPPERS VALUE", "FULL_ADDRESS": "5355 GOVERNMENT ST, STE C", "CITY": "BATON ROUGE", "STATE": "LOUISIANA", "ZIP": 70806, "PHONE_NUMBER": "225-925-1522", "WEBSITE": "http://shoppersvaluefoodla.com/", "RESOURCE_TYPE": "RETAIL", "SUB_RESOURCE_TYPE": "GROCERY" }, "geometry": { "type": "Point", "coordinates": [ -91.135125818735332, 30.446204553375299 ] } },
{ "type": "Feature", "properties": { "ID": 168772, "BUSINESS_NAME": "SHOPPERS VALUE FOODS", "FULL_ADDRESS": "280 MAIN ST", "CITY": "BAKER", "STATE": "LOUISIANA", "ZIP": 70714, "PHONE_NUMBER": null, "WEBSITE": null, "RESOURCE_TYPE": "RETAIL", "SUB_RESOURCE_TYPE": "GROCERY" }, "geometry": { "type": "Point", "coordinates": [ -91.168062256458001, 30.577605377650986 ] } },
{ "type": "Feature", "properties": { "ID": 176384, "BUSINESS_NAME": "REEVES SUPERMARKET", "FULL_ADDRESS": "10770 N HARRELL'S FERRY RD", "CITY": "BATON ROUGE", "STATE": "LOUISIANA", "ZIP": 70816, "PHONE_NUMBER": "225-925-5371", "WEBSITE": "http://reevesgrocery.com/", "RESOURCE_TYPE": "RETAIL", "SUB_RESOURCE_TYPE": "GROCERY" }, "geometry": { "type": "Point", "coordinates": [ -91.065685155599013, 30.432905096673871 ] } },
{ "type": "Feature", "properties": { "ID": 177979, "BUSINESS_NAME": "HI NABOR SUPERMARKET INC", "FULL_ADDRESS": "5383 JONES CREEK RD", "CITY": "BATON ROUGE", "STATE": "LOUISIANA", "ZIP": 70817, "PHONE_NUMBER": "225-927-5450", "WEBSITE": "http://hinabor.com/", "RESOURCE_TYPE": "RETAIL", "SUB_RESOURCE_TYPE": "GROCERY" }, "geometry": { "type": "Point", "coordinates": [ -91.015097614789056, 30.40527956936657 ] } },
{ "type": "Feature", "properties": { "ID": 178555, "BUSINESS_NAME": "OLIVE TREES INTERNATIONAL FOOD STORE", "FULL_ADDRESS": "10979 COURSEY BLVD, STE F", "CITY": "BATON ROUGE", "STATE": "LOUISIANA", "ZIP": 70816, "PHONE_NUMBER": "225-291-2935", "WEBSITE": null, "RESOURCE_TYPE": "RETAIL", "SUB_RESOURCE_TYPE": "GROCERY" }, "geometry": { "type": "Point", "coordinates": [ -91.060135264198053, 30.415220573457432 ] } },
{ "type": "Feature", "properties": { "ID": 193181, "BUSINESS_NAME": "ADAM GROCERY", "FULL_ADDRESS": "1455 N ACADIAN THWY E", "CITY": "BATON ROUGE", "STATE": "LOUISIANA", "ZIP": 70802, "PHONE_NUMBER": null, "WEBSITE": null, "RESOURCE_TYPE": "RETAIL", "SUB_RESOURCE_TYPE": "HEALTHY CORNER STORE" }, "geometry": { "type": "Point", "coordinates": [ -91.155479916210467, 30.461492392800658 ] } }
]
}
