{
"type": "FeatureCollection",
"name": "Grocery_with_Pharmacy",
"crs": { "type": "name", "properties": { "name": "urn:ogc:def:crs:OGC:1.3:CRS84" } },
"features": [
{ "type": "Feature", "properties": { "ID": 20300, "BUSINESS_NAME": "WAL MART SUPERCENTER #839", "FULL_ADDRESS": "9350 CORTANA PL", "CITY": "BATON ROUGE", "STATE": "LOUISIANA", "ZIP": 70815, "PHONE_NUMBER": "225-923-3400", "WEBSITE": "http://walmart.com/", "RESOURCE_TYPE": "RETAIL", "SUB_RESOURCE_TYPE": "GROCERY/PHARMACY" }, "geometry": { "type": "Point", "coordinates": [ -91.090682160089543, 30.462099373477134 ] } },
{ "type": "Feature", "properties": { "ID": 24261, "BUSINESS_NAME": "WINN DIXIE #1577", "FULL_ADDRESS": "13002 COURSEY BLVD", "CITY": "BATON ROUGE", "STATE": "LOUISIANA", "ZIP": 70817, "PHONE_NUMBER": "225-756-7102", "WEBSITE": "https://winndixie.com", "RESOURCE_TYPE": "RETAIL", "SUB_RESOURCE_TYPE": "GROCERY/PHARMACY" }, "geometry": { "type": "Point", "coordinates": [ -91.034701296516317, 30.408518430471812 ] } },
{ "type": "Feature", "properties": { "ID": 28276, "BUSINESS_NAME": "ALBERTSON # 3747", "FULL_ADDRESS": "9650 AIRLINE HWY", "CITY": "BATON ROUGE", "STATE": "LOUISIANA", "ZIP": 70815, "PHONE_NUMBER": "225-768-7775", "WEBSITE": "http://albertsons.com/", "RESOURCE_TYPE": "RETAIL", "SUB_RESOURCE_TYPE": "GROCERY/PHARMACY" }, "geometry": { "type": "Point", "coordinates": [ -91.082940204519602, 30.432298428294999 ] } },
{ "type": "Feature", "properties": { "ID": 28279, "BUSINESS_NAME": "ALBERTSONS #2712", "FULL_ADDRESS": "9650 AIRLINE HWY", "CITY": "BATON ROUGE", "STATE": "LOUISIANA", "ZIP": 70815, "PHONE_NUMBER": "225-926-9304", "WEBSITE": "http://albertsons.com/", "RESOURCE_TYPE": "RETAIL", "SUB_RESOURCE_TYPE": "GROCERY/PHARMACY" }, "geometry": { "type": "Point", "coordinates": [ -91.082940204519602, 30.432298428294999 ] } },
{ "type": "Feature", "properties": { "ID": 30975, "BUSINESS_NAME": "WALMART SUPER CENTER", "FULL_ADDRESS": "3132 COLLEGE DR", "CITY": "BATON ROUGE", "STATE": "LOUISIANA", "ZIP": 70808, "PHONE_NUMBER": null, "WEBSITE": "http://walmart.com/", "RESOURCE_TYPE": "RETAIL", "SUB_RESOURCE_TYPE": "GROCERY/PHARMACY" }, "geometry": { "type": "Point", "coordinates": [ -91.142424531321282, 30.420577502744408 ] } },
{ "type": "Feature", "properties": { "ID": 31652, "BUSINESS_NAME": "ALBERTSON # 3747", "FULL_ADDRESS": "2950 COLLEGE DR", "CITY": "BATON ROUGE", "STATE": "LOUISIANA", "ZIP": 70808, "PHONE_NUMBER": "225-768-7775", "WEBSITE": "http://albertsons.com/", "RESOURCE_TYPE": "RETAIL", "SUB_RESOURCE_TYPE": "GROCERY/PHARMACY" }, "geometry": { "type": "Point", "coordinates": [ -91.141056387676144, 30.421923902953793 ] } },
{ "type": "Feature", "properties": { "ID": 31957, "BUSINESS_NAME": "ALBERTSONS #3750", "FULL_ADDRESS": "4857 GOVERNMENT ST", "CITY": "BATON ROUGE", "STATE": "LOUISIANA", "ZIP": 70806, "PHONE_NUMBER": "225-216-7226", "WEBSITE": "http://albertsons.com/", "RESOURCE_TYPE": "RETAIL", "SUB_RESOURCE_TYPE": "GROCERY/PHARMACY" }, "geometry": { "type": "Point", "coordinates": [ -91.140187378265765, 30.445040604637637 ] } },
{ "type": "Feature", "properties": { "ID": 33912, "BUSINESS_NAME": "ALBERTSON # 3747", "FULL_ADDRESS": "9960 BLUEBONNET BLVD", "CITY": "BATON ROUGE", "STATE": "LOUISIANA", "ZIP": 70810, "PHONE_NUMBER": "225-768-7775", "WEBSITE": "http://albertsons.com/", "RESOURCE_TYPE": "RETAIL", "SUB_RESOURCE_TYPE": "GROCERY/PHARMACY" }, "geometry": { "type": "Point", "coordinates": [ -91.110824337593186, 30.355634073912874 ] } },
{ "type": "Feature", "properties": { "ID": 36659, "BUSINESS_NAME": "ALBERTSON # 3747", "FULL_ADDRESS": "15128 AIRLINE HWY", "CITY": "BATON ROUGE", "STATE": "LOUISIANA", "ZIP": 70809, "PHONE_NUMBER": "225-768-7775", "WEBSITE": "http://albertsons.com/", "RESOURCE_TYPE": "RETAIL", "SUB_RESOURCE_TYPE": "GROCERY/PHARMACY" }, "geometry": { "type": "Point", "coordinates": [ -91.008574468886025, 30.357553711393852 ] } },
{ "type": "Feature", "properties": { "ID": 36660, "BUSINESS_NAME": "ALBERTSON #3792", "FULL_ADDRESS": "15138 AIRLINE HWY", "CITY": "BATON ROUGE", "STATE": "LOUISIANA", "ZIP": 70809, "PHONE_NUMBER": "225-768-7775", "WEBSITE": "http://albertsons.com/", "RESOURCE_TYPE": "RETAIL", "SUB_RESOURCE_TYPE": "GROCERY/PHARMACY" }, "geometry": { "type": "Point", "coordinates": [ -91.007174244985308, 30.357871531570833 ] } },
{ "type": "Feature", "properties": { "ID": 37485, "BUSINESS_NAME": "ALBERTSON #3792", "FULL_ADDRESS": "9990 BLUEBONNET BLVD", "CITY": "BATON ROUGE", "STATE": "LOUISIANA", "ZIP": 70810, "PHONE_NUMBER": "225-768-7775", "WEBSITE": "http://albertsons.com/", "RESOURCE_TYPE": "RETAIL", "SUB_RESOURCE_TYPE": "GROCERY/PHARMACY" }, "geometry": { "type": "Point", "coordinates": [ -91.110492816167223, 30.354948818210019 ] } },
{ "type": "Feature", "properties": { "ID": 40934, "BUSINESS_NAME": "ALBERTSONS #1311", "FULL_ADDRESS": "7515 PERKINS RD", "CITY": "BATON ROUGE", "STATE": "LOUISIANA", "ZIP": 70808, "PHONE_NUMBER": "225-769-6100", "WEBSITE": "http://albertsons.com/", "RESOURCE_TYPE": "RETAIL", "SUB_RESOURCE_TYPE": "GROCERY/PHARMACY" }, "geometry": { "type": "Point", "coordinates": [ -91.110030685902586, 30.396623124563742 ] } },
{ "type": "Feature", "properties": { "ID": 42635, "BUSINESS_NAME": "WAL MART SUPERCENTER #1266", "FULL_ADDRESS": "2171 O'NEAL LN", "CITY": "BATON ROUGE", "STATE": "LOUISIANA", "ZIP": 70816, "PHONE_NUMBER": "225-751-3505", "WEBSITE": "http://walmart.com/", "RESOURCE_TYPE": "RETAIL", "SUB_RESOURCE_TYPE": "GROCERY/PHARMACY" }, "geometry": { "type": "Point", "coordinates": [ -91.005305200039459, 30.437612642794413 ] } },
{ "type": "Feature", "properties": { "ID": 43876, "BUSINESS_NAME": "SAMS CLUB #6527", "FULL_ADDRESS": "10444 N MALL DR", "CITY": "BATON ROUGE", "STATE": "LOUISIANA", "ZIP": 70809, "PHONE_NUMBER": "225-295-1353", "WEBSITE": "http://samsclub.com/", "RESOURCE_TYPE": "RETAIL", "SUB_RESOURCE_TYPE": "GROCERY/PHARMACY" }, "geometry": { "type": "Point", "coordinates": [ -91.063595971480638, 30.378377280055027 ] } },
{ "type": "Feature", "properties": { "ID": 45291, "BUSINESS_NAME": "WINN DIXIE #1461", "FULL_ADDRESS": "8601 SIEGEN LN", "CITY": "BATON ROUGE", "STATE": "LOUISIANA", "ZIP": 70810, "PHONE_NUMBER": "225-766-8400", "WEBSITE": "https://winndixie.com", "RESOURCE_TYPE": "RETAIL", "SUB_RESOURCE_TYPE": "GROCERY/PHARMACY" }, "geometry": { "type": "Point", "coordinates": [ -91.071991284271604, 30.370497419843268 ] } },
{ "type": "Feature", "properties": { "ID": 143992, "BUSINESS_NAME": "WAL MART NEIGHBORHOOD MARKET #5327", "FULL_ADDRESS": "9830 OLD HAMMOND HWY", "CITY": "BATON ROUGE", "STATE": "LOUISIANA", "ZIP": 70816, "PHONE_NUMBER": "225-248-1616", "WEBSITE": "http://walmart.com/", "RESOURCE_TYPE": "RETAIL", "SUB_RESOURCE_TYPE": "GROCERY/PHARMACY" }, "geometry": { "type": "Point", "coordinates": [ -91.077884386865946, 30.431012596169495 ] } },
{ "type": "Feature", "properties": { "ID": 162571, "BUSINESS_NAME": "WAL MART NEIGHBORHOOD MARKET #4659", "FULL_ADDRESS": "5255 HIGHLAND RD", "CITY": "BATON ROUGE", "STATE": "LOUISIANA", "ZIP": 70808, "PHONE_NUMBER": "225-766-7776", "WEBSITE": "http://walmart.com/", "RESOURCE_TYPE": "RETAIL", "SUB_RESOURCE_TYPE": "GROCERY/PHARMACY" }, "geometry": { "type": "Point", "coordinates": [ -91.15992718787102, 30.395250974844139 ] } },
{ "type": "Feature", "properties": { "ID": 163021, "BUSINESS_NAME": "ALBERTSON # 3747", "FULL_ADDRESS": "15232 GEORGE O'NEAL RD", "CITY": "BATON ROUGE", "STATE": "LOUISIANA", "ZIP": 70817, "PHONE_NUMBER": "225-768-7775", "WEBSITE": "http://albertsons.com/", "RESOURCE_TYPE": "RETAIL", "SUB_RESOURCE_TYPE": "GROCERY/PHARMACY" }, "geometry": { "type": "Point", "coordinates": [ -91.015027862388735, 30.406403117221483 ] } },
{ "type": "Feature", "properties": { "ID": 163022, "BUSINESS_NAME": "ALBERTSONS FOOD CENTER #2713", "FULL_ADDRESS": "15232 GEORGE O'NEAL RD", "CITY": "BATON ROUGE", "STATE": "LOUISIANA", "ZIP": 70817, "PHONE_NUMBER": "225-753-0700", "WEBSITE": "http://albertsons.com/", "RESOURCE_TYPE": "RETAIL", "SUB_RESOURCE_TYPE": "GROCERY/PHARMACY" }, "geometry": { "type": "Point", "coordinates": [ -91.015027862388735, 30.406403117221483 ] } },
{ "type": "Feature", "properties": { "ID": 166963, "BUSINESS_NAME": "WAL MART NEIGHBORHOOD MKT 5328", "FULL_ADDRESS": "14241 COURSEY BLVD", "CITY": "BATON ROUGE", "STATE": "LOUISIANA", "ZIP": 70817, "PHONE_NUMBER": "225-752-5354", "WEBSITE": "http://walmart.com/", "RESOURCE_TYPE": "RETAIL", "SUB_RESOURCE_TYPE": "GROCERY/PHARMACY" }, "geometry": { "type": "Point", "coordinates": [ -91.020666173009573, 30.409367581999117 ] } },
{ "type": "Feature", "properties": { "ID": 189922, "BUSINESS_NAME": "WINN-DIXIE #1581", "FULL_ADDRESS": "5005 CHURCH ST", "CITY": "ZACHARY", "STATE": "LOUISIANA", "ZIP": 70791, "PHONE_NUMBER": null, "WEBSITE": "https://winndixie.com", "RESOURCE_TYPE": "RETAIL", "SUB_RESOURCE_TYPE": "GROCERY/PHARMACY" }, "geometry": { "type": "Point", "coordinates": [ -91.15101873496566, 30.650475152520499 ] } },
{ "type": "Feature", "properties": { "ID": 201155, "BUSINESS_NAME": "WALMART SUPERCENTER #4683", "FULL_ADDRESS": "10550 BURBANK DR", "CITY": "BATON ROUGE", "STATE": "LOUISIANA", "ZIP": 70810, "PHONE_NUMBER": null, "WEBSITE": "http://walmart.com/", "RESOURCE_TYPE": "RETAIL", "SUB_RESOURCE_TYPE": "GROCERY/PHARMACY" }, "geometry": { "type": "Point", "coordinates": [ -91.109746157947043, 30.352314948783288 ] } }
]
}
