{
"type": "FeatureCollection",
"name": "Industrial_Area",
"crs": { "type": "name", "properties": { "name": "urn:ogc:def:crs:OGC:1.3:CRS84" } },
"features": [
{ "type": "Feature", "properties": { "ID": 1, "INDUSTRIAL_AREA_NO": "INDUSTRIAL - 4", "AREA_SQ_MILES": 0.16 }, "geometry": { "type": "Polygon", "coordinates": [ [ [ -91.184249483448525, 30.558955715431988 ], [ -91.1806409816908, 30.556475322679042 ], [ -91.180537621745827, 30.556514045673904 ], [ -91.18040231147701, 30.556575247734155 ], [ -91.18025519570611, 30.55665609977326 ], [ -91.178046457898319, 30.557811857721774 ], [ -91.176929108936051, 30.558403861451808 ], [ -91.176676372845463, 30.558547050626121 ], [ -91.176569933307434, 30.558712343201496 ], [ -91.176508685029404, 30.558777390451908 ], [ -91.176381416191916, 30.558892479946358 ], [ -91.176508607931112, 30.562385292416835 ], [ -91.176530813598731, 30.562886940002954 ], [ -91.176520273194598, 30.563284329814135 ], [ -91.178467720497878, 30.563266992329925 ], [ -91.178467410960721, 30.563240930023088 ], [ -91.178662569432689, 30.563239191665222 ], [ -91.178652144541672, 30.5623631554169 ], [ -91.179690987037745, 30.562353440192062 ], [ -91.182207526809535, 30.562329873823906 ], [ -91.184589067988497, 30.562307524264384 ], [ -91.184613631306433, 30.561434694668741 ], [ -91.184624499904544, 30.560574968825925 ], [ -91.184492119130368, 30.559376187727 ], [ -91.184487025057251, 30.559332540007741 ], [ -91.184483110248578, 30.559310864801255 ], [ -91.184478290486126, 30.559289325688425 ], [ -91.184472571979711, 30.559267952443793 ], [ -91.184465961984287, 30.559246773038886 ], [ -91.18445846984082, 30.559225814545471 ], [ -91.184450104888839, 30.559205104937497 ], [ -91.184440877512969, 30.559184670385775 ], [ -91.184430801220685, 30.559164539770958 ], [ -91.1844198874402, 30.559144738363027 ], [ -91.184408152811315, 30.559125291437795 ], [ -91.184395610844206, 30.559106226071744 ], [ -91.184382278181246, 30.559087565736615 ], [ -91.184368173545536, 30.559069336612644 ], [ -91.184353314621802, 30.55905156217278 ], [ -91.184337721180668, 30.559034264990117 ], [ -91.184321412992844, 30.559017467638036 ], [ -91.184304412954617, 30.559001193595186 ], [ -91.184286741882815, 30.558985462729765 ], [ -91.184268424759765, 30.558970297620956 ], [ -91.184249483448525, 30.558955715431988 ] ] ] } },
{ "type": "Feature", "properties": { "ID": 2, "INDUSTRIAL_AREA_NO": "INDUSTRIAL - 4", "AREA_SQ_MILES": 0.84 }, "geometry": { "type": "Polygon", "coordinates": [ [ [ -91.184852616470778, 30.562867661235607 ], [ -91.184553876960763, 30.562867854510067 ], [ -91.184552115239782, 30.562876259610032 ], [ -91.184534980789209, 30.563609014661896 ], [ -91.184416734882063, 30.567168909831263 ], [ -91.185803520950799, 30.567449380106005 ], [ -91.186079798432445, 30.567508905121226 ], [ -91.186236584558856, 30.567539850864552 ], [ -91.186315625346651, 30.567552633132049 ], [ -91.186587651663999, 30.567588708196418 ], [ -91.186793937750167, 30.56760484421476 ], [ -91.186954502653876, 30.567611344240785 ], [ -91.19289218326476, 30.567625700068849 ], [ -91.193500340598789, 30.56636922190032 ], [ -91.195506193347214, 30.565978337677631 ], [ -91.195716531517917, 30.565937341050944 ], [ -91.196142264380839, 30.56585436429242 ], [ -91.196459792553256, 30.565792476055591 ], [ -91.196778335911304, 30.56573038604499 ], [ -91.197098910014432, 30.565667905868541 ], [ -91.197415423501781, 30.565606213645943 ], [ -91.197733966701747, 30.565544124039942 ], [ -91.198052508459142, 30.565482034567488 ], [ -91.198374814941701, 30.565419208486926 ], [ -91.198689592862024, 30.565357853322006 ], [ -91.199008133423902, 30.56529576064489 ], [ -91.199326674630456, 30.565233666299228 ], [ -91.199636601891385, 30.565173251120267 ], [ -91.19996376105513, 30.565109478016765 ], [ -91.20027601374467, 30.565048607246258 ], [ -91.200600834415141, 30.564985288456739 ], [ -91.200919372389379, 30.564923336403741 ], [ -91.201237909104705, 30.564861247373408 ], [ -91.201556448549468, 30.56479915667661 ], [ -91.201817487649336, 30.564748272871682 ], [ -91.201922767792681, 30.564727751200316 ], [ -91.202193526242283, 30.564674972980487 ], [ -91.20363741768972, 30.564393506090202 ], [ -91.204062923536739, 30.564310555934338 ], [ -91.199530843973434, 30.555899305697562 ], [ -91.198244301573013, 30.553636784328564 ], [ -91.198132336405664, 30.553370920775006 ], [ -91.197969671386204, 30.553099730992873 ], [ -91.197815426313127, 30.552842575579469 ], [ -91.197377162551334, 30.552111762501365 ], [ -91.196462232154687, 30.552343827495086 ], [ -91.195520986558734, 30.552584040358969 ], [ -91.194578139218123, 30.552820080074248 ], [ -91.193759693834338, 30.553034983848072 ], [ -91.189743601848193, 30.554135935699364 ], [ -91.187681758199957, 30.554704955183535 ], [ -91.186532067268033, 30.555021208671398 ], [ -91.185956032682981, 30.555175281941484 ], [ -91.181105091478756, 30.556335364748268 ], [ -91.181081065069719, 30.556496354685478 ], [ -91.182407896962559, 30.557408330655758 ], [ -91.182636605849709, 30.557565526889643 ], [ -91.186445721032143, 30.55660690185158 ], [ -91.187277699861355, 30.559039119211633 ], [ -91.185217437059094, 30.55956692189466 ], [ -91.184721559427558, 30.559221662993284 ], [ -91.184736762066024, 30.559289057643998 ], [ -91.184744888011991, 30.559353148266226 ], [ -91.184864079916792, 30.560381970319519 ], [ -91.184878819561192, 30.560569432388501 ], [ -91.18487503724424, 30.560755073191697 ], [ -91.184873728268272, 30.560878158845291 ], [ -91.186998843940842, 30.560862485327036 ], [ -91.187103273327622, 30.560930451822394 ], [ -91.187221737258938, 30.561007552521023 ], [ -91.187757091683082, 30.56135597715669 ], [ -91.187967155458452, 30.561492693143474 ], [ -91.188316130619228, 30.561719882108736 ], [ -91.188886632091311, 30.562091170492785 ], [ -91.18901985114411, 30.562177800440974 ], [ -91.189025580839825, 30.562181529434717 ], [ -91.189127156483437, 30.562247635680446 ], [ -91.189228729136673, 30.562313740941342 ], [ -91.189330301925338, 30.562379846122909 ], [ -91.189431877976531, 30.562445951228533 ], [ -91.189533454163154, 30.562512056254842 ], [ -91.189635027362016, 30.562578158492279 ], [ -91.189736603819497, 30.562644263359868 ], [ -91.189838180411101, 30.562710369050222 ], [ -91.189939757139371, 30.562776473759143 ], [ -91.190041327752851, 30.56284257567588 ], [ -91.190142904748129, 30.56290868293225 ], [ -91.190244481882701, 30.562974787403192 ], [ -91.190346056029512, 30.563040889085293 ], [ -91.190447634477394, 30.563106993398652 ], [ -91.191188784243209, 30.56358931727517 ], [ -91.190218577329063, 30.563685024868285 ], [ -91.190022652039644, 30.563662971705568 ], [ -91.189506280946446, 30.563604846814297 ], [ -91.189359718402073, 30.563588346959612 ], [ -91.189213156943609, 30.563571850551998 ], [ -91.189066597622585, 30.563555351278143 ], [ -91.188920032092128, 30.563538854541346 ], [ -91.188773473912377, 30.563522354041996 ], [ -91.188626911606605, 30.563505856983983 ], [ -91.188480347268765, 30.563489357055257 ], [ -91.188333788191642, 30.563472856969884 ], [ -91.188265806991538, 30.563463618615344 ], [ -91.188063126718134, 30.563442387739414 ], [ -91.18760327351626, 30.563328451840103 ], [ -91.187444261811834, 30.563289053033259 ], [ -91.186887715586593, 30.563151156145825 ], [ -91.18674307041087, 30.563115367039721 ], [ -91.186613696972955, 30.563083286776248 ], [ -91.186484322577655, 30.563051205482857 ], [ -91.186347993944679, 30.563017425004961 ], [ -91.186182358151427, 30.562976435133873 ], [ -91.186004814653529, 30.562932443324435 ], [ -91.185830787077677, 30.562889270643332 ], [ -91.18572188415061, 30.562862287224277 ], [ -91.185686094768784, 30.562862545899954 ], [ -91.185546987147347, 30.562863399204407 ], [ -91.185427901991432, 30.562864631939895 ], [ -91.184852616470778, 30.562867661235607 ] ] ] } },
{ "type": "Feature", "properties": { "ID": 3, "INDUSTRIAL_AREA_NO": "INDUSTRIAL - 5", "AREA_SQ_MILES": 3.34 }, "geometry": { "type": "Polygon", "coordinates": [ [ [ -91.285927055714865, 30.673635671764011 ], [ -91.285953610443173, 30.673586131013728 ], [ -91.285965237430048, 30.673555917754985 ], [ -91.285975532339464, 30.673526773805698 ], [ -91.285980742178424, 30.673499578189773 ], [ -91.285992073264666, 30.673389756815777 ], [ -91.285992130676263, 30.67326964305704 ], [ -91.285973054758514, 30.673042735002205 ], [ -91.285953772826232, 30.672766751954718 ], [ -91.285942249973985, 30.672461743078262 ], [ -91.28594231824043, 30.672284172874633 ], [ -91.2859658163718, 30.671682020936043 ], [ -91.285965892819675, 30.671522166221443 ], [ -91.28596399919013, 30.671445045234996 ], [ -91.28613893044502, 30.671443275640826 ], [ -91.289302897679534, 30.671459336831401 ], [ -91.289683608484694, 30.667632025829221 ], [ -91.289807609450833, 30.667389516763688 ], [ -91.291409680298898, 30.664256213511106 ], [ -91.292341044579388, 30.662907643387239 ], [ -91.292443937116062, 30.662758658551322 ], [ -91.29260722581499, 30.662041644043779 ], [ -91.292616650803524, 30.661669049343296 ], [ -91.292667841015231, 30.659645428953965 ], [ -91.292648537687256, 30.658249438917956 ], [ -91.292767163885514, 30.657851764115332 ], [ -91.292885789131404, 30.657454089150651 ], [ -91.293044636631151, 30.656924777681574 ], [ -91.293137364973873, 30.656615784484785 ], [ -91.293610251773472, 30.65504140407764 ], [ -91.294916440859453, 30.653117069091913 ], [ -91.295188481196263, 30.652739796159462 ], [ -91.295777898076125, 30.651922031579829 ], [ -91.29659876564476, 30.650783509003816 ], [ -91.296665578382061, 30.650694173440677 ], [ -91.297663752912541, 30.64955413312796 ], [ -91.295842519618475, 30.649201738880958 ], [ -91.282958006959163, 30.648029047396289 ], [ -91.282798552488785, 30.64801595610178 ], [ -91.269291298367548, 30.647325205796857 ], [ -91.260171821945661, 30.646883150307293 ], [ -91.256703992158052, 30.646854552963397 ], [ -91.256762759767312, 30.639278187528721 ], [ -91.256767382993303, 30.638703308073598 ], [ -91.256781790913834, 30.636909426347529 ], [ -91.25321692023816, 30.636836658970662 ], [ -91.253208078772531, 30.637111030429107 ], [ -91.253172563521176, 30.638192704330496 ], [ -91.253155801344661, 30.63848727980319 ], [ -91.253141718679487, 30.638673966724305 ], [ -91.252980221626785, 30.639068935370911 ], [ -91.252798123202851, 30.639047224974593 ], [ -91.246733217769943, 30.638657680641618 ], [ -91.245711282813119, 30.639419104207715 ], [ -91.244602350424046, 30.639350521544806 ], [ -91.245360495889528, 30.640795035397581 ], [ -91.246675138145108, 30.643292451178617 ], [ -91.247747394356338, 30.645326184431124 ], [ -91.248222650510542, 30.646227560276717 ], [ -91.249459096657461, 30.646238610861314 ], [ -91.249254489736828, 30.646679593927487 ], [ -91.249187054214104, 30.646786819477271 ], [ -91.248491396464544, 30.646777585763314 ], [ -91.248566385635883, 30.646923105392236 ], [ -91.248779020837063, 30.647329270635108 ], [ -91.259935159701726, 30.647421842541473 ], [ -91.269280470020959, 30.647472500558685 ], [ -91.268667859109982, 30.653917470608921 ], [ -91.251578825156457, 30.652676841971044 ], [ -91.252203387341851, 30.653824274633539 ], [ -91.252300547309844, 30.653939717612875 ], [ -91.259028581355253, 30.666761709306286 ], [ -91.26410227862128, 30.66678134831119 ], [ -91.269287908959797, 30.666876568665877 ], [ -91.269286231765676, 30.66682867358719 ], [ -91.269605906483704, 30.665070468730509 ], [ -91.272081423421966, 30.665384515033377 ], [ -91.273267745826359, 30.66553638897275 ], [ -91.275023838594961, 30.665760018596352 ], [ -91.2762737436762, 30.665897823935587 ], [ -91.277022099510091, 30.665980325632511 ], [ -91.276941602198022, 30.66821174532976 ], [ -91.276920283044745, 30.668803006448435 ], [ -91.276816694695498, 30.671675837314314 ], [ -91.277066319188492, 30.671669546428106 ], [ -91.277102225856524, 30.675106566425669 ], [ -91.280274391131201, 30.674884946281171 ], [ -91.281403627091578, 30.674500879254076 ], [ -91.281979915929952, 30.674426678733155 ], [ -91.282293381897162, 30.674386316588425 ], [ -91.285839172099003, 30.673636972579057 ], [ -91.285853637876571, 30.67363440251577 ], [ -91.285860943123367, 30.673633467941208 ], [ -91.285868283738438, 30.673632767000111 ], [ -91.28587564928479, 30.673632303296777 ], [ -91.285883029327493, 30.673632075925525 ], [ -91.285890414474594, 30.673632084882851 ], [ -91.285897794290392, 30.673632331067083 ], [ -91.285905158339958, 30.673632813572514 ], [ -91.285912497231863, 30.673633531493742 ], [ -91.285919799487161, 30.673634484826707 ], [ -91.285927055714865, 30.673635671764011 ] ] ] } },
{ "type": "Feature", "properties": { "ID": 4, "INDUSTRIAL_AREA_NO": "INDUSTRIAL - 6", "AREA_SQ_MILES": 0.82 }, "geometry": { "type": "Polygon", "coordinates": [ [ [ -91.213762041617855, 30.563594683812852 ], [ -91.213665308121463, 30.563621590172875 ], [ -91.213616516978675, 30.563633850888007 ], [ -91.213570162522714, 30.563649031007827 ], [ -91.213546546709054, 30.563655539561992 ], [ -91.213522676393012, 30.563661315419786 ], [ -91.213498583898911, 30.563666350491818 ], [ -91.213168400919045, 30.563735128193521 ], [ -91.20573779217888, 30.56528269844701 ], [ -91.205838485439443, 30.565473824468221 ], [ -91.208070654936321, 30.56972176954854 ], [ -91.209306033407216, 30.572073064232661 ], [ -91.20939836477524, 30.572248670433314 ], [ -91.210100388001138, 30.573584825109158 ], [ -91.210922356385382, 30.575149221259775 ], [ -91.211005888978221, 30.575250889265529 ], [ -91.21107748292259, 30.575328891914513 ], [ -91.211172964594638, 30.575414869875001 ], [ -91.211330938069921, 30.575507266558095 ], [ -91.211538564244464, 30.575583803898894 ], [ -91.211885906176917, 30.575650925497182 ], [ -91.212128517633431, 30.575679777711134 ], [ -91.213413241283007, 30.575843182450484 ], [ -91.214378335191981, 30.575965512946347 ], [ -91.215389042634854, 30.576093081821526 ], [ -91.216023323043103, 30.576173419168317 ], [ -91.2173447783303, 30.576339237541415 ], [ -91.21855583460578, 30.57649284797985 ], [ -91.21983818655346, 30.576655488288306 ], [ -91.221010029139279, 30.576804102161486 ], [ -91.221871714907095, 30.576893014796688 ], [ -91.222008335650898, 30.576884706438019 ], [ -91.222076304980661, 30.576877414614906 ], [ -91.222143933643906, 30.576868041458415 ], [ -91.222211134050397, 30.576856599524053 ], [ -91.222277824862999, 30.576843103177094 ], [ -91.222343919530303, 30.576827568582402 ], [ -91.222409335665915, 30.576810016418836 ], [ -91.222473992966712, 30.57679046917125 ], [ -91.222537806959735, 30.576768949321089 ], [ -91.22260069942034, 30.576745485669527 ], [ -91.222662591081573, 30.576720107016907 ], [ -91.222723403716202, 30.576692844870731 ], [ -91.222783060134901, 30.576663735249792 ], [ -91.222841487319613, 30.576632813274305 ], [ -91.222898609121103, 30.57660011767015 ], [ -91.222954355642514, 30.576565689874769 ], [ -91.223008656984348, 30.5765295740316 ], [ -91.22306144324638, 30.576491815186358 ], [ -91.223112649739434, 30.576452460193156 ], [ -91.223162210729086, 30.576411558611412 ], [ -91.223210063605876, 30.576369162709383 ], [ -91.223256149930663, 30.576325324758745 ], [ -91.223300410218243, 30.576280100638524 ], [ -91.223342790195403, 30.576233547134077 ], [ -91.223383234544599, 30.576185722834087 ], [ -91.223421694201889, 30.576136688136319 ], [ -91.223458120103572, 30.576086503438692 ], [ -91.223492467352443, 30.576035232750613 ], [ -91.223524691050471, 30.575982940983394 ], [ -91.223554751512637, 30.575929693052963 ], [ -91.223582611136152, 30.57587555658256 ], [ -91.22360823440259, 30.575820600099537 ], [ -91.223631589964882, 30.575764891232264 ], [ -91.223652647515522, 30.575708500316296 ], [ -91.223671380915576, 30.575651499494331 ], [ -91.223687767154487, 30.575593960009826 ], [ -91.223701784263767, 30.575535954008753 ], [ -91.223713415487296, 30.575477553641484 ], [ -91.223779199349494, 30.575108252080359 ], [ -91.224029114808502, 30.573705239871231 ], [ -91.224059498355373, 30.573433640659612 ], [ -91.224070659322223, 30.573282203043501 ], [ -91.224229082338482, 30.573294104428122 ], [ -91.224257258386586, 30.573296263678287 ], [ -91.22426520062767, 30.573115680157702 ], [ -91.224313162419577, 30.572880387243043 ], [ -91.224326045052848, 30.572817190732554 ], [ -91.224345007782873, 30.569262666120888 ], [ -91.22376993290834, 30.567340837979238 ], [ -91.221582916871654, 30.563957585407053 ], [ -91.221203554705298, 30.563370719734536 ], [ -91.221099176975642, 30.563209357984004 ], [ -91.220640926378053, 30.56273708284138 ], [ -91.220534274752723, 30.563338098864349 ], [ -91.220497754185331, 30.563543910286121 ], [ -91.220383105191104, 30.564190201947913 ], [ -91.218732857421173, 30.561517304617261 ], [ -91.218593558159995, 30.561387515591338 ], [ -91.218461738889971, 30.561324617003852 ], [ -91.218393983912961, 30.561296233019387 ], [ -91.218325110179364, 30.561269941680049 ], [ -91.218255205206304, 30.561245775533916 ], [ -91.218184356513618, 30.561223764423122 ], [ -91.218112652666392, 30.561203935484613 ], [ -91.218040182230453, 30.561186314953577 ], [ -91.217967036903715, 30.561170924557828 ], [ -91.217893308388128, 30.561157782417155 ], [ -91.217819089428843, 30.561146905750469 ], [ -91.217744471732644, 30.561138308167724 ], [ -91.217669549095177, 30.5611319996727 ], [ -91.217594415311979, 30.561127990269483 ], [ -91.217519165229234, 30.561126282746667 ], [ -91.217443892650763, 30.561126879892452 ], [ -91.217368691383584, 30.561129781788935 ], [ -91.217293655241065, 30.561134983106069 ], [ -91.217218879077805, 30.5611424794172 ], [ -91.21714445567126, 30.561152259979526 ], [ -91.217070479884796, 30.561164313150311 ], [ -91.216997042417731, 30.561178622773149 ], [ -91.218348557997061, 30.560738748140562 ], [ -91.21822735654662, 30.560612626800406 ], [ -91.214275374061259, 30.561928232230606 ], [ -91.214042286032921, 30.561976788016004 ], [ -91.214038959176605, 30.563084664683753 ], [ -91.214038955558507, 30.563085939272611 ], [ -91.214019832855442, 30.563135523793054 ], [ -91.214000711175672, 30.563185108310908 ], [ -91.213968266911934, 30.563269238227797 ], [ -91.213935822593143, 30.563353368134479 ], [ -91.213762041617855, 30.563594683812852 ] ] ] } },
{ "type": "Feature", "properties": { "ID": 5, "INDUSTRIAL_AREA_NO": "INDUSTRIAL - 3", "AREA_SQ_MILES": 0.59 }, "geometry": { "type": "Polygon", "coordinates": [ [ [ -91.217195972482699, 30.559857948133111 ], [ -91.217245045854213, 30.559842151208443 ], [ -91.217269075160146, 30.559833149992237 ], [ -91.217292725890715, 30.559823428605718 ], [ -91.217315969890606, 30.559812996946999 ], [ -91.217338777955845, 30.55980187032549 ], [ -91.21736112401382, 30.559790060445263 ], [ -91.217382979903007, 30.55977758261665 ], [ -91.217404318504279, 30.559764452150887 ], [ -91.217425113741982, 30.559750683458262 ], [ -91.217445340577484, 30.559736295460088 ], [ -91.217464975016867, 30.559721305274476 ], [ -91.217483992023645, 30.559705730018731 ], [ -91.217502368643139, 30.559689589518023 ], [ -91.217520082962892, 30.559672903598571 ], [ -91.217537113069625, 30.559655692988553 ], [ -91.217553438093304, 30.559637977515006 ], [ -91.217569038204374, 30.55961977880996 ], [ -91.217583894613426, 30.559601120310518 ], [ -91.217597988532162, 30.559582024551684 ], [ -91.217611303257129, 30.559562514070343 ], [ -91.217623822082672, 30.559542613207295 ], [ -91.21763553038906, 30.55952234540338 ], [ -91.217646413553283, 30.559501736805256 ], [ -91.217656457996952, 30.559480811756675 ], [ -91.217784359080341, 30.55914043373161 ], [ -91.217828243658829, 30.558752905296384 ], [ -91.215359145548689, 30.556255146430956 ], [ -91.214619469111398, 30.556418389370148 ], [ -91.212935037698529, 30.554557617230934 ], [ -91.211923359370005, 30.553439983210346 ], [ -91.212467190336923, 30.553329398778185 ], [ -91.210713817837288, 30.551555419870365 ], [ -91.211481255298452, 30.551027338416294 ], [ -91.210886628255125, 30.550459052801891 ], [ -91.209509133718043, 30.551330805808831 ], [ -91.208581101631424, 30.551918098410653 ], [ -91.206353089247955, 30.550513304678404 ], [ -91.203810416642895, 30.551176370836565 ], [ -91.203516859827886, 30.550359078156987 ], [ -91.200524988248375, 30.551127920545905 ], [ -91.200287188393517, 30.551192532904405 ], [ -91.200070327122049, 30.55126414146746 ], [ -91.199954483338573, 30.551311558360275 ], [ -91.19973625721849, 30.551394796938151 ], [ -91.199582002683812, 30.551448486385315 ], [ -91.199360305729371, 30.551507436737708 ], [ -91.198999969196322, 30.551598028964715 ], [ -91.198524073374855, 30.551717079548276 ], [ -91.199082011490674, 30.552753050252608 ], [ -91.200894371843845, 30.556117920673341 ], [ -91.202622204939388, 30.559325863464991 ], [ -91.202703706511144, 30.559477044151151 ], [ -91.204611491204716, 30.563136460446994 ], [ -91.217000158584881, 30.559908470418478 ], [ -91.217195972482699, 30.559857948133111 ] ] ] } },
{ "type": "Feature", "properties": { "ID": 6, "INDUSTRIAL_AREA_NO": "INDUSTRIAL - 2", "AREA_SQ_MILES": 1.01 }, "geometry": { "type": "Polygon", "coordinates": [ [ [ -91.176182344370574, 30.55849139964884 ], [ -91.176348312236613, 30.558431175513018 ], [ -91.17644666509841, 30.558396556000361 ], [ -91.176504031469719, 30.558373737184318 ], [ -91.176592197774255, 30.558334344484976 ], [ -91.17663424487786, 30.558313551518669 ], [ -91.176790004628955, 30.558219659312421 ], [ -91.17791425199907, 30.557624000697924 ], [ -91.180121253438926, 30.556469153948104 ], [ -91.180197392136321, 30.556427309376893 ], [ -91.180275093474847, 30.556384606012905 ], [ -91.180442615655139, 30.556308834397683 ], [ -91.180616700305194, 30.556245692511737 ], [ -91.180800035386085, 30.556186503909689 ], [ -91.180988886908438, 30.556134954540255 ], [ -91.181239932122949, 30.556074923127209 ], [ -91.186005575297742, 30.554935232270793 ], [ -91.187604765693678, 30.554495335182928 ], [ -91.189812497954463, 30.553886052433008 ], [ -91.193628253684537, 30.552839640709113 ], [ -91.194505617036853, 30.552609265323532 ], [ -91.197269624653771, 30.551909809280293 ], [ -91.195562566220772, 30.54849034153154 ], [ -91.195157885271527, 30.547803628323528 ], [ -91.194810692011416, 30.547208754027558 ], [ -91.194495443951197, 30.546681254882618 ], [ -91.194063710443046, 30.545949509780385 ], [ -91.193860404558734, 30.545614379174037 ], [ -91.19367747067281, 30.545306687585423 ], [ -91.193330300731773, 30.54472770580691 ], [ -91.192965659744374, 30.544124287726728 ], [ -91.192927810077464, 30.544066687619278 ], [ -91.192791191418223, 30.543858771087319 ], [ -91.192449022708004, 30.543372944309237 ], [ -91.192127028971669, 30.542960722148617 ], [ -91.191885562383916, 30.542641604010417 ], [ -91.191679740347567, 30.542336333974536 ], [ -91.191219751968063, 30.541633720707765 ], [ -91.19050264001649, 30.541816220006702 ], [ -91.186918525280191, 30.542728278148438 ], [ -91.18653069103334, 30.542827168286511 ], [ -91.18590488824168, 30.541775617077541 ], [ -91.179263731526859, 30.543103313398895 ], [ -91.177134498381619, 30.543474097721496 ], [ -91.176908316422114, 30.543519670283946 ], [ -91.176527416549888, 30.545633463957884 ], [ -91.176123631969531, 30.547810439223912 ], [ -91.175832883962514, 30.549381561898134 ], [ -91.175461708790792, 30.551289758480561 ], [ -91.17399016689744, 30.558575237413443 ], [ -91.174209325376168, 30.558572845342255 ], [ -91.174829858439963, 30.558555856255076 ], [ -91.175804667333139, 30.558529167945736 ], [ -91.175900021843404, 30.558528594897947 ], [ -91.175947619769701, 30.558526079743164 ], [ -91.175995081416573, 30.558522081441577 ], [ -91.176042346315313, 30.558516607137875 ], [ -91.176089351916787, 30.558509661268246 ], [ -91.176136038787774, 30.558501255489055 ], [ -91.176182344370574, 30.55849139964884 ] ] ] } },
{ "type": "Feature", "properties": { "ID": 7, "INDUSTRIAL_AREA_NO": "INDUSTRIAL - 1", "AREA_SQ_MILES": 5.0 }, "geometry": { "type": "Polygon", "coordinates": [ [ [ -91.18411640700586, 30.472522327409056 ], [ -91.184026111273454, 30.472565726169204 ], [ -91.18403110081158, 30.472704851217088 ], [ -91.183556824441254, 30.472720995319975 ], [ -91.183622699307691, 30.474355834006161 ], [ -91.183418073901365, 30.474361069738272 ], [ -91.183162392591242, 30.474367628280007 ], [ -91.18202746042094, 30.474396507601124 ], [ -91.182018594653897, 30.474149161940058 ], [ -91.181994671571204, 30.473462067711612 ], [ -91.181970062481682, 30.472774996007228 ], [ -91.181161216344833, 30.472802515826256 ], [ -91.181033616566694, 30.472806855895854 ], [ -91.175960460400049, 30.472986951616949 ], [ -91.175547675178137, 30.472983913371866 ], [ -91.17459882677359, 30.473014540226139 ], [ -91.174726651110504, 30.475083897341417 ], [ -91.174214432643936, 30.475093776953663 ], [ -91.174239214174563, 30.475505645849751 ], [ -91.174270902237154, 30.476147977039826 ], [ -91.174020610926618, 30.47615621127056 ], [ -91.173770319574544, 30.476164445027742 ], [ -91.168646466913771, 30.476369640285967 ], [ -91.169552477445137, 30.491456813084046 ], [ -91.169756938837565, 30.494087300777469 ], [ -91.169993549096489, 30.498059363678841 ], [ -91.170077272565038, 30.500702651032515 ], [ -91.170116002458826, 30.501671207034882 ], [ -91.170140408740707, 30.502112371101362 ], [ -91.17015599994798, 30.502293216384643 ], [ -91.170181987016079, 30.502555640947012 ], [ -91.17019428068447, 30.50267980091791 ], [ -91.170198650253738, 30.502722590318001 ], [ -91.170280074186991, 30.503395187738246 ], [ -91.170353823384886, 30.503896001771654 ], [ -91.1704040562866, 30.50417810387524 ], [ -91.170422922502041, 30.5042777699929 ], [ -91.171468081712817, 30.504239071241962 ], [ -91.1714510671911, 30.503886891849408 ], [ -91.172086322977378, 30.503863880001944 ], [ -91.172253649888944, 30.504834943629451 ], [ -91.172290738667883, 30.504912764709783 ], [ -91.172302672090936, 30.505199077124541 ], [ -91.171800308194008, 30.505214775987561 ], [ -91.171813381948581, 30.505350745571736 ], [ -91.171843460552935, 30.505585976429856 ], [ -91.171956212549887, 30.506281235090164 ], [ -91.172056951324748, 30.50691806485824 ], [ -91.173706669539129, 30.506867047191772 ], [ -91.173992270552716, 30.506858210180472 ], [ -91.174452404882686, 30.506843976788357 ], [ -91.174445885747076, 30.506693459708938 ], [ -91.174439936290995, 30.506556076445847 ], [ -91.174433986841237, 30.506418699491167 ], [ -91.174428036370571, 30.506281319822971 ], [ -91.174425031543691, 30.506211921380245 ], [ -91.174424215792413, 30.50619307990446 ], [ -91.174536130649656, 30.50618896823228 ], [ -91.174666217863376, 30.506184509310877 ], [ -91.174802651951794, 30.506179832349158 ], [ -91.174939084985553, 30.506175155245533 ], [ -91.175075518006466, 30.506170478001192 ], [ -91.175086000553478, 30.506170394015886 ], [ -91.175092282194925, 30.50630776052315 ], [ -91.175098562811954, 30.506445127023028 ], [ -91.175115760914252, 30.506821237610833 ], [ -91.175241724263117, 30.506816919327488 ], [ -91.175378160159667, 30.506812289583817 ], [ -91.175514592028406, 30.506807564076041 ], [ -91.175651025891781, 30.506802886239317 ], [ -91.175714483668102, 30.506800710285756 ], [ -91.177301860026063, 30.506746013094464 ], [ -91.177263565722882, 30.506148113756318 ], [ -91.177218434915375, 30.505443482189094 ], [ -91.177169594003942, 30.504777883787092 ], [ -91.177162581672619, 30.504682696958206 ], [ -91.177163077354791, 30.504621268802346 ], [ -91.177356085170828, 30.504613421159682 ], [ -91.177495689991702, 30.506793075707698 ], [ -91.17758434560568, 30.508177206337653 ], [ -91.177605800662718, 30.508469821061436 ], [ -91.177635692152279, 30.508825010942221 ], [ -91.17775869528117, 30.511000452763842 ], [ -91.177772057996819, 30.511484077422953 ], [ -91.177812574948618, 30.511825783674336 ], [ -91.177862203906145, 30.512148369656838 ], [ -91.177918035972851, 30.512439938267292 ], [ -91.178029700600106, 30.512954835289293 ], [ -91.178178586525647, 30.51339528896116 ], [ -91.178277843231925, 30.513680653313877 ], [ -91.178339879134185, 30.51381713207579 ], [ -91.178396777179472, 30.513974674231417 ], [ -91.178454146327368, 30.514098180334351 ], [ -91.178532782899651, 30.514259300171819 ], [ -91.179272406658072, 30.515680892908815 ], [ -91.17973223852232, 30.516563576778491 ], [ -91.17986943037927, 30.516828426615177 ], [ -91.18045810614278, 30.517949894262831 ], [ -91.180899432624997, 30.518790632433141 ], [ -91.18142291913621, 30.519787865923472 ], [ -91.181642803957331, 30.520227343501418 ], [ -91.181774202391495, 30.520223496103007 ], [ -91.18234034737317, 30.520215313824433 ], [ -91.183765205399098, 30.520167312978483 ], [ -91.183736181913147, 30.519521635601453 ], [ -91.192946564093546, 30.519197287767696 ], [ -91.192991742051547, 30.520021203735311 ], [ -91.19469397798332, 30.519975405094304 ], [ -91.194618084034772, 30.518657211820798 ], [ -91.196009944706844, 30.518609676016954 ], [ -91.196838930745344, 30.519917709813186 ], [ -91.202452576454945, 30.519720423867405 ], [ -91.201061526088409, 30.518478083096124 ], [ -91.200044525410519, 30.51704536110536 ], [ -91.199140104245274, 30.515241444063328 ], [ -91.198396510858188, 30.512907659760629 ], [ -91.197898290846709, 30.510810209443815 ], [ -91.197615277130581, 30.508619336348104 ], [ -91.197518372564105, 30.507715021988282 ], [ -91.197424916474105, 30.507026358019704 ], [ -91.197411911273591, 30.506851830659443 ], [ -91.197337209828163, 30.505849279430617 ], [ -91.197210535914422, 30.499788042438865 ], [ -91.197170620608574, 30.497878005489191 ], [ -91.196862088969368, 30.483286629108026 ], [ -91.196506238152935, 30.466451981347024 ], [ -91.188944170573393, 30.466473845202813 ], [ -91.188911012315003, 30.466756652504735 ], [ -91.18885496267643, 30.467200273643616 ], [ -91.188806797161376, 30.467583574427906 ], [ -91.188599954631869, 30.468809144500231 ], [ -91.188576367752589, 30.468939405153275 ], [ -91.188546528658321, 30.469068699148153 ], [ -91.188510492844287, 30.469196803729464 ], [ -91.1885368666739, 30.46919929886883 ], [ -91.188493273611215, 30.469377210360875 ], [ -91.188454639365958, 30.469496728843573 ], [ -91.1884316313607, 30.469555509797214 ], [ -91.188406202136505, 30.469613536666284 ], [ -91.188378384079769, 30.469670736417005 ], [ -91.188348212705222, 30.469727033312726 ], [ -91.188315727688277, 30.469782355229484 ], [ -91.188280970784817, 30.469836631849699 ], [ -91.188243985835271, 30.469889791955985 ], [ -91.188204820840468, 30.469941767943645 ], [ -91.188163526926076, 30.469992492211471 ], [ -91.188120157296794, 30.470041899866647 ], [ -91.188017986081547, 30.470146613074483 ], [ -91.188026992069879, 30.470156622447128 ], [ -91.18808703226992, 30.470228412211831 ], [ -91.188100659920011, 30.470247036038696 ], [ -91.188141820397647, 30.470303289391783 ], [ -91.188191141301516, 30.470380962387605 ], [ -91.188234808995134, 30.470461134219246 ], [ -91.18827265937675, 30.470543496203256 ], [ -91.188304541891668, 30.470627732453867 ], [ -91.188330333069359, 30.470713520799876 ], [ -91.188349934450173, 30.470800526467873 ], [ -91.188363273603457, 30.470888418320317 ], [ -91.188370299976469, 30.470976858928502 ], [ -91.188370979689168, 30.471065503664459 ], [ -91.18836531738161, 30.47115401606008 ], [ -91.188353330200172, 30.471242053345879 ], [ -91.188172849524832, 30.472580936190148 ], [ -91.185447927667525, 30.472701549819906 ], [ -91.185414804403877, 30.471789982021996 ], [ -91.184203179870892, 30.472473834220477 ], [ -91.184145742525914, 30.472506719460302 ], [ -91.18411640700586, 30.472522327409056 ] ] ] } },
{ "type": "Feature", "properties": { "ID": 8, "INDUSTRIAL_AREA_NO": "INDUSTRIAL - 1", "AREA_SQ_MILES": 0.03 }, "geometry": { "type": "Polygon", "coordinates": [ [ [ -91.188190343772249, 30.469279108924798 ], [ -91.183931256228576, 30.469418139742793 ], [ -91.184040152995905, 30.472315001945216 ], [ -91.185575199235913, 30.471402898750991 ], [ -91.185978195667829, 30.471101793444532 ], [ -91.187556515713226, 30.470153908280217 ], [ -91.187645331772501, 30.470095789033646 ], [ -91.187687853156092, 30.470064671936907 ], [ -91.187729041367433, 30.470032237234214 ], [ -91.187768842189897, 30.469998528166641 ], [ -91.18780720244574, 30.469963589780502 ], [ -91.187844073124509, 30.469927466224718 ], [ -91.187879404166637, 30.469890207059532 ], [ -91.187913148639581, 30.469851860044308 ], [ -91.187945263771411, 30.469812476551464 ], [ -91.18797570574776, 30.469772108854244 ], [ -91.188004434918682, 30.469730810132479 ], [ -91.18803141267459, 30.469688634469293 ], [ -91.188056603527571, 30.469645637755235 ], [ -91.188079975112956, 30.469601876786424 ], [ -91.188101496106199, 30.469557409262038 ], [ -91.188121138305846, 30.469512293786789 ], [ -91.188138875592145, 30.469466589869615 ], [ -91.188154683926953, 30.469420357923806 ], [ -91.188168543436419, 30.46937365926922 ], [ -91.188180435288402, 30.46932655522674 ], [ -91.188190343772249, 30.469279108924798 ] ] ] } },
{ "type": "Feature", "properties": { "ID": 9, "INDUSTRIAL_AREA_NO": "INDUSTRIAL - 1", "AREA_SQ_MILES": 0.06 }, "geometry": { "type": "Polygon", "coordinates": [ [ [ -91.179028427752485, 30.469584045421968 ], [ -91.178647784017883, 30.469596196520861 ], [ -91.178135499814545, 30.469612546456943 ], [ -91.177160428971618, 30.469655587870971 ], [ -91.176526421887587, 30.46968409570578 ], [ -91.175521891312201, 30.469719427006485 ], [ -91.175359094771864, 30.469727113209217 ], [ -91.173933487891276, 30.469764958998322 ], [ -91.17403624908566, 30.471356043860681 ], [ -91.174495086875524, 30.471335259755087 ], [ -91.174588210325069, 30.472842679976004 ], [ -91.175554035829592, 30.472814502728792 ], [ -91.175702195988194, 30.47279169454611 ], [ -91.176708379577747, 30.472771899321049 ], [ -91.178254369052823, 30.472728718975816 ], [ -91.179159138995445, 30.472698197662229 ], [ -91.179028427752485, 30.469584045421968 ] ] ] } },
{ "type": "Feature", "properties": { "ID": 10, "INDUSTRIAL_AREA_NO": "INDUSTRIAL - 2", "AREA_SQ_MILES": 0.45 }, "geometry": { "type": "Polygon", "coordinates": [ [ [ -91.164987710654742, 30.545006104937372 ], [ -91.164367690346367, 30.545002695509915 ], [ -91.162921935258524, 30.544970273671659 ], [ -91.159891943766837, 30.544892936065899 ], [ -91.157141422947433, 30.544772120209831 ], [ -91.156077452408056, 30.544721858288295 ], [ -91.156253373252952, 30.550388190308684 ], [ -91.161511297564189, 30.550199896458622 ], [ -91.162674786682857, 30.550158201175492 ], [ -91.164984101292504, 30.550160050015812 ], [ -91.166507847778107, 30.550004727819829 ], [ -91.16772489355165, 30.549866119417803 ], [ -91.168010874255174, 30.549833547453911 ], [ -91.168301793842474, 30.549800412736342 ], [ -91.16859758558698, 30.549766723268004 ], [ -91.168786561739992, 30.549745202600612 ], [ -91.169133016598508, 30.549705743131689 ], [ -91.169570943844619, 30.549655858169736 ], [ -91.169516170820089, 30.549926685379624 ], [ -91.169455920562953, 30.550224596159786 ], [ -91.169423058904059, 30.550387095142316 ], [ -91.16939019297304, 30.550549591396919 ], [ -91.169346376078991, 30.550766253951505 ], [ -91.169314160351689, 30.550925545084613 ], [ -91.169309889703044, 30.550946667627461 ], [ -91.169305618010299, 30.550967790168713 ], [ -91.169451913273576, 30.550975070473211 ], [ -91.169611519119385, 30.550983013846814 ], [ -91.169771126033055, 30.550990957029338 ], [ -91.169930731931487, 30.550998899116095 ], [ -91.170090338896301, 30.551006841913729 ], [ -91.170249944845864, 30.551014783615607 ], [ -91.170409551861781, 30.551022726028432 ], [ -91.170569157862474, 30.551030667345486 ], [ -91.170728764929521, 30.551038609373407 ], [ -91.170888370979867, 30.551046551207666 ], [ -91.171047978099509, 30.551054491948754 ], [ -91.17112778114776, 30.551058462246459 ], [ -91.171287387262041, 30.551066403599634 ], [ -91.171446994444068, 30.551074344761631 ], [ -91.171606600610943, 30.551082284827924 ], [ -91.171766207844087, 30.551090225605126 ], [ -91.171925814062078, 30.551098165286547 ], [ -91.172085421346381, 30.551106105678851 ], [ -91.172245027615446, 30.551114044975431 ], [ -91.17240463390857, 30.551121984981624 ], [ -91.172564241269555, 30.551129924796697 ], [ -91.172723847615273, 30.55113786351599 ], [ -91.172883455027375, 30.551145802946138 ], [ -91.173011140767855, 30.551152153810314 ], [ -91.173170747185111, 30.551160091990823 ], [ -91.173330354668735, 30.551168030882163 ], [ -91.173489961135658, 30.551175969579884 ], [ -91.173649567629596, 30.551183907183113 ], [ -91.173809175189845, 30.551191845497268 ], [ -91.173968781734914, 30.551199782715635 ], [ -91.174128389346251, 30.551207720644886 ], [ -91.174287995942407, 30.551215657478426 ], [ -91.174447603604861, 30.551223595022854 ], [ -91.174607210250642, 30.551231532373585 ], [ -91.175031182855307, 30.551252614850419 ], [ -91.176340285728557, 30.544670368921718 ], [ -91.176466037878924, 30.543856045640858 ], [ -91.176193601337275, 30.543807855118306 ], [ -91.175822134450883, 30.544041729093443 ], [ -91.175646038524079, 30.544169430533895 ], [ -91.175533118751218, 30.544257495087873 ], [ -91.175473788549738, 30.54429862380621 ], [ -91.17541266374954, 30.544337732465006 ], [ -91.175349835112442, 30.544374764340922 ], [ -91.175285396528992, 30.544409661812324 ], [ -91.175219445006434, 30.544442373575773 ], [ -91.175152079632767, 30.544472851036581 ], [ -91.175012451545953, 30.544529227493655 ], [ -91.174940775779007, 30.544553701041913 ], [ -91.174868012853011, 30.54457564299252 ], [ -91.17479428372252, 30.544595018308492 ], [ -91.174563052538844, 30.54464993148218 ], [ -91.174445827849837, 30.544671773866305 ], [ -91.174327747288999, 30.544689831008203 ], [ -91.174208972448554, 30.54470407784245 ], [ -91.174089668037524, 30.544714495622149 ], [ -91.173969998759517, 30.544721069209313 ], [ -91.17362973229686, 30.544728609866691 ], [ -91.169676671208649, 30.544842810725964 ], [ -91.166473821066916, 30.544967584296348 ], [ -91.165923520134925, 30.544988990758959 ], [ -91.165299738608567, 30.545004671980372 ], [ -91.164987710654742, 30.545006104937372 ] ] ] } }
]
}
