{
"type": "FeatureCollection",
"name": "Medical_Clinic",
"crs": { "type": "name", "properties": { "name": "urn:ogc:def:crs:OGC:1.3:CRS84" } },
"features": [
{ "type": "Feature", "properties": { "ID": 1, "BUSINESS_NAME": "BATON ROUGE GENERAL - BEHAVIORAL WELLNESS CENTER", "FULL_ADDRESS": "3910 CONVENTION ST", "CITY": "BATON ROUGE", "STATE": "LOUISIANA", "ZIP": 70806, "PHONE_NUMBER": null, "WEBSITE": "http://brgeneral.org/services/behavioral-mental-health" }, "geometry": { "type": "Point", "coordinates": [ -91.149896046399405, 30.449195233138358 ] } },
{ "type": "Feature", "properties": { "ID": 2, "BUSINESS_NAME": "ACADIAN WOMEN'S CLINIC", "FULL_ADDRESS": "1820 N ACADIAN THWY W", "CITY": "BATON ROUGE", "STATE": "LOUISIANA", "ZIP": 70802, "PHONE_NUMBER": "225-356-6168", "WEBSITE": "http://acadianawomens.com/" }, "geometry": { "type": "Point", "coordinates": [ -91.155839004999166, 30.464857822512339 ] } },
{ "type": "Feature", "properties": { "ID": 3, "BUSINESS_NAME": "COMMUNITY CHIROPRACTIC CENTER", "FULL_ADDRESS": "12590 PERKINS RD, STE B", "CITY": "BATON ROUGE", "STATE": "LOUISIANA", "ZIP": 70810, "PHONE_NUMBER": "225-767-3151", "WEBSITE": "http://louisianachiropractic.com/" }, "geometry": { "type": "Point", "coordinates": [ -91.076667408502558, 30.368616026498898 ] } },
{ "type": "Feature", "properties": { "ID": 4, "BUSINESS_NAME": "FOOT CARE SURGERY CENTER", "FULL_ADDRESS": "10608 COURSEY BLVD, STE A", "CITY": "BATON ROUGE", "STATE": "LOUISIANA", "ZIP": 70816, "PHONE_NUMBER": "225-757-8808", "WEBSITE": "http://footandankleinstitute.org/" }, "geometry": { "type": "Point", "coordinates": [ -91.063712935075856, 30.415409402837533 ] } },
{ "type": "Feature", "properties": { "ID": 5, "BUSINESS_NAME": "BAYOU COMMUNITY HEALTH CENTER", "FULL_ADDRESS": "11838 S HARRELL'S FERRY RD, STE B", "CITY": "BATON ROUGE", "STATE": "LOUISIANA", "ZIP": 70816, "PHONE_NUMBER": "225-361-0089", "WEBSITE": "http://bayoucommunityhealth.com/" }, "geometry": { "type": "Point", "coordinates": [ -91.050344299375141, 30.430477417701191 ] } },
{ "type": "Feature", "properties": { "ID": 6, "BUSINESS_NAME": "BEHAVIORAL INTERVENTION GROUP", "FULL_ADDRESS": "7222 BLUEBONNET BLVD", "CITY": "BATON ROUGE", "STATE": "LOUISIANA", "ZIP": 70810, "PHONE_NUMBER": "225-757-8002", "WEBSITE": "http://big-br.com/" }, "geometry": { "type": "Point", "coordinates": [ -91.095738599628191, 30.385962846221226 ] } },
{ "type": "Feature", "properties": { "ID": 7, "BUSINESS_NAME": "BAYOU COMMUNITY HEALTH CENTER", "FULL_ADDRESS": "11848 S HARRELL'S FERRY RD, STE A", "CITY": "BATON ROUGE", "STATE": "LOUISIANA", "ZIP": 70816, "PHONE_NUMBER": "225-361-0089", "WEBSITE": "http://bayoucommunityhealth.com/" }, "geometry": { "type": "Point", "coordinates": [ -91.050343919785348, 30.430514910267096 ] } },
{ "type": "Feature", "properties": { "ID": 8, "BUSINESS_NAME": "BATON ROUGE RADIOLOGY GROUP", "FULL_ADDRESS": "5422 DIJON DR", "CITY": "BATON ROUGE", "STATE": "LOUISIANA", "ZIP": 70808, "PHONE_NUMBER": "225-769-9337", "WEBSITE": "http://brrg.com/" }, "geometry": { "type": "Point", "coordinates": [ -91.113050444857322, 30.401426625107927 ] } },
{ "type": "Feature", "properties": { "ID": 9, "BUSINESS_NAME": "BATON ROUGE CARDIOLOGY CTR", "FULL_ADDRESS": "5231 BRITTANY DR", "CITY": "BATON ROUGE", "STATE": "LOUISIANA", "ZIP": 70808, "PHONE_NUMBER": "225-769-0933", "WEBSITE": "http://brcardiology.com/site.php" }, "geometry": { "type": "Point", "coordinates": [ -91.108813353482887, 30.401735597661975 ] } },
{ "type": "Feature", "properties": { "ID": 10, "BUSINESS_NAME": "BATON ROUGE CLINIC URGENT CARE CENTER", "FULL_ADDRESS": "7479 PERKINS RD", "CITY": "BATON ROUGE", "STATE": "LOUISIANA", "ZIP": 70808, "PHONE_NUMBER": "225-246-9997", "WEBSITE": "http://brcurgentcare.com/" }, "geometry": { "type": "Point", "coordinates": [ -91.110418376668733, 30.396984192999678 ] } },
{ "type": "Feature", "properties": { "ID": 11, "BUSINESS_NAME": "MED-AID", "FULL_ADDRESS": "5475 ESSEN LN", "CITY": "BATON ROUGE", "STATE": "LOUISIANA", "ZIP": 70809, "PHONE_NUMBER": "225-767-2750", "WEBSITE": null }, "geometry": { "type": "Point", "coordinates": [ -91.106685074637156, 30.398197922305375 ] } },
{ "type": "Feature", "properties": { "ID": 12, "BUSINESS_NAME": "JESSICA RIZZUTO, LCSW", "FULL_ADDRESS": "7932 PICARDY AVE, STE A", "CITY": "BATON ROUGE", "STATE": "LOUISIANA", "ZIP": 70809, "PHONE_NUMBER": null, "WEBSITE": null }, "geometry": { "type": "Point", "coordinates": [ -91.105885464403812, 30.397129959519813 ] } },
{ "type": "Feature", "properties": { "ID": 13, "BUSINESS_NAME": "PREGNANCY PROBLEM CENTER", "FULL_ADDRESS": "4724 JAMESTOWN AVE", "CITY": "BATON ROUGE", "STATE": "LOUISIANA", "ZIP": 70808, "PHONE_NUMBER": "225-924-1400", "WEBSITE": "http://pregnancyproblemcenterbr.com/" }, "geometry": { "type": "Point", "coordinates": [ -91.136795555925914, 30.420232620042981 ] } },
{ "type": "Feature", "properties": { "ID": 14, "BUSINESS_NAME": "FMC DIALYSIS CENTER", "FULL_ADDRESS": "5948 AIRLINE HWY", "CITY": "BATON ROUGE", "STATE": "LOUISIANA", "ZIP": 70805, "PHONE_NUMBER": "225-357-9055", "WEBSITE": null }, "geometry": { "type": "Point", "coordinates": [ -91.131924973123617, 30.500912601847507 ] } },
{ "type": "Feature", "properties": { "ID": 15, "BUSINESS_NAME": "GULF COAST OCCUPATIONAL MEDICINE", "FULL_ADDRESS": "13406 AIRLINE HWY", "CITY": "BATON ROUGE", "STATE": "LOUISIANA", "ZIP": 70809, "PHONE_NUMBER": "225-753-7233", "WEBSITE": "http://gulfcoastoccmed.com/Information/Contact" }, "geometry": { "type": "Point", "coordinates": [ -91.03352002223167, 30.374081485341573 ] } },
{ "type": "Feature", "properties": { "ID": 16, "BUSINESS_NAME": "NATURAL THERAPIES CENTER", "FULL_ADDRESS": "8323 O'HARA CT", "CITY": "BATON ROUGE", "STATE": "LOUISIANA", "ZIP": 70806, "PHONE_NUMBER": "225-928-7411", "WEBSITE": null }, "geometry": { "type": "Point", "coordinates": [ -91.099557799968366, 30.446851892014454 ] } },
{ "type": "Feature", "properties": { "ID": 17, "BUSINESS_NAME": "ST. JAMES PLACE OF BATON ROUGE", "FULL_ADDRESS": "333 LEE DR", "CITY": "BATON ROUGE", "STATE": "LOUISIANA", "ZIP": 70808, "PHONE_NUMBER": "225-769-1407", "WEBSITE": "http://stjude.org/stjude/v/index.jsp?vgnextoid=b5a76f9523e70110VgnVCM1000001e0215acRCRD" }, "geometry": { "type": "Point", "coordinates": [ -91.15731542055066, 30.398568107117267 ] } },
{ "type": "Feature", "properties": { "ID": 18, "BUSINESS_NAME": "PSYCHOLOGY CLINIC, THE", "FULL_ADDRESS": "7936 WRENWOOD BLVD, STE B", "CITY": "BATON ROUGE", "STATE": "LOUISIANA", "ZIP": 70809, "PHONE_NUMBER": "225-925-2036", "WEBSITE": null }, "geometry": { "type": "Point", "coordinates": [ -91.099692882505963, 30.422778708911672 ] } },
{ "type": "Feature", "properties": { "ID": 19, "BUSINESS_NAME": "JEFFERSON OAKS BEHAVIORAL HEALTH INC", "FULL_ADDRESS": "8318 JEFFERSON HWY", "CITY": "BATON ROUGE", "STATE": "LOUISIANA", "ZIP": 70809, "PHONE_NUMBER": "225-927-5624", "WEBSITE": null }, "geometry": { "type": "Point", "coordinates": [ -91.100845026882936, 30.420970837981805 ] } },
{ "type": "Feature", "properties": { "ID": 20, "BUSINESS_NAME": "MARY BIRD PERKINS CANCER CENTER", "FULL_ADDRESS": "4950 ESSEN LN", "CITY": "BATON ROUGE", "STATE": "LOUISIANA", "ZIP": 70808, "PHONE_NUMBER": "225-767-0847", "WEBSITE": "http://marybird.org/olol" }, "geometry": { "type": "Point", "coordinates": [ -91.104865735759759, 30.403797877365854 ] } },
{ "type": "Feature", "properties": { "ID": 21, "BUSINESS_NAME": "MARY BIRD PERKINS CANCER CENTER", "FULL_ADDRESS": "4950 ESSEN LN", "CITY": "BATON ROUGE", "STATE": "LOUISIANA", "ZIP": 70808, "PHONE_NUMBER": "225-767-0847", "WEBSITE": "http://marybird.org/olol" }, "geometry": { "type": "Point", "coordinates": [ -91.104865735759759, 30.403797877365854 ] } },
{ "type": "Feature", "properties": { "ID": 22, "BUSINESS_NAME": "OUR LADY OF THE LAKE REGIONAL MEDICAL CENTER", "FULL_ADDRESS": "5000 HENNESSY BLVD", "CITY": "BATON ROUGE", "STATE": "LOUISIANA", "ZIP": 70808, "PHONE_NUMBER": null, "WEBSITE": "http://ololrmc.com" }, "geometry": { "type": "Point", "coordinates": [ -91.106906495775988, 30.403484085180853 ] } },
{ "type": "Feature", "properties": { "ID": 23, "BUSINESS_NAME": "DROZDOV CHIROPRACTIC", "FULL_ADDRESS": "11923 COURSEY BLVD", "CITY": "BATON ROUGE", "STATE": "LOUISIANA", "ZIP": 70816, "PHONE_NUMBER": "225-296-5121", "WEBSITE": "http://drozdovchiropractic.com/" }, "geometry": { "type": "Point", "coordinates": [ -91.047839318909382, 30.411450962199734 ] } },
{ "type": "Feature", "properties": { "ID": 24, "BUSINESS_NAME": "BEACON BEHAVIORIAL HOSPITAL", "FULL_ADDRESS": "9938 AIRLINE HWY", "CITY": "BATON ROUGE", "STATE": "LOUISIANA", "ZIP": 70809, "PHONE_NUMBER": "225-810-4719", "WEBSITE": "http://beaconbh.com/" }, "geometry": { "type": "Point", "coordinates": [ -91.078360216379195, 30.42736517673459 ] } },
{ "type": "Feature", "properties": { "ID": 25, "BUSINESS_NAME": "BEACON BEHAVIORIAL HOSPITAL", "FULL_ADDRESS": "10425 PLAZA AMERICANA DR", "CITY": "BATON ROUGE", "STATE": "LOUISIANA", "ZIP": 70816, "PHONE_NUMBER": "225-810-4719", "WEBSITE": "http://beaconbh.com/" }, "geometry": { "type": "Point", "coordinates": [ -91.070687805568213, 30.427261135406543 ] } },
{ "type": "Feature", "properties": { "ID": 26, "BUSINESS_NAME": "CAPI LANDRENEAU LCSW", "FULL_ADDRESS": "11715 BRICKSOME AVE", "CITY": "BATON ROUGE", "STATE": "LOUISIANA", "ZIP": 70816, "PHONE_NUMBER": null, "WEBSITE": null }, "geometry": { "type": "Point", "coordinates": [ -91.051815853650965, 30.426685900940374 ] } },
{ "type": "Feature", "properties": { "ID": 27, "BUSINESS_NAME": "BATON ROUGE RADIOLOGY GROUP", "FULL_ADDRESS": "7887 PICARDY AVE", "CITY": "BATON ROUGE", "STATE": "LOUISIANA", "ZIP": 70809, "PHONE_NUMBER": "225-769-9337", "WEBSITE": "http://brrg.com/" }, "geometry": { "type": "Point", "coordinates": [ -91.1062331062504, 30.397913976101758 ] } },
{ "type": "Feature", "properties": { "ID": 28, "BUSINESS_NAME": "LOUISIANA ENDOSCOPY CENTER", "FULL_ADDRESS": "9103 JEFFERSON HWY", "CITY": "BATON ROUGE", "STATE": "LOUISIANA", "ZIP": 70809, "PHONE_NUMBER": "225-927-1190", "WEBSITE": "http://lecbr.com/" }, "geometry": { "type": "Point", "coordinates": [ -91.086007557294622, 30.415797240136268 ] } },
{ "type": "Feature", "properties": { "ID": 29, "BUSINESS_NAME": "BATON ROUGE CLINIC AMC", "FULL_ADDRESS": "7373 PERKINS RD", "CITY": "BATON ROUGE", "STATE": "LOUISIANA", "ZIP": 70808, "PHONE_NUMBER": "225-769-4044", "WEBSITE": "https://batonrougeclinic.com/" }, "geometry": { "type": "Point", "coordinates": [ -91.11224430476878, 30.39803636901819 ] } },
{ "type": "Feature", "properties": { "ID": 30, "BUSINESS_NAME": "BATON ROUGE FAMILY MEDICAL CTR", "FULL_ADDRESS": "8595 PICARDY AVE", "CITY": "BATON ROUGE", "STATE": "LOUISIANA", "ZIP": 70809, "PHONE_NUMBER": "225-763-4900", "WEBSITE": "https://brgeneraldoc.org/site27.php" }, "geometry": { "type": "Point", "coordinates": [ -91.093984360132097, 30.393606201748856 ] } },
{ "type": "Feature", "properties": { "ID": 31, "BUSINESS_NAME": "DON M PLAISANCE LCSW LLC", "FULL_ADDRESS": "9270 SIEGEN LN", "CITY": "BATON ROUGE", "STATE": "LOUISIANA", "ZIP": 70810, "PHONE_NUMBER": null, "WEBSITE": null }, "geometry": { "type": "Point", "coordinates": [ -91.077613971963686, 30.365506153808646 ] } },
{ "type": "Feature", "properties": { "ID": 32, "BUSINESS_NAME": "ROBIN MARRERO LCSW", "FULL_ADDRESS": "9270 SIEGEN LN", "CITY": "BATON ROUGE", "STATE": "LOUISIANA", "ZIP": 70810, "PHONE_NUMBER": null, "WEBSITE": null }, "geometry": { "type": "Point", "coordinates": [ -91.077613971963686, 30.365506153808646 ] } },
{ "type": "Feature", "properties": { "ID": 33, "BUSINESS_NAME": "DAYNE NARRETTA LCSW BCD CGP", "FULL_ADDRESS": "9229 BLUEBONNET BLVD", "CITY": "BATON ROUGE", "STATE": "LOUISIANA", "ZIP": 70810, "PHONE_NUMBER": null, "WEBSITE": null }, "geometry": { "type": "Point", "coordinates": [ -91.104339177218151, 30.364781593307583 ] } },
{ "type": "Feature", "properties": { "ID": 34, "BUSINESS_NAME": "BATON ROUGE HEALTHCARE CENTER", "FULL_ADDRESS": "8281 GOODWOOD BLVD", "CITY": "BATON ROUGE", "STATE": "LOUISIANA", "ZIP": 70806, "PHONE_NUMBER": null, "WEBSITE": "http://hivcare.org/ " }, "geometry": { "type": "Point", "coordinates": [ -91.100520818405172, 30.44301945396235 ] } },
{ "type": "Feature", "properties": { "ID": 35, "BUSINESS_NAME": "JUST KIDS DENTAL", "FULL_ADDRESS": "5151 PLANK RD", "CITY": "BATON ROUGE", "STATE": "LOUISIANA", "ZIP": 70805, "PHONE_NUMBER": "225-330-6622", "WEBSITE": "http://justkids-dental.com/" }, "geometry": { "type": "Point", "coordinates": [ -91.155958172754708, 30.495524138023818 ] } },
{ "type": "Feature", "properties": { "ID": 36, "BUSINESS_NAME": "KATHERINE L VOLK LCSW", "FULL_ADDRESS": "7341 JEFFERSON HWY, STE M", "CITY": "BATON ROUGE", "STATE": "LOUISIANA", "ZIP": 70806, "PHONE_NUMBER": null, "WEBSITE": null }, "geometry": { "type": "Point", "coordinates": [ -91.112542216101957, 30.434767499798376 ] } },
{ "type": "Feature", "properties": { "ID": 37, "BUSINESS_NAME": "LAKE AFTER HOURS -PERKINS", "FULL_ADDRESS": "12525 PERKINS RD, STE A", "CITY": "BATON ROUGE", "STATE": "LOUISIANA", "ZIP": 70810, "PHONE_NUMBER": "225-819-8857", "WEBSITE": "http://lakeafterhours.com/" }, "geometry": { "type": "Point", "coordinates": [ -91.07846973022103, 30.370205691784328 ] } },
{ "type": "Feature", "properties": { "ID": 38, "BUSINESS_NAME": "LAKE AFTER HOURS-ONEAL LN", "FULL_ADDRESS": "2380 O'NEAL LN, STE E", "CITY": "BATON ROUGE", "STATE": "LOUISIANA", "ZIP": 70816, "PHONE_NUMBER": "225-765-0780", "WEBSITE": "http://lakeafterhours.com/" }, "geometry": { "type": "Point", "coordinates": [ -91.00854046336633, 30.434936631809009 ] } },
{ "type": "Feature", "properties": { "ID": 39, "BUSINESS_NAME": "MICHAEL J SUNSERI LCSW ACSW LLC", "FULL_ADDRESS": "4521 JAMESTOWN AVE, STE 1", "CITY": "BATON ROUGE", "STATE": "LOUISIANA", "ZIP": 70808, "PHONE_NUMBER": null, "WEBSITE": null }, "geometry": { "type": "Point", "coordinates": [ -91.138566580897148, 30.421105207579572 ] } },
{ "type": "Feature", "properties": { "ID": 40, "BUSINESS_NAME": "THE EMERGE CENTER", "FULL_ADDRESS": "7784 INNOVATION PARK DR", "CITY": "BATON ROUGE", "STATE": "LOUISIANA", "ZIP": 70820, "PHONE_NUMBER": null, "WEBSITE": "http://emergela.org/" }, "geometry": { "type": "Point", "coordinates": [ -91.142265270129684, 30.361611486322914 ] } },
{ "type": "Feature", "properties": { "ID": 41, "BUSINESS_NAME": "BATON ROUGE AZMEH CLINIC", "FULL_ADDRESS": "4890 BLUEBONNET BLVD", "CITY": "BATON ROUGE", "STATE": "LOUISIANA", "ZIP": 70809, "PHONE_NUMBER": null, "WEBSITE": "http://hivcare.org/ " }, "geometry": { "type": "Point", "coordinates": [ -91.081835598217182, 30.40505098833809 ] } },
{ "type": "Feature", "properties": { "ID": 42, "BUSINESS_NAME": "LAKE SENIOR CARE CENTER", "FULL_ADDRESS": "5247 DIDESSE DR", "CITY": "BATON ROUGE", "STATE": "LOUISIANA", "ZIP": 70808, "PHONE_NUMBER": "225-765-3076", "WEBSITE": "http://ololrmc.com/body.cfm?id=336" }, "geometry": { "type": "Point", "coordinates": [ -91.110292635677226, 30.402082939895294 ] } },
{ "type": "Feature", "properties": { "ID": 43, "BUSINESS_NAME": "UTOPIAN HEALTH & WELLNESS INC", "FULL_ADDRESS": "8220 GOODWOOD BLVD", "CITY": "BATON ROUGE", "STATE": "LOUISIANA", "ZIP": 70806, "PHONE_NUMBER": "225-272-4447", "WEBSITE": "http://utopianhealth.com/" }, "geometry": { "type": "Point", "coordinates": [ -91.102194252626859, 30.441933538181033 ] } },
{ "type": "Feature", "properties": { "ID": 44, "BUSINESS_NAME": "KELLEY MASSENGALE LCSW BACS", "FULL_ADDRESS": "7474 HIGHLAND RD", "CITY": "BATON ROUGE", "STATE": "LOUISIANA", "ZIP": 70808, "PHONE_NUMBER": null, "WEBSITE": null }, "geometry": { "type": "Point", "coordinates": [ -91.137889089615939, 30.376525895724601 ] } },
{ "type": "Feature", "properties": { "ID": 45, "BUSINESS_NAME": "DAVID O ROUGEAU LCSW", "FULL_ADDRESS": "6065 CHANDLER DR", "CITY": "BATON ROUGE", "STATE": "LOUISIANA", "ZIP": 70808, "PHONE_NUMBER": null, "WEBSITE": null }, "geometry": { "type": "Point", "coordinates": [ -91.147330438815317, 30.395508816394894 ] } },
{ "type": "Feature", "properties": { "ID": 46, "BUSINESS_NAME": "BATON ROUGE RADIOLOGY GROUP", "FULL_ADDRESS": "2550 O'NEAL LN", "CITY": "BATON ROUGE", "STATE": "LOUISIANA", "ZIP": 70816, "PHONE_NUMBER": "225-769-9337", "WEBSITE": "http://brrg.com/" }, "geometry": { "type": "Point", "coordinates": [ -91.008530815178915, 30.431500451141662 ] } },
{ "type": "Feature", "properties": { "ID": 47, "BUSINESS_NAME": "MAISON DES AMIS", "FULL_ADDRESS": "1050 CONVENTION ST", "CITY": "BATON ROUGE", "STATE": "LOUISIANA", "ZIP": 70802, "PHONE_NUMBER": "225-343-3827", "WEBSITE": null }, "geometry": { "type": "Point", "coordinates": [ -91.178809539717747, 30.448282204614532 ] } },
{ "type": "Feature", "properties": { "ID": 48, "BUSINESS_NAME": "ASPEN CLINIC", "FULL_ADDRESS": "11445 COURSEY BLVD, STE L", "CITY": "BATON ROUGE", "STATE": "LOUISIANA", "ZIP": 70816, "PHONE_NUMBER": "225-273-8988", "WEBSITE": "http://theaspenclinic.com/" }, "geometry": { "type": "Point", "coordinates": [ -91.054820730561175, 30.412133151649378 ] } },
{ "type": "Feature", "properties": { "ID": 49, "BUSINESS_NAME": "LOUISIANA FEDERATION OF FAMILIES FOR CHILDREN'S MENTAL HEALTH", "FULL_ADDRESS": "5627 SUPERIOR DR, STE A2", "CITY": "BATON ROUGE", "STATE": "LOUISIANA", "ZIP": 70816, "PHONE_NUMBER": "225-293-3508", "WEBSITE": "http://laffcmh.org/" }, "geometry": { "type": "Point", "coordinates": [ -91.048684735124581, 30.4040549855753 ] } },
{ "type": "Feature", "properties": { "ID": 50, "BUSINESS_NAME": "FMC DIALYSIS CENTER", "FULL_ADDRESS": "2661 NORTH BLVD", "CITY": "BATON ROUGE", "STATE": "LOUISIANA", "ZIP": 70806, "PHONE_NUMBER": "225-357-9055", "WEBSITE": null }, "geometry": { "type": "Point", "coordinates": [ -91.1612082201368, 30.44837832433803 ] } },
{ "type": "Feature", "properties": { "ID": 51, "BUSINESS_NAME": "CARE SOUTH", "FULL_ADDRESS": "3140 FLORIDA ST", "CITY": "BATON ROUGE", "STATE": "LOUISIANA", "ZIP": 70806, "PHONE_NUMBER": "225-650-2000", "WEBSITE": "http://caresouth.org/" }, "geometry": { "type": "Point", "coordinates": [ -91.156185435465375, 30.45002642961969 ] } },
{ "type": "Feature", "properties": { "ID": 52, "BUSINESS_NAME": "B M A NORTH BLVD DIALYSIS CENTER", "FULL_ADDRESS": "2661 NORTH BLVD", "CITY": "BATON ROUGE", "STATE": "LOUISIANA", "ZIP": 70806, "PHONE_NUMBER": "225-387-5777", "WEBSITE": "http://fmcna.com/fmcna/index.htm" }, "geometry": { "type": "Point", "coordinates": [ -91.1612082201368, 30.44837832433803 ] } },
{ "type": "Feature", "properties": { "ID": 53, "BUSINESS_NAME": "CARE SOUTH", "FULL_ADDRESS": "3111 FLORIDA ST", "CITY": "BATON ROUGE", "STATE": "LOUISIANA", "ZIP": 70802, "PHONE_NUMBER": "225-650-2000", "WEBSITE": "http://caresouth.org/" }, "geometry": { "type": "Point", "coordinates": [ -91.157028397184774, 30.450526467743511 ] } },
{ "type": "Feature", "properties": { "ID": 54, "BUSINESS_NAME": "CAPITOL CITY FAMILY HEALTH CENTER WIC CLINIC", "FULL_ADDRESS": "4142 GUS YOUNG AVE", "CITY": "BATON ROUGE", "STATE": "LOUISIANA", "ZIP": 70802, "PHONE_NUMBER": "225-388-5861", "WEBSITE": null }, "geometry": { "type": "Point", "coordinates": [ -91.149159342482733, 30.461720069102743 ] } },
{ "type": "Feature", "properties": { "ID": 55, "BUSINESS_NAME": "FMC DIALYSIS CENTER", "FULL_ADDRESS": "7707 HOWELL BLVD", "CITY": "BATON ROUGE", "STATE": "LOUISIANA", "ZIP": 70807, "PHONE_NUMBER": "225-357-9055", "WEBSITE": null }, "geometry": { "type": "Point", "coordinates": [ -91.154597018732005, 30.515620332141552 ] } },
{ "type": "Feature", "properties": { "ID": 56, "BUSINESS_NAME": "DAVITA", "FULL_ADDRESS": "2902 FLORIDA ST", "CITY": "BATON ROUGE", "STATE": "LOUISIANA", "ZIP": 70806, "PHONE_NUMBER": "225-226-1444", "WEBSITE": "http://davita.com/" }, "geometry": { "type": "Point", "coordinates": [ -91.158876451863875, 30.450003823764266 ] } },
{ "type": "Feature", "properties": { "ID": 57, "BUSINESS_NAME": "FMC DIALYSIS CENTER", "FULL_ADDRESS": "7656 REALTORS AVE", "CITY": "BATON ROUGE", "STATE": "LOUISIANA", "ZIP": 70806, "PHONE_NUMBER": "225-216-0388", "WEBSITE": "http://ultracare-dialysis.com/" }, "geometry": { "type": "Point", "coordinates": [ -91.110352774168632, 30.455303947574198 ] } },
{ "type": "Feature", "properties": { "ID": 58, "BUSINESS_NAME": "OCEAN'S INTENSIVE OUTPATIENT", "FULL_ADDRESS": "1335 WOODDALE BLVD", "CITY": "BATON ROUGE", "STATE": "LOUISIANA", "ZIP": 70806, "PHONE_NUMBER": "225-928-4969", "WEBSITE": "http://obhbr.info/services/intensive-outpatient-program/" }, "geometry": { "type": "Point", "coordinates": [ -91.110983587738033, 30.460020350079922 ] } },
{ "type": "Feature", "properties": { "ID": 59, "BUSINESS_NAME": "LAKE PEDIATRICS AT GOODWOOD", "FULL_ADDRESS": "8415 GOODWOOD BLVD", "CITY": "BATON ROUGE", "STATE": "LOUISIANA", "ZIP": 70806, "PHONE_NUMBER": "225-765-5633", "WEBSITE": "http://ololphysiciangroup.com/body.cfm?xyzpdqabc=0&id=72&action=detail&ref=47" }, "geometry": { "type": "Point", "coordinates": [ -91.098353698396949, 30.443762442569533 ] } },
{ "type": "Feature", "properties": { "ID": 60, "BUSINESS_NAME": "FMC DIALYSIS CENTER", "FULL_ADDRESS": "1919 N FOSTER DR", "CITY": "BATON ROUGE", "STATE": "LOUISIANA", "ZIP": 70802, "PHONE_NUMBER": "225-357-9055", "WEBSITE": null }, "geometry": { "type": "Point", "coordinates": [ -91.140183792067489, 30.466496723109806 ] } },
{ "type": "Feature", "properties": { "ID": 61, "BUSINESS_NAME": "LOUISIANA FEDERATION OF FAMILIES FOR CHILDREN'S MENTAL HEALTH", "FULL_ADDRESS": "5637 SUPERIOR DR, STE B1", "CITY": "BATON ROUGE", "STATE": "LOUISIANA", "ZIP": 70816, "PHONE_NUMBER": "225-293-3508", "WEBSITE": "http://laffcmh.org/" }, "geometry": { "type": "Point", "coordinates": [ -91.04875466596387, 30.403902028536884 ] } },
{ "type": "Feature", "properties": { "ID": 62, "BUSINESS_NAME": "OCHSNER HEALTH CENTER ONEAL", "FULL_ADDRESS": "16777 MEDICAL CENTER DR", "CITY": "BATON ROUGE", "STATE": "LOUISIANA", "ZIP": 70816, "PHONE_NUMBER": null, "WEBSITE": "https://ochsner.org/" }, "geometry": { "type": "Point", "coordinates": [ -91.002491463684535, 30.442054520760824 ] } },
{ "type": "Feature", "properties": { "ID": 63, "BUSINESS_NAME": "THE C&B GROUP LLC", "FULL_ADDRESS": "9151 INTERLINE AVE", "CITY": "BATON ROUGE", "STATE": "LOUISIANA", "ZIP": 70809, "PHONE_NUMBER": "225-636-2601", "WEBSITE": null }, "geometry": { "type": "Point", "coordinates": [ -91.083835038544024, 30.421032427164906 ] } },
{ "type": "Feature", "properties": { "ID": 64, "BUSINESS_NAME": "TOTAL OCCUPATIONAL MEDICINE", "FULL_ADDRESS": "3333 DRUSILLA LN", "CITY": "BATON ROUGE", "STATE": "LOUISIANA", "ZIP": 70809, "PHONE_NUMBER": "225-924-4460", "WEBSITE": "http://totaloccmed.com/" }, "geometry": { "type": "Point", "coordinates": [ -91.088262313542558, 30.419537160402843 ] } },
{ "type": "Feature", "properties": { "ID": 65, "BUSINESS_NAME": "LAKE AFTER HOURS DRUSILLA", "FULL_ADDRESS": "3333 DRUSILLA LN", "CITY": "BATON ROUGE", "STATE": "LOUISIANA", "ZIP": 70809, "PHONE_NUMBER": "225-924-3906", "WEBSITE": "http://lakeafterhours.com/" }, "geometry": { "type": "Point", "coordinates": [ -91.088262313542558, 30.419537160402843 ] } },
{ "type": "Feature", "properties": { "ID": 66, "BUSINESS_NAME": "DAVITA", "FULL_ADDRESS": "1333 O'NEAL LN", "CITY": "BATON ROUGE", "STATE": "LOUISIANA", "ZIP": 70816, "PHONE_NUMBER": "225-226-1444", "WEBSITE": "http://davita.com/" }, "geometry": { "type": "Point", "coordinates": [ -91.007492458397877, 30.45009446766031 ] } },
{ "type": "Feature", "properties": { "ID": 67, "BUSINESS_NAME": "RUNNYMEDE CLINIC", "FULL_ADDRESS": "2320 DRUSILLA LN", "CITY": "BATON ROUGE", "STATE": "LOUISIANA", "ZIP": 70809, "PHONE_NUMBER": "225-924-7500", "WEBSITE": null }, "geometry": { "type": "Point", "coordinates": [ -91.084379988517739, 30.429170958567685 ] } },
{ "type": "Feature", "properties": { "ID": 68, "BUSINESS_NAME": "SUSAN G. KOMEN BATON ROUGE", "FULL_ADDRESS": "6120 PERKINS RD", "CITY": "BATON ROUGE", "STATE": "LOUISIANA", "ZIP": 70808, "PHONE_NUMBER": null, "WEBSITE": "http://komenbatonrouge.org/" }, "geometry": { "type": "Point", "coordinates": [ -91.126095081638866, 30.407054865445247 ] } },
{ "type": "Feature", "properties": { "ID": 69, "BUSINESS_NAME": "FIRST CHOICE SURGERY CENTER", "FULL_ADDRESS": "505 E AIRPORT AVE", "CITY": "BATON ROUGE", "STATE": "LOUISIANA", "ZIP": 70806, "PHONE_NUMBER": "225-923-2448", "WEBSITE": null }, "geometry": { "type": "Point", "coordinates": [ -91.101569613920446, 30.446596127119953 ] } },
{ "type": "Feature", "properties": { "ID": 70, "BUSINESS_NAME": "NATURAL THERAPIES CENTER", "FULL_ADDRESS": "888 TARA BLVD", "CITY": "BATON ROUGE", "STATE": "LOUISIANA", "ZIP": 70806, "PHONE_NUMBER": "225-928-7411", "WEBSITE": null }, "geometry": { "type": "Point", "coordinates": [ -91.096357534068332, 30.442200462933357 ] } },
{ "type": "Feature", "properties": { "ID": 71, "BUSINESS_NAME": "CHILDRENS HOSPITAL OUTPATIENT CENTER", "FULL_ADDRESS": "720 CONNELL'S PARK LN", "CITY": "BATON ROUGE", "STATE": "LOUISIANA", "ZIP": 70806, "PHONE_NUMBER": "225-216-3047", "WEBSITE": "http://chnola.org/locations-contacts" }, "geometry": { "type": "Point", "coordinates": [ -91.096434582573323, 30.444792321117625 ] } },
{ "type": "Feature", "properties": { "ID": 72, "BUSINESS_NAME": "OASIS BEHAVIORAL HEALTH LLC", "FULL_ADDRESS": "717 S FOSTER DR", "CITY": "BATON ROUGE", "STATE": "LOUISIANA", "ZIP": 70806, "PHONE_NUMBER": "225-389-6110", "WEBSITE": "http://oasisbehavioralhealth.com/" }, "geometry": { "type": "Point", "coordinates": [ -91.13820934365711, 30.442389403450342 ] } },
{ "type": "Feature", "properties": { "ID": 73, "BUSINESS_NAME": "OUTPATIENT SURGERY CENTER", "FULL_ADDRESS": "550 CONNELL'S PARK LN", "CITY": "BATON ROUGE", "STATE": "LOUISIANA", "ZIP": 70806, "PHONE_NUMBER": "225-925-2031", "WEBSITE": null }, "geometry": { "type": "Point", "coordinates": [ -91.096534286093998, 30.446681644309528 ] } },
{ "type": "Feature", "properties": { "ID": 74, "BUSINESS_NAME": "WILLIAMSON EYE CENTER THE", "FULL_ADDRESS": "550 CONNELL'S PARK LN", "CITY": "BATON ROUGE", "STATE": "LOUISIANA", "ZIP": 70806, "PHONE_NUMBER": "225-924-2020", "WEBSITE": "http://williamsoneyectr.com/" }, "geometry": { "type": "Point", "coordinates": [ -91.096534286093998, 30.446681644309528 ] } },
{ "type": "Feature", "properties": { "ID": 75, "BUSINESS_NAME": "URGENT CARE OF B R PMB", "FULL_ADDRESS": "600 COLONIAL DR", "CITY": "BATON ROUGE", "STATE": "LOUISIANA", "ZIP": 70806, "PHONE_NUMBER": "225-927-6368", "WEBSITE": "http://new.dhh.louisiana.gov/index.cfm/directory/detail/3067" }, "geometry": { "type": "Point", "coordinates": [ -91.098833266579391, 30.445246003716548 ] } },
{ "type": "Feature", "properties": { "ID": 76, "BUSINESS_NAME": "DAVITA", "FULL_ADDRESS": "7797 HOWELL BLVD", "CITY": "BATON ROUGE", "STATE": "LOUISIANA", "ZIP": 70807, "PHONE_NUMBER": "225-226-1444", "WEBSITE": "http://davita.com/" }, "geometry": { "type": "Point", "coordinates": [ -91.155012593767381, 30.517588461271451 ] } },
{ "type": "Feature", "properties": { "ID": 77, "BUSINESS_NAME": "21ST CARE", "FULL_ADDRESS": "8841 BLUEBONNET BLVD", "CITY": "BATON ROUGE", "STATE": "LOUISIANA", "ZIP": 70810, "PHONE_NUMBER": "225-766-2029", "WEBSITE": "http://21stcare.com/" }, "geometry": { "type": "Point", "coordinates": [ -91.102896565301037, 30.368429699701309 ] } },
{ "type": "Feature", "properties": { "ID": 78, "BUSINESS_NAME": "PARRIS CARDIOVASCULAR CENTER", "FULL_ADDRESS": "236 WABASH BLVD", "CITY": "BATON ROUGE", "STATE": "LOUISIANA", "ZIP": 70806, "PHONE_NUMBER": "225-757-6700", "WEBSITE": "http://parriscardio.net/" }, "geometry": { "type": "Point", "coordinates": [ -91.150926754032724, 30.449971399238873 ] } },
{ "type": "Feature", "properties": { "ID": 79, "BUSINESS_NAME": "NAMI LOUISIANA", "FULL_ADDRESS": "5534 GALERIA DR", "CITY": "BATON ROUGE", "STATE": "LOUISIANA", "ZIP": 70816, "PHONE_NUMBER": "225-291-6262", "WEBSITE": "http://namilouisiana.org/" }, "geometry": { "type": "Point", "coordinates": [ -91.050647215596413, 30.404561090938049 ] } },
{ "type": "Feature", "properties": { "ID": 80, "BUSINESS_NAME": "SHERWOOD FOOT CARE CENTER", "FULL_ADDRESS": "14635 S HARRELL'S FERRY RD, STE 3", "CITY": "BATON ROUGE", "STATE": "LOUISIANA", "ZIP": 70816, "PHONE_NUMBER": "225-753-4994", "WEBSITE": null }, "geometry": { "type": "Point", "coordinates": [ -91.022819578878341, 30.430376830847141 ] } },
{ "type": "Feature", "properties": { "ID": 81, "BUSINESS_NAME": "BAYOU COMMUNITY HEALTH CENTER", "FULL_ADDRESS": "4560 NORTH BLVD", "CITY": "BATON ROUGE", "STATE": "LOUISIANA", "ZIP": 70806, "PHONE_NUMBER": "225-361-0089", "WEBSITE": "http://bayoucommunityhealth.com/" }, "geometry": { "type": "Point", "coordinates": [ -91.141800652499285, 30.447046730277002 ] } },
{ "type": "Feature", "properties": { "ID": 82, "BUSINESS_NAME": "SUSAN VOS DUPREE LCSW", "FULL_ADDRESS": "10431 SIEGEN LN", "CITY": "BATON ROUGE", "STATE": "LOUISIANA", "ZIP": 70810, "PHONE_NUMBER": null, "WEBSITE": null }, "geometry": { "type": "Point", "coordinates": [ -91.081564104026938, 30.352869627484708 ] } },
{ "type": "Feature", "properties": { "ID": 83, "BUSINESS_NAME": "BROADMOOR MEDICAL CLINIC", "FULL_ADDRESS": "9936 FLORIDA BLVD", "CITY": "BATON ROUGE", "STATE": "LOUISIANA", "ZIP": 70815, "PHONE_NUMBER": "225-927-8772", "WEBSITE": null }, "geometry": { "type": "Point", "coordinates": [ -91.07487384794527, 30.455300836656821 ] } },
{ "type": "Feature", "properties": { "ID": 84, "BUSINESS_NAME": "GULF COAST OCCUPATIONAL MEDICINE", "FULL_ADDRESS": "8180 SIEGEN LN", "CITY": "BATON ROUGE", "STATE": "LOUISIANA", "ZIP": 70810, "PHONE_NUMBER": "225-753-7233", "WEBSITE": "http://gulfcoastoccmed.com/Information/Contact" }, "geometry": { "type": "Point", "coordinates": [ -91.071507936553672, 30.374584016399343 ] } },
{ "type": "Feature", "properties": { "ID": 85, "BUSINESS_NAME": "WOMAN'S HOSPITAL", "FULL_ADDRESS": "100 WOMAN'S WAY", "CITY": "BATON ROUGE", "STATE": "LOUISIANA", "ZIP": 70817, "PHONE_NUMBER": "225-924-8156", "WEBSITE": "http://womans.org/" }, "geometry": { "type": "Point", "coordinates": [ -91.038715730329955, 30.3854940369751 ] } },
{ "type": "Feature", "properties": { "ID": 86, "BUSINESS_NAME": "OCHSNER HEALTH CENTER ONEAL", "FULL_ADDRESS": "17000 MEDICAL CENTER DR", "CITY": "BATON ROUGE", "STATE": "LOUISIANA", "ZIP": 70816, "PHONE_NUMBER": null, "WEBSITE": "https://ochsner.org/" }, "geometry": { "type": "Point", "coordinates": [ -91.000005068393932, 30.442651207279905 ] } },
{ "type": "Feature", "properties": { "ID": 87, "BUSINESS_NAME": "RENEE WILKINSON DAVIS LCSW BAC", "FULL_ADDRESS": "8235 YMCA PLAZA DR", "CITY": "BATON ROUGE", "STATE": "LOUISIANA", "ZIP": 70810, "PHONE_NUMBER": null, "WEBSITE": null }, "geometry": { "type": "Point", "coordinates": [ -91.075874137539941, 30.371446619011078 ] } },
{ "type": "Feature", "properties": { "ID": 88, "BUSINESS_NAME": "ADVANCED SURGICAL CARE OF BR LLC", "FULL_ADDRESS": "7310 PERKINS RD", "CITY": "BATON ROUGE", "STATE": "LOUISIANA", "ZIP": 70808, "PHONE_NUMBER": "225-236-3100", "WEBSITE": null }, "geometry": { "type": "Point", "coordinates": [ -91.113084127427513, 30.396822636785583 ] } },
{ "type": "Feature", "properties": { "ID": 89, "BUSINESS_NAME": "AESTHETIC MEDICINE & ANTI AGING CLINICS OF LA LLC", "FULL_ADDRESS": "8940 BLUEBONNET BLVD", "CITY": "BATON ROUGE", "STATE": "LOUISIANA", "ZIP": 70810, "PHONE_NUMBER": "225-753-1234", "WEBSITE": "http://theantiagingclinics.com/" }, "geometry": { "type": "Point", "coordinates": [ -91.104294076988083, 30.368123183507027 ] } },
{ "type": "Feature", "properties": { "ID": 90, "BUSINESS_NAME": "B M A PICARDY KIDNEY CENTER", "FULL_ADDRESS": "7638 PICARDY AVE, STE B", "CITY": "BATON ROUGE", "STATE": "LOUISIANA", "ZIP": 70808, "PHONE_NUMBER": "225-767-3556", "WEBSITE": "http://fmcna.com/fmcna/index.htm" }, "geometry": { "type": "Point", "coordinates": [ -91.109731458544445, 30.399083999265745 ] } },
{ "type": "Feature", "properties": { "ID": 91, "BUSINESS_NAME": "BATON ROUGE ORTHOPAEDIC CLINIC", "FULL_ADDRESS": "8080 BLUEBONNET BLVD", "CITY": "BATON ROUGE", "STATE": "LOUISIANA", "ZIP": 70810, "PHONE_NUMBER": "225-924-2424", "WEBSITE": "http://brortho.com/" }, "geometry": { "type": "Point", "coordinates": [ -91.10050728854759, 30.376485425941517 ] } },
{ "type": "Feature", "properties": { "ID": 92, "BUSINESS_NAME": "SURGICAL SPECIALTY CTR OF BR", "FULL_ADDRESS": "8080 BLUEBONNET BLVD", "CITY": "BATON ROUGE", "STATE": "LOUISIANA", "ZIP": 70810, "PHONE_NUMBER": "225-381-0006", "WEBSITE": "http://sscbr.com/" }, "geometry": { "type": "Point", "coordinates": [ -91.10050728854759, 30.376485425941517 ] } },
{ "type": "Feature", "properties": { "ID": 93, "BUSINESS_NAME": "NOVAMED SURGERY CENTER OF BATON ROUGE INTERVENTIONAL PAIN MANAGEMENT CENTER", "FULL_ADDRESS": "8748 BLUEBONNET BLVD", "CITY": "BATON ROUGE", "STATE": "LOUISIANA", "ZIP": 70810, "PHONE_NUMBER": "225-329-2900", "WEBSITE": "http://novamedbr.com/" }, "geometry": { "type": "Point", "coordinates": [ -91.102585501570061, 30.370714929426597 ] } },
{ "type": "Feature", "properties": { "ID": 94, "BUSINESS_NAME": "BATON ROUGE PHYSICAL MEDICINE LLC", "FULL_ADDRESS": "8149 FLORIDA BLVD, STE 300", "CITY": "BATON ROUGE", "STATE": "LOUISIANA", "ZIP": 70806, "PHONE_NUMBER": "225-924-2555", "WEBSITE": "http://batonrougephysicalmedicine.com/" }, "geometry": { "type": "Point", "coordinates": [ -91.102827599676559, 30.452660321239303 ] } },
{ "type": "Feature", "properties": { "ID": 95, "BUSINESS_NAME": "MAGGIE SHAVER LCSW LLC", "FULL_ADDRESS": "10431 SIEGEN LN, STE 103", "CITY": "BATON ROUGE", "STATE": "LOUISIANA", "ZIP": 70810, "PHONE_NUMBER": null, "WEBSITE": null }, "geometry": { "type": "Point", "coordinates": [ -91.081398845913455, 30.352904519790993 ] } },
{ "type": "Feature", "properties": { "ID": 96, "BUSINESS_NAME": "FAMILY CHIROPRACTIC CLINIC INC", "FULL_ADDRESS": "3855 N ACADIAN THWY", "CITY": "BATON ROUGE", "STATE": "LOUISIANA", "ZIP": 70805, "PHONE_NUMBER": "225-356-4449", "WEBSITE": "http://drplantzdc.com/" }, "geometry": { "type": "Point", "coordinates": [ -91.157017159377617, 30.484136653111566 ] } },
{ "type": "Feature", "properties": { "ID": 97, "BUSINESS_NAME": "CORE CLINICS LLC", "FULL_ADDRESS": "10059 N RIEGER RD", "CITY": "BATON ROUGE", "STATE": "LOUISIANA", "ZIP": 70809, "PHONE_NUMBER": "225-456-2330", "WEBSITE": "http://coreoccupational.com/home" }, "geometry": { "type": "Point", "coordinates": [ -91.068367438399875, 30.385196711297308 ] } },
{ "type": "Feature", "properties": { "ID": 98, "BUSINESS_NAME": "LAKE AFTER HOURS-HIGHLAND", "FULL_ADDRESS": "123 LEE DR", "CITY": "BATON ROUGE", "STATE": "LOUISIANA", "ZIP": 70808, "PHONE_NUMBER": "225-302-5757", "WEBSITE": "http://lakeafterhours.com/" }, "geometry": { "type": "Point", "coordinates": [ -91.159539287509077, 30.39472233434919 ] } },
{ "type": "Feature", "properties": { "ID": 99, "BUSINESS_NAME": "ALLIANCE HOUSE OF BATON ROUGE", "FULL_ADDRESS": "445 N 12TH ST", "CITY": "BATON ROUGE", "STATE": "LOUISIANA", "ZIP": 70802, "PHONE_NUMBER": "225-987-0013", "WEBSITE": "http://mhagbr.com/index.php/alliance-house-drop-in-center" }, "geometry": { "type": "Point", "coordinates": [ -91.1779691436831, 30.451432729743505 ] } },
{ "type": "Feature", "properties": { "ID": 100, "BUSINESS_NAME": "MICHELE HORNSBY LCSW ACSW", "FULL_ADDRESS": "1651 THIBODEAUX AVE", "CITY": "BATON ROUGE", "STATE": "LOUISIANA", "ZIP": 70806, "PHONE_NUMBER": null, "WEBSITE": null }, "geometry": { "type": "Point", "coordinates": [ -91.113371158814715, 30.434729622578431 ] } },
{ "type": "Feature", "properties": { "ID": 101, "BUSINESS_NAME": "OCHSNER HEALTH CENTER JEFFERSON PLACE", "FULL_ADDRESS": "8150 JEFFERSON HWY", "CITY": "BATON ROUGE", "STATE": "LOUISIANA", "ZIP": 70809, "PHONE_NUMBER": null, "WEBSITE": "https://ochsner.org/" }, "geometry": { "type": "Point", "coordinates": [ -91.103143904625995, 30.42264753023796 ] } },
{ "type": "Feature", "properties": { "ID": 102, "BUSINESS_NAME": "LAKE AFTER HOURS", "FULL_ADDRESS": "8751 SULLIVAN RD", "CITY": "CENTRAL", "STATE": "LOUISIANA", "ZIP": 70818, "PHONE_NUMBER": "225-654-8850", "WEBSITE": "http://lakeafterhours.com/" }, "geometry": { "type": "Point", "coordinates": [ -91.028458522721365, 30.530877917733211 ] } },
{ "type": "Feature", "properties": { "ID": 103, "BUSINESS_NAME": "VILLA ST FRANCIS", "FULL_ADDRESS": "7575 BISHOP OTT DR", "CITY": "BATON ROUGE", "STATE": "LOUISIANA", "ZIP": 70806, "PHONE_NUMBER": "225-927-0070", "WEBSITE": "http://ololrmc.com/body.cfm?id=135&fr=true" }, "geometry": { "type": "Point", "coordinates": [ -91.110554233134636, 30.457999676059131 ] } },
{ "type": "Feature", "properties": { "ID": 104, "BUSINESS_NAME": "LAKE AFTER HOURS", "FULL_ADDRESS": "18989 OLD SCENIC HWY", "CITY": "ZACHARY", "STATE": "LOUISIANA", "ZIP": 70791, "PHONE_NUMBER": "225-654-8850", "WEBSITE": "http://lakeafterhours.com/" }, "geometry": { "type": "Point", "coordinates": [ -91.194150384810939, 30.636055190641063 ] } },
{ "type": "Feature", "properties": { "ID": 105, "BUSINESS_NAME": "THE PEDIATRIC PLACE LLC", "FULL_ADDRESS": "18135 E PETROLEUM DR, STE A", "CITY": "BATON ROUGE", "STATE": "LOUISIANA", "ZIP": 70809, "PHONE_NUMBER": "225-765-5247", "WEBSITE": null }, "geometry": { "type": "Point", "coordinates": [ -91.020194037697095, 30.352352962430224 ] } }
]
}
