{
"type": "FeatureCollection",
"name": "Pharmacy",
"crs": { "type": "name", "properties": { "name": "urn:ogc:def:crs:OGC:1.3:CRS84" } },
"features": [
{ "type": "Feature", "properties": { "ID": 5024, "BUSINESS_NAME": "CVS PHARMACY #1116", "FULL_ADDRESS": "7777 BLUEBONNET BLVD, STE 100", "CITY": "BATON ROUGE", "STATE": "LOUISIANA", "ZIP": 70810, "PHONE_NUMBER": "225-766-9091", "WEBSITE": "http://cvs.com/", "RESOURCE_TYPE": "RETAIL", "SUB_RESOURCE_TYPE": "PHARMACY" }, "geometry": { "type": "Point", "coordinates": [ -91.097154661347801, 30.37929945524526 ] } },
{ "type": "Feature", "properties": { "ID": 5988, "BUSINESS_NAME": "WALGREENS #07795", "FULL_ADDRESS": "6515 SULLIVAN RD", "CITY": "GREENWELL SPRINGS", "STATE": "LOUISIANA", "ZIP": 70739, "PHONE_NUMBER": null, "WEBSITE": null, "RESOURCE_TYPE": "RETAIL", "SUB_RESOURCE_TYPE": "PHARMACY" }, "geometry": { "type": "Point", "coordinates": [ -91.030313533541047, 30.511566301989372 ] } },
{ "type": "Feature", "properties": { "ID": 6114, "BUSINESS_NAME": "WALGREENS #2995", "FULL_ADDRESS": "3550 GOVERNMENT ST", "CITY": "BATON ROUGE", "STATE": "LOUISIANA", "ZIP": 70806, "PHONE_NUMBER": "225-343-8878", "WEBSITE": "http://walgreens.com/", "RESOURCE_TYPE": "RETAIL", "SUB_RESOURCE_TYPE": "PHARMACY" }, "geometry": { "type": "Point", "coordinates": [ -91.153407040095644, 30.443843689204183 ] } },
{ "type": "Feature", "properties": { "ID": 17966, "BUSINESS_NAME": "CVS PHARMACY #5321", "FULL_ADDRESS": "1214 MAIN ST", "CITY": "BAKER", "STATE": "LOUISIANA", "ZIP": 70714, "PHONE_NUMBER": "225-778-1843", "WEBSITE": "http://cvs.com/", "RESOURCE_TYPE": "RETAIL", "SUB_RESOURCE_TYPE": "PHARMACY" }, "geometry": { "type": "Point", "coordinates": [ -91.167519540013458, 30.588783500744807 ] } },
{ "type": "Feature", "properties": { "ID": 19041, "BUSINESS_NAME": "FRANKLIN AVENUE PHARMACY", "FULL_ADDRESS": "7521 FLORIDA BLVD", "CITY": "BATON ROUGE", "STATE": "LOUISIANA", "ZIP": 70806, "PHONE_NUMBER": null, "WEBSITE": null, "RESOURCE_TYPE": "RETAIL", "SUB_RESOURCE_TYPE": "PHARMACY" }, "geometry": { "type": "Point", "coordinates": [ -91.111097357246948, 30.452306607439933 ] } },
{ "type": "Feature", "properties": { "ID": 33904, "BUSINESS_NAME": "COMMUNITY PHARMACY", "FULL_ADDRESS": "9136 SCOTLAND AVE", "CITY": "BATON ROUGE", "STATE": "LOUISIANA", "ZIP": 70807, "PHONE_NUMBER": "(225) 775-6337", "WEBSITE": null, "RESOURCE_TYPE": "RETAIL", "SUB_RESOURCE_TYPE": "PHARMACY" }, "geometry": { "type": "Point", "coordinates": [ -91.179233018664092, 30.529203903886458 ] } },
{ "type": "Feature", "properties": { "ID": 35163, "BUSINESS_NAME": "EXPRESS PHARMACY", "FULL_ADDRESS": "3328 N FOSTER DR", "CITY": "BATON ROUGE", "STATE": "LOUISIANA", "ZIP": 70805, "PHONE_NUMBER": "(225) 302-5762", "WEBSITE": null, "RESOURCE_TYPE": "RETAIL", "SUB_RESOURCE_TYPE": "PHARMACY" }, "geometry": { "type": "Point", "coordinates": [ -91.140308552427257, 30.479334215099811 ] } },
{ "type": "Feature", "properties": { "ID": 35481, "BUSINESS_NAME": "CVS PHARMACY # 4761", "FULL_ADDRESS": "3200 HIGHLAND RD", "CITY": "BATON ROUGE", "STATE": "LOUISIANA", "ZIP": 70802, "PHONE_NUMBER": "225-388-9939", "WEBSITE": "http://cvs.com/", "RESOURCE_TYPE": "RETAIL", "SUB_RESOURCE_TYPE": "PHARMACY" }, "geometry": { "type": "Point", "coordinates": [ -91.177062882150594, 30.418950493411366 ] } },
{ "type": "Feature", "properties": { "ID": 41820, "BUSINESS_NAME": "WALGREENS #07836", "FULL_ADDRESS": "3671 JOOR RD", "CITY": "BATON ROUGE", "STATE": "LOUISIANA", "ZIP": 70814, "PHONE_NUMBER": "225-924-3880", "WEBSITE": "http://walgreens.com/", "RESOURCE_TYPE": "RETAIL", "SUB_RESOURCE_TYPE": "PHARMACY" }, "geometry": { "type": "Point", "coordinates": [ -91.090064424226838, 30.48410710314662 ] } },
{ "type": "Feature", "properties": { "ID": 45095, "BUSINESS_NAME": "CVS PHARMACY #5319", "FULL_ADDRESS": "5889 AIRLINE HWY", "CITY": "BATON ROUGE", "STATE": "LOUISIANA", "ZIP": 70812, "PHONE_NUMBER": null, "WEBSITE": null, "RESOURCE_TYPE": "RETAIL", "SUB_RESOURCE_TYPE": "PHARMACY" }, "geometry": { "type": "Point", "coordinates": [ -91.130971739815649, 30.502813980012082 ] } },
{ "type": "Feature", "properties": { "ID": 45098, "BUSINESS_NAME": "CVS PHARMACY #5319", "FULL_ADDRESS": "4919 AIRLINE HWY", "CITY": "BATON ROUGE", "STATE": "LOUISIANA", "ZIP": 70811, "PHONE_NUMBER": null, "WEBSITE": null, "RESOURCE_TYPE": "RETAIL", "SUB_RESOURCE_TYPE": "PHARMACY" }, "geometry": { "type": "Point", "coordinates": [ -91.141022297549213, 30.509149329571581 ] } },
{ "type": "Feature", "properties": { "ID": 46154, "BUSINESS_NAME": "WALGREENS # 06028", "FULL_ADDRESS": "9820 OLD HAMMOND HWY", "CITY": "BATON ROUGE", "STATE": "LOUISIANA", "ZIP": 70816, "PHONE_NUMBER": "225-248-1104", "WEBSITE": "http://walgreens.com/", "RESOURCE_TYPE": "RETAIL", "SUB_RESOURCE_TYPE": "PHARMACY" }, "geometry": { "type": "Point", "coordinates": [ -91.07960355780213, 30.431412056619212 ] } },
{ "type": "Feature", "properties": { "ID": 46804, "BUSINESS_NAME": "CVS PHARMACY #5615", "FULL_ADDRESS": "2520 PLANK RD", "CITY": "BATON ROUGE", "STATE": "LOUISIANA", "ZIP": 70805, "PHONE_NUMBER": "225-357-1484", "WEBSITE": "http://cvs.com/", "RESOURCE_TYPE": "RETAIL", "SUB_RESOURCE_TYPE": "PHARMACY" }, "geometry": { "type": "Point", "coordinates": [ -91.162945530053548, 30.470406899389143 ] } },
{ "type": "Feature", "properties": { "ID": 47297, "BUSINESS_NAME": "WOMAN'S HOSPITAL HOME HEALTH SERVICE", "FULL_ADDRESS": "7662 GOODWOOD BLVD", "CITY": "BATON ROUGE", "STATE": "LOUISIANA", "ZIP": 70806, "PHONE_NUMBER": "(225) 924-8174", "WEBSITE": null, "RESOURCE_TYPE": "RETAIL", "SUB_RESOURCE_TYPE": "PHARMACY" }, "geometry": { "type": "Point", "coordinates": [ -91.108795402852763, 30.441574539502032 ] } },
{ "type": "Feature", "properties": { "ID": 47460, "BUSINESS_NAME": "LG PHARMACY LLC", "FULL_ADDRESS": "9936 FLORIDA BLVD", "CITY": "BATON ROUGE", "STATE": "LOUISIANA", "ZIP": 70815, "PHONE_NUMBER": "(225) 927-9972", "WEBSITE": null, "RESOURCE_TYPE": "RETAIL", "SUB_RESOURCE_TYPE": "PHARMACY" }, "geometry": { "type": "Point", "coordinates": [ -91.07487384794527, 30.455300836656821 ] } },
{ "type": "Feature", "properties": { "ID": 48353, "BUSINESS_NAME": "WALGREENS #2996", "FULL_ADDRESS": "11297 FLORIDA BLVD", "CITY": "BATON ROUGE", "STATE": "LOUISIANA", "ZIP": 70815, "PHONE_NUMBER": "225-272-9769", "WEBSITE": "http://walgreens.com/", "RESOURCE_TYPE": "RETAIL", "SUB_RESOURCE_TYPE": "PHARMACY" }, "geometry": { "type": "Point", "coordinates": [ -91.058781540609885, 30.459245475184968 ] } },
{ "type": "Feature", "properties": { "ID": 49283, "BUSINESS_NAME": "BORDELONS SUPER SAVE INC", "FULL_ADDRESS": "6920 PLANK RD", "CITY": "BATON ROUGE", "STATE": "LOUISIANA", "ZIP": 70811, "PHONE_NUMBER": "(225) 356-0253", "WEBSITE": "http://bordelonssupersave.com", "RESOURCE_TYPE": "RETAIL", "SUB_RESOURCE_TYPE": "PHARMACY" }, "geometry": { "type": "Point", "coordinates": [ -91.147802526714386, 30.513269467600185 ] } },
{ "type": "Feature", "properties": { "ID": 49580, "BUSINESS_NAME": "WALGREENS #09860", "FULL_ADDRESS": "5955 AIRLINE HWY", "CITY": "BATON ROUGE", "STATE": "LOUISIANA", "ZIP": 70805, "PHONE_NUMBER": null, "WEBSITE": null, "RESOURCE_TYPE": "RETAIL", "SUB_RESOURCE_TYPE": "PHARMACY" }, "geometry": { "type": "Point", "coordinates": [ -91.130062124391443, 30.501761321108575 ] } },
{ "type": "Feature", "properties": { "ID": 53507, "BUSINESS_NAME": "WALGREENS #3047", "FULL_ADDRESS": "5112 ESSEN LN", "CITY": "BATON ROUGE", "STATE": "LOUISIANA", "ZIP": 70809, "PHONE_NUMBER": "225-769-7224", "WEBSITE": "http://walgreens.com/", "RESOURCE_TYPE": "RETAIL", "SUB_RESOURCE_TYPE": "PHARMACY" }, "geometry": { "type": "Point", "coordinates": [ -91.106096428936738, 30.401424244941264 ] } },
{ "type": "Feature", "properties": { "ID": 53695, "BUSINESS_NAME": "CVS PHARMACY #17177", "FULL_ADDRESS": "2001 MILLERVILLE RD", "CITY": "BATON ROUGE", "STATE": "LOUISIANA", "ZIP": 70816, "PHONE_NUMBER": null, "WEBSITE": null, "RESOURCE_TYPE": "RETAIL", "SUB_RESOURCE_TYPE": "PHARMACY" }, "geometry": { "type": "Point", "coordinates": [ -91.022223987602928, 30.441195198756649 ] } },
{ "type": "Feature", "properties": { "ID": 55570, "BUSINESS_NAME": "CVS PHARMACY #10318", "FULL_ADDRESS": "9326 BURBANK DR", "CITY": "BATON ROUGE", "STATE": "LOUISIANA", "ZIP": 70820, "PHONE_NUMBER": null, "WEBSITE": "http://cvs.com/", "RESOURCE_TYPE": "RETAIL", "SUB_RESOURCE_TYPE": "PHARMACY" }, "geometry": { "type": "Point", "coordinates": [ -91.123912697859353, 30.359642577723804 ] } },
{ "type": "Feature", "properties": { "ID": 56672, "BUSINESS_NAME": "MCGEE'S PHARMACY", "FULL_ADDRESS": "8080 BLUEBONNET BLVD", "CITY": "BATON ROUGE", "STATE": "LOUISIANA", "ZIP": 70810, "PHONE_NUMBER": "(225) 766-2121", "WEBSITE": null, "RESOURCE_TYPE": "RETAIL", "SUB_RESOURCE_TYPE": "PHARMACY" }, "geometry": { "type": "Point", "coordinates": [ -91.10050728854759, 30.376485425941517 ] } },
{ "type": "Feature", "properties": { "ID": 57769, "BUSINESS_NAME": "WALGREENS #3399", "FULL_ADDRESS": "7620 JEFFERSON HWY", "CITY": "BATON ROUGE", "STATE": "LOUISIANA", "ZIP": 70809, "PHONE_NUMBER": "225-292-6566", "WEBSITE": "http://walgreens.com/", "RESOURCE_TYPE": "RETAIL", "SUB_RESOURCE_TYPE": "PHARMACY" }, "geometry": { "type": "Point", "coordinates": [ -91.109514522552786, 30.430356974941983 ] } },
{ "type": "Feature", "properties": { "ID": 59814, "BUSINESS_NAME": "WALGREENS #07083", "FULL_ADDRESS": "9983 BLUEBONNET BLVD", "CITY": "BATON ROUGE", "STATE": "LOUISIANA", "ZIP": 70810, "PHONE_NUMBER": "225-769-4208", "WEBSITE": "http://walgreens.com/", "RESOURCE_TYPE": "RETAIL", "SUB_RESOURCE_TYPE": "PHARMACY" }, "geometry": { "type": "Point", "coordinates": [ -91.109533166308651, 30.354575928518862 ] } },
{ "type": "Feature", "properties": { "ID": 60510, "BUSINESS_NAME": "WALGREENS #3085", "FULL_ADDRESS": "14444 COURSEY BLVD", "CITY": "BATON ROUGE", "STATE": "LOUISIANA", "ZIP": 70817, "PHONE_NUMBER": "225-753-1499", "WEBSITE": "http://walgreens.com/", "RESOURCE_TYPE": "RETAIL", "SUB_RESOURCE_TYPE": "PHARMACY" }, "geometry": { "type": "Point", "coordinates": [ -91.016605576198387, 30.40824721308806 ] } },
{ "type": "Feature", "properties": { "ID": 62033, "BUSINESS_NAME": "WALGREENS #07440", "FULL_ADDRESS": "2001 O'NEAL LN", "CITY": "BATON ROUGE", "STATE": "LOUISIANA", "ZIP": 70816, "PHONE_NUMBER": "225-756-8536", "WEBSITE": "http://walgreens.com/", "RESOURCE_TYPE": "RETAIL", "SUB_RESOURCE_TYPE": "PHARMACY" }, "geometry": { "type": "Point", "coordinates": [ -91.006779386585777, 30.439282280509286 ] } },
{ "type": "Feature", "properties": { "ID": 63899, "BUSINESS_NAME": "CVS/PHARMACY #8961", "FULL_ADDRESS": "12880 AIRLINE HWY", "CITY": "BATON ROUGE", "STATE": "LOUISIANA", "ZIP": 70809, "PHONE_NUMBER": "225-751-3611", "WEBSITE": "http://cvs.com/", "RESOURCE_TYPE": "RETAIL", "SUB_RESOURCE_TYPE": "PHARMACY" }, "geometry": { "type": "Point", "coordinates": [ -91.039464124776345, 30.380934622446354 ] } },
{ "type": "Feature", "properties": { "ID": 64725, "BUSINESS_NAME": "INTERLINK PHARMACY", "FULL_ADDRESS": "8490 PICARDY AVE", "CITY": "BATON ROUGE", "STATE": "LOUISIANA", "ZIP": 70809, "PHONE_NUMBER": "(225) 767-1750", "WEBSITE": "http://generalhealth.org", "RESOURCE_TYPE": "RETAIL", "SUB_RESOURCE_TYPE": "PHARMACY" }, "geometry": { "type": "Point", "coordinates": [ -91.097200758927485, 30.392185202283901 ] } },
{ "type": "Feature", "properties": { "ID": 64977, "BUSINESS_NAME": "CVS PHARMACY 6124", "FULL_ADDRESS": "7411 FLORIDA BLVD", "CITY": "BATON ROUGE", "STATE": "LOUISIANA", "ZIP": 70806, "PHONE_NUMBER": "225-928-8982", "WEBSITE": "http://cvs.com/", "RESOURCE_TYPE": "RETAIL", "SUB_RESOURCE_TYPE": "PHARMACY" }, "geometry": { "type": "Point", "coordinates": [ -91.112726428761434, 30.452341938517474 ] } },
{ "type": "Feature", "properties": { "ID": 66587, "BUSINESS_NAME": "BATON ROUGE SPECIALTY PHARMACY", "FULL_ADDRESS": "141 OCEAN DR", "CITY": "BATON ROUGE", "STATE": "LOUISIANA", "ZIP": 70806, "PHONE_NUMBER": "(225) 929-9912", "WEBSITE": null, "RESOURCE_TYPE": "RETAIL", "SUB_RESOURCE_TYPE": "PHARMACY" }, "geometry": { "type": "Point", "coordinates": [ -91.114334164203939, 30.450676430101069 ] } },
{ "type": "Feature", "properties": { "ID": 66832, "BUSINESS_NAME": "WALGREENS # 06448", "FULL_ADDRESS": "4485 PERKINS RD", "CITY": "BATON ROUGE", "STATE": "LOUISIANA", "ZIP": 70808, "PHONE_NUMBER": "225-926-0734", "WEBSITE": "http://walgreens.com/", "RESOURCE_TYPE": "RETAIL", "SUB_RESOURCE_TYPE": "PHARMACY" }, "geometry": { "type": "Point", "coordinates": [ -91.143404416185604, 30.417215651618001 ] } },
{ "type": "Feature", "properties": { "ID": 68985, "BUSINESS_NAME": "WALGREENS #09518", "FULL_ADDRESS": "15929 AIRLINE HWY", "CITY": "BATON ROUGE", "STATE": "LOUISIANA", "ZIP": 70817, "PHONE_NUMBER": "225-752-2159", "WEBSITE": "http://walgreens.com/", "RESOURCE_TYPE": "RETAIL", "SUB_RESOURCE_TYPE": "PHARMACY" }, "geometry": { "type": "Point", "coordinates": [ -91.007213574991098, 30.359408225783099 ] } },
{ "type": "Feature", "properties": { "ID": 70084, "BUSINESS_NAME": "WALGREENS #2980", "FULL_ADDRESS": "4747 S SHERWOOD FOREST BLVD", "CITY": "BATON ROUGE", "STATE": "LOUISIANA", "ZIP": 70816, "PHONE_NUMBER": "225-292-8975", "WEBSITE": "http://walgreens.com/", "RESOURCE_TYPE": "RETAIL", "SUB_RESOURCE_TYPE": "PHARMACY" }, "geometry": { "type": "Point", "coordinates": [ -91.050989558563415, 30.410636816212193 ] } },
{ "type": "Feature", "properties": { "ID": 101887, "BUSINESS_NAME": "PRESCRIPTION COMPOUNDS", "FULL_ADDRESS": "5302 O'DONOVAN DR", "CITY": "BATON ROUGE", "STATE": "LOUISIANA", "ZIP": 70808, "PHONE_NUMBER": "(225) 766-9577", "WEBSITE": null, "RESOURCE_TYPE": "RETAIL", "SUB_RESOURCE_TYPE": "PHARMACY" }, "geometry": { "type": "Point", "coordinates": [ -91.113764041726299, 30.403281273792299 ] } },
{ "type": "Feature", "properties": { "ID": 102694, "BUSINESS_NAME": "THE SPINE HOSPITAL OF LOUISIANA AT THE NEUROMEDICAL CENTER", "FULL_ADDRESS": "10105 PARK ROWE CIR", "CITY": "BATON ROUGE", "STATE": "LOUISIANA", "ZIP": 70810, "PHONE_NUMBER": null, "WEBSITE": null, "RESOURCE_TYPE": "RETAIL", "SUB_RESOURCE_TYPE": "PHARMACY" }, "geometry": { "type": "Point", "coordinates": [ -91.094148417520316, 30.380177703633393 ] } },
{ "type": "Feature", "properties": { "ID": 117889, "BUSINESS_NAME": "MESSINAS PHARMACY INC", "FULL_ADDRESS": "15046 MARKET ST", "CITY": "BATON ROUGE", "STATE": "LOUISIANA", "ZIP": 70817, "PHONE_NUMBER": "(225) 753-2700", "WEBSITE": "http://medicineshoppe.com", "RESOURCE_TYPE": "RETAIL", "SUB_RESOURCE_TYPE": "PHARMACY" }, "geometry": { "type": "Point", "coordinates": [ -91.017931812857455, 30.40651555720471 ] } },
{ "type": "Feature", "properties": { "ID": 119688, "BUSINESS_NAME": "CVS PHARMACY #1116", "FULL_ADDRESS": "7777 BLUEBONNET BLVD", "CITY": "BATON ROUGE", "STATE": "LOUISIANA", "ZIP": 70810, "PHONE_NUMBER": "225-766-9091", "WEBSITE": "http://cvs.com/", "RESOURCE_TYPE": "RETAIL", "SUB_RESOURCE_TYPE": "PHARMACY" }, "geometry": { "type": "Point", "coordinates": [ -91.096912603666965, 30.379344669487224 ] } },
{ "type": "Feature", "properties": { "ID": 119694, "BUSINESS_NAME": "CVS PHARMACY", "FULL_ADDRESS": "7777 BLUEBONNET BLVD", "CITY": "BATON ROUGE", "STATE": "LOUISIANA", "ZIP": 70810, "PHONE_NUMBER": null, "WEBSITE": "http://cvs.com/", "RESOURCE_TYPE": "RETAIL", "SUB_RESOURCE_TYPE": "PHARMACY" }, "geometry": { "type": "Point", "coordinates": [ -91.096912603666965, 30.379344669487224 ] } },
{ "type": "Feature", "properties": { "ID": 131944, "BUSINESS_NAME": "WALGREENS #2982", "FULL_ADDRESS": "5450 PLANK RD", "CITY": "BATON ROUGE", "STATE": "LOUISIANA", "ZIP": 70805, "PHONE_NUMBER": "225-355-9782", "WEBSITE": "http://walgreens.com/", "RESOURCE_TYPE": "RETAIL", "SUB_RESOURCE_TYPE": "PHARMACY" }, "geometry": { "type": "Point", "coordinates": [ -91.152575344974125, 30.498954001931853 ] } },
{ "type": "Feature", "properties": { "ID": 143021, "BUSINESS_NAME": "LOUISIANA DISCOUNT PHARMACY", "FULL_ADDRESS": "3332 N FOSTER DR", "CITY": "BATON ROUGE", "STATE": "LOUISIANA", "ZIP": 70805, "PHONE_NUMBER": null, "WEBSITE": null, "RESOURCE_TYPE": "RETAIL", "SUB_RESOURCE_TYPE": "PHARMACY" }, "geometry": { "type": "Point", "coordinates": [ -91.140365802623791, 30.479594051799776 ] } },
{ "type": "Feature", "properties": { "ID": 166175, "BUSINESS_NAME": "CVS PHARMACY #16708", "FULL_ADDRESS": "6885 SIEGEN LN", "CITY": "BATON ROUGE", "STATE": "LOUISIANA", "ZIP": 70809, "PHONE_NUMBER": null, "WEBSITE": null, "RESOURCE_TYPE": "RETAIL", "SUB_RESOURCE_TYPE": "PHARMACY" }, "geometry": { "type": "Point", "coordinates": [ -91.061084912374852, 30.384713213325785 ] } },
{ "type": "Feature", "properties": { "ID": 166948, "BUSINESS_NAME": "WALGREENS #3610", "FULL_ADDRESS": "12881 PERKINS RD", "CITY": "BATON ROUGE", "STATE": "LOUISIANA", "ZIP": 70810, "PHONE_NUMBER": "225-763-6281", "WEBSITE": "http://walgreens.com/", "RESOURCE_TYPE": "RETAIL", "SUB_RESOURCE_TYPE": "PHARMACY" }, "geometry": { "type": "Point", "coordinates": [ -91.0748521331451, 30.368712350789014 ] } },
{ "type": "Feature", "properties": { "ID": 167872, "BUSINESS_NAME": "BATON ROUGE CENTRAL PHARMACY", "FULL_ADDRESS": "2380 O'NEAL LN, STE D", "CITY": "BATON ROUGE", "STATE": "LOUISIANA", "ZIP": 70816, "PHONE_NUMBER": "(225) 753-2727", "WEBSITE": "http://cardinal.com", "RESOURCE_TYPE": "RETAIL", "SUB_RESOURCE_TYPE": "PHARMACY" }, "geometry": { "type": "Point", "coordinates": [ -91.008235953269292, 30.435002833603527 ] } },
{ "type": "Feature", "properties": { "ID": 178963, "BUSINESS_NAME": "WALGREENS #13925", "FULL_ADDRESS": "5298 HIGHLAND RD", "CITY": "BATON ROUGE", "STATE": "LOUISIANA", "ZIP": 70808, "PHONE_NUMBER": "225-767-7003", "WEBSITE": "http://walgreens.com/", "RESOURCE_TYPE": "RETAIL", "SUB_RESOURCE_TYPE": "PHARMACY" }, "geometry": { "type": "Point", "coordinates": [ -91.16039144098977, 30.393819090411146 ] } },
{ "type": "Feature", "properties": { "ID": 184556, "BUSINESS_NAME": "PRESCRIPTIONS TO GEAUX", "FULL_ADDRESS": "313 3RD ST", "CITY": "BATON ROUGE", "STATE": "LOUISIANA", "ZIP": 70801, "PHONE_NUMBER": null, "WEBSITE": null, "RESOURCE_TYPE": "RETAIL", "SUB_RESOURCE_TYPE": "PHARMACY" }, "geometry": { "type": "Point", "coordinates": [ -91.188487375426249, 30.449658674841068 ] } },
{ "type": "Feature", "properties": { "ID": 184912, "BUSINESS_NAME": "BOLTONS HEALTH MART", "FULL_ADDRESS": "2958 PERKINS RD", "CITY": "BATON ROUGE", "STATE": "LOUISIANA", "ZIP": 70808, "PHONE_NUMBER": "(225) 343-4869", "WEBSITE": "http://healthmart.com", "RESOURCE_TYPE": "RETAIL", "SUB_RESOURCE_TYPE": "PHARMACY" }, "geometry": { "type": "Point", "coordinates": [ -91.158344965007913, 30.424630721081659 ] } },
{ "type": "Feature", "properties": { "ID": 185776, "BUSINESS_NAME": "PHARMACEUTICAL SPECIALTIES LLC", "FULL_ADDRESS": "5211 ESSEN LN", "CITY": "BATON ROUGE", "STATE": "LOUISIANA", "ZIP": 70809, "PHONE_NUMBER": "(225) 767-1655", "WEBSITE": null, "RESOURCE_TYPE": "RETAIL", "SUB_RESOURCE_TYPE": "PHARMACY" }, "geometry": { "type": "Point", "coordinates": [ -91.104472655956556, 30.399912029965069 ] } },
{ "type": "Feature", "properties": { "ID": 187199, "BUSINESS_NAME": "CVS PHARMACY #5343", "FULL_ADDRESS": "15255 GEORGE O'NEAL RD, STE A-B", "CITY": "BATON ROUGE", "STATE": "LOUISIANA", "ZIP": 70817, "PHONE_NUMBER": "225-752-3710", "WEBSITE": "http://cvs.com/", "RESOURCE_TYPE": "RETAIL", "SUB_RESOURCE_TYPE": "PHARMACY" }, "geometry": { "type": "Point", "coordinates": [ -91.015376392045567, 30.409744928019336 ] } },
{ "type": "Feature", "properties": { "ID": 187204, "BUSINESS_NAME": "CVS PHARMACY #5343", "FULL_ADDRESS": "15255 GEORGE O'NEAL RD, STE D", "CITY": "BATON ROUGE", "STATE": "LOUISIANA", "ZIP": 70817, "PHONE_NUMBER": "225-752-3710", "WEBSITE": "http://cvs.com/", "RESOURCE_TYPE": "RETAIL", "SUB_RESOURCE_TYPE": "PHARMACY" }, "geometry": { "type": "Point", "coordinates": [ -91.015329291165116, 30.409939191977539 ] } },
{ "type": "Feature", "properties": { "ID": 187358, "BUSINESS_NAME": "MEDICAP PHARMACY", "FULL_ADDRESS": "5241 HIGHLAND RD", "CITY": "BATON ROUGE", "STATE": "LOUISIANA", "ZIP": 70808, "PHONE_NUMBER": null, "WEBSITE": null, "RESOURCE_TYPE": "RETAIL", "SUB_RESOURCE_TYPE": "PHARMACY" }, "geometry": { "type": "Point", "coordinates": [ -91.16013747544396, 30.395414338057005 ] } },
{ "type": "Feature", "properties": { "ID": 190194, "BUSINESS_NAME": "PIONEER PHARMACY LLC", "FULL_ADDRESS": "2223 QUAIL RUN DR", "CITY": "BATON ROUGE", "STATE": "LOUISIANA", "ZIP": 70808, "PHONE_NUMBER": "(225) 768-7454", "WEBSITE": null, "RESOURCE_TYPE": "RETAIL", "SUB_RESOURCE_TYPE": "PHARMACY" }, "geometry": { "type": "Point", "coordinates": [ -91.126279382859195, 30.406229561262016 ] } },
{ "type": "Feature", "properties": { "ID": 194051, "BUSINESS_NAME": "CVS PHARMACY #1924", "FULL_ADDRESS": "20501 OLD SCENIC HWY", "CITY": "ZACHARY", "STATE": "LOUISIANA", "ZIP": 70791, "PHONE_NUMBER": null, "WEBSITE": null, "RESOURCE_TYPE": "RETAIL", "SUB_RESOURCE_TYPE": "PHARMACY" }, "geometry": { "type": "Point", "coordinates": [ -91.193944047548712, 30.654320067963127 ] } },
{ "type": "Feature", "properties": { "ID": 195833, "BUSINESS_NAME": "SOILEAUS VITAL CARE INC", "FULL_ADDRESS": "7612 PICARDY AVE, STE A", "CITY": "BATON ROUGE", "STATE": "LOUISIANA", "ZIP": 70808, "PHONE_NUMBER": "(225) 766-7453", "WEBSITE": null, "RESOURCE_TYPE": "RETAIL", "SUB_RESOURCE_TYPE": "PHARMACY" }, "geometry": { "type": "Point", "coordinates": [ -91.110447645811547, 30.399489899099965 ] } },
{ "type": "Feature", "properties": { "ID": 195834, "BUSINESS_NAME": "SOILEAUS VITAL CARE INC", "FULL_ADDRESS": "7612 PICARDY AVE, STE B", "CITY": "BATON ROUGE", "STATE": "LOUISIANA", "ZIP": 70808, "PHONE_NUMBER": "(225) 766-7453", "WEBSITE": null, "RESOURCE_TYPE": "RETAIL", "SUB_RESOURCE_TYPE": "PHARMACY" }, "geometry": { "type": "Point", "coordinates": [ -91.11045576386924, 30.399470957123572 ] } },
{ "type": "Feature", "properties": { "ID": 200773, "BUSINESS_NAME": "WALGREENS #13875", "FULL_ADDRESS": "6485 GROOM RD", "CITY": "BAKER", "STATE": "LOUISIANA", "ZIP": 70714, "PHONE_NUMBER": null, "WEBSITE": "http://walgreens.com/", "RESOURCE_TYPE": "RETAIL", "SUB_RESOURCE_TYPE": "PHARMACY" }, "geometry": { "type": "Point", "coordinates": [ -91.127290761041479, 30.580956226055719 ] } }
]
}
