{"type":"FeatureCollection","crs":{"type":"name","properties":{"name":"EPSG:4326"}},"features":[{"type":"Feature","id":1,"geometry":{"type":"Polygon","coordinates":[[[-91.0163858585142,30.4013582880017],[-91.0154433999179,30.4012371049052],[-91.0154696232118,30.4010922348357],[-91.0154242510407,30.4010865581464],[-91.0154481138275,30.4009455264714],[-91.0164242365063,30.4011059982123],[-91.0163858585142,30.4013582880017]]]},"properties":{"FID":1,"ID1":100,"CEMETERY_N":"WOODLAWN BAPTIST CHURCH CEMETERY","ADDRESS_ID":138047,"OWNERSHIP":"PRIVATE"}},{"type":"Feature","id":2,"geometry":{"type":"Polygon","coordinates":[[[-91.0720564663566,30.379040827236],[-91.0716802528675,30.3796575631384],[-91.0710546560668,30.3801414860562],[-91.070509686876,30.3798637402795],[-91.0708857177584,30.3793191803765],[-91.0706593799713,30.3792184904267],[-91.0710819067767,30.3785777915824],[-91.0720564663566,30.379040827236]]]},"properties":{"FID":2,"ID1":101,"CEMETERY_N":"SAINT GEORGE CHURCH CEMETERY","ADDRESS_ID":143508,"OWNERSHIP":"PUBLIC"}},{"type":"Feature","id":3,"geometry":{"type":"Polygon","coordinates":[[[-91.0522081552114,30.6891713803608],[-91.0520335479294,30.6888638328257],[-91.0523222056983,30.6887620525198],[-91.0524890226369,30.6890579915914],[-91.0522081552114,30.6891713803608]]]},"properties":{"FID":3,"ID1":102,"CEMETERY_N":"BALLARD CEMETERY","ADDRESS_ID":151883,"OWNERSHIP":"PRIVATE"}},{"type":"Feature","id":4,"geometry":{"type":"Polygon","coordinates":[[[-91.1927101421198,30.6589517493118],[-91.1928256632144,30.6584256229471],[-91.1929681118637,30.6578470391829],[-91.1939504029342,30.6581588092462],[-91.1942547309303,30.6582553985861],[-91.193966596804,30.6593019866978],[-91.1927101421198,30.6589517493118]]]},"properties":{"FID":4,"ID1":106,"CEMETERY_N":"AZALEA REST CEMETERY","ADDRESS_ID":192195,"OWNERSHIP":"PUBLIC"}},{"type":"Feature","id":5,"geometry":{"type":"Polygon","coordinates":[[[-91.1945558660872,30.6572002854775],[-91.1944793375608,30.6574395513362],[-91.1943225552426,30.6580090375433],[-91.1942547309303,30.6582553985861],[-91.1939504029342,30.6581588092462],[-91.1929681118637,30.6578470391829],[-91.1932324830348,30.6566782329577],[-91.1932338902428,30.6566721674038],[-91.1942753794988,30.6569299970195],[-91.1942292502243,30.6571202389655],[-91.1945558660872,30.6572002854775]]]},"properties":{"FID":5,"ID1":104,"CEMETERY_N":"CEMETERY OF BUHLER PLAINS","ADDRESS_ID":192188,"OWNERSHIP":"PUBLIC"}},{"type":"Feature","id":6,"geometry":{"type":"Polygon","coordinates":[[[-91.1942753794988,30.6569299970195],[-91.1932338902428,30.6566721674038],[-91.1933199868297,30.6563010598196],[-91.1934612200319,30.6556930986727],[-91.1934704395921,30.655646939477],[-91.1934704880128,30.6556126429728],[-91.1934783497837,30.655447762243],[-91.193490920087,30.6551905486073],[-91.1934989288847,30.6549214586636],[-91.1935920628961,30.6548780263579],[-91.1949714059239,30.6550578855808],[-91.1944972922648,30.6565303005538],[-91.1942893886206,30.6568722217876],[-91.1942753794988,30.6569299970195]]]},"properties":{"FID":6,"ID1":105,"CEMETERY_N":"ZACHARY PUBLIC CEMETERY","ADDRESS_ID":192187,"OWNERSHIP":"PUBLIC"}},{"type":"Feature","id":7,"geometry":{"type":"Polygon","coordinates":[[[-91.0615836952302,30.6341608611947],[-91.060743660008,30.634167994225],[-91.060724731676,30.6336010182055],[-91.0617299526038,30.6331247291343],[-91.0615836952302,30.6341608611947]]]},"properties":{"FID":7,"ID1":10006,"CEMETERY_N":"TUCKER CEMETERY","ADDRESS_ID":202312,"OWNERSHIP":"PRIVATE"}},{"type":"Feature","id":8,"geometry":{"type":"Polygon","coordinates":[[[-91.0867624564075,30.5420128057914],[-91.0880326008062,30.5419494903904],[-91.0880683126675,30.5423253407212],[-91.0880885267923,30.5425380546289],[-91.0878863350569,30.5426636057985],[-91.0879917651617,30.5428787625665],[-91.0870794710451,30.5433764328089],[-91.0869658083435,30.5431135391603],[-91.0869554410426,30.5430912138703],[-91.0869014492667,30.5429737687518],[-91.0868587439416,30.5428636007445],[-91.0868259516928,30.542761867345],[-91.0868006444097,30.5426659814582],[-91.0867789275718,30.5425608183069],[-91.0867632913204,30.5424550142883],[-91.0867534813293,30.5423443852026],[-91.0867502756822,30.5422387306152],[-91.0867529559103,30.5421352762736],[-91.0867624564075,30.5420128057914]]]},"properties":{"FID":8,"ID1":10007,"CEMETERY_N":"BLACKWATER UMC CEMETERY","ADDRESS_ID":202547,"OWNERSHIP":"PRIVATE"}},{"type":"Feature","id":9,"geometry":{"type":"Polygon","coordinates":[[[-91.0537011316264,30.5461908607308],[-91.0536739753065,30.5455711237666],[-91.0536902974643,30.5452901016278],[-91.0537101217041,30.545084714185],[-91.0537378351054,30.5450878839013],[-91.0537481909453,30.5450270360531],[-91.0538088825125,30.5447861172628],[-91.0538962363577,30.5445399163486],[-91.0539841730007,30.544350023236],[-91.0543467278898,30.5445482312246],[-91.0542685774074,30.545161557624],[-91.0541861704954,30.5451501186525],[-91.054171549751,30.5452439591447],[-91.0541967911794,30.5456508130605],[-91.0542066339354,30.5459669031179],[-91.0541658641786,30.546164937051],[-91.0537011316264,30.5461908607308]]]},"properties":{"FID":9,"ID1":10008,"CEMETERY_N":"ZOAR BAPTIST CHURCH CEMETERY","ADDRESS_ID":201880,"OWNERSHIP":"PRIVATE"}},{"type":"Feature","id":10,"geometry":{"type":"Polygon","coordinates":[[[-91.1451234188223,30.5601061729785],[-91.1451217400166,30.5600860358207],[-91.1451172075985,30.5598272948995],[-91.1457120877661,30.5598194909781],[-91.1461568283854,30.559813654912],[-91.1467286358976,30.5598061504248],[-91.1472626133493,30.5597991390171],[-91.147267367918,30.5600111198668],[-91.1472687786028,30.5600740327403],[-91.147272300456,30.560231034467],[-91.1472749442242,30.5603489280045],[-91.1451268390327,30.5603771203199],[-91.1451234188223,30.5601061729785]]]},"properties":{"FID":10,"ID1":98080,"CEMETERY_N":"THOMAS CHAPEL CEMETERY","ADDRESS_ID":173672,"OWNERSHIP":"PRIVATE"}},{"type":"Feature","id":11,"geometry":{"type":"Polygon","coordinates":[[[-91.150932263025,30.5168614920892],[-91.1497695200175,30.5169192221295],[-91.149351748341,30.5169399619487],[-91.1471586219857,30.5170488155384],[-91.1474448099207,30.5162540000796],[-91.1490383370644,30.5161771504902],[-91.1493140434068,30.5161701246327],[-91.149309574776,30.5158578211691],[-91.1493103574631,30.5154358619525],[-91.1493104085718,30.5154083082995],[-91.1508946873976,30.5153567282698],[-91.150932263025,30.5168614920892]]]},"properties":{"FID":11,"ID1":41,"CEMETERY_N":"WINNFIELD MEMORIAL PARK","ADDRESS_ID":109416,"OWNERSHIP":"PUBLIC"}},{"type":"Feature","id":12,"geometry":{"type":"Polygon","coordinates":[[[-91.0465510966543,30.3964931555002],[-91.047168979234,30.3965784664651],[-91.0471590773797,30.3966308038639],[-91.0474375736467,30.3966703976064],[-91.0476959300578,30.3966684917295],[-91.0480443616823,30.3966043050382],[-91.047954596833,30.3963406314852],[-91.0479254354216,30.3961642428178],[-91.0479852744666,30.3958467687735],[-91.0485892522369,30.3960353911883],[-91.0491568809641,30.3961158114053],[-91.0489303179365,30.3973501804622],[-91.0488933786658,30.3975511750539],[-91.0488351419891,30.3978680517591],[-91.0487336711773,30.3984201685643],[-91.0486871416384,30.3986733401527],[-91.0486041892089,30.3991246888224],[-91.0485337688635,30.3995078464391],[-91.0484359542105,30.4000400516501],[-91.0483387063267,30.4005691672935],[-91.0482435083656,30.4010871239152],[-91.0482121956986,30.4012574898325],[-91.0481778799849,30.4014441940325],[-91.0474563122173,30.4012332304694],[-91.0458366335855,30.400751135838],[-91.0457937293289,30.4007347921887],[-91.046062848962,30.399227629887],[-91.0460946522375,30.3990495175308],[-91.0461683028632,30.3986370390585],[-91.046217827773,30.3983596740748],[-91.0462570742529,30.3981398724599],[-91.0463024911986,30.3978855116378],[-91.0463441861183,30.3976519951106],[-91.0463885769365,30.3974033786984],[-91.046478311661,30.3969008040863],[-91.0465040250206,30.3967567910737],[-91.0465464761587,30.3965190337182],[-91.0465510966543,30.3964931555002]]]},"properties":{"FID":12,"ID1":61,"CEMETERY_N":"RESTHAVEN GARDENS OF MEMORY","ADDRESS_ID":13293,"OWNERSHIP":"PUBLIC"}},{"type":"Feature","id":13,"geometry":{"type":"Polygon","coordinates":[[[-91.1724726048749,30.4047777015234],[-91.1723467507293,30.4049876999921],[-91.1722552780103,30.4051369216415],[-91.1721325373107,30.405080899039],[-91.1719960441578,30.4050185991876],[-91.1719222392646,30.4049879064571],[-91.1720242302974,30.4048461823406],[-91.1721146844891,30.4047204891131],[-91.1719932092193,30.4046207248788],[-91.1721284851705,30.4044950879709],[-91.1724726048749,30.4047777015234]]]},"properties":{"FID":13,"ID1":1,"CEMETERY_N":"HIGHLAND CEMETERY","ADDRESS_ID":131675,"OWNERSHIP":"PRIVATE"}},{"type":"Feature","id":14,"geometry":{"type":"Polygon","coordinates":[[[-91.1756381303014,30.4538980247073],[-91.1745697563405,30.4539251217689],[-91.1745338115749,30.4529924124095],[-91.1756019285737,30.4529589391695],[-91.1756381303014,30.4538980247073]]]},"properties":{"FID":14,"ID1":2,"CEMETERY_N":"JEWISH CEMETERY","ADDRESS_ID":130291,"OWNERSHIP":"PUBLIC"}},{"type":"Feature","id":15,"geometry":{"type":"Polygon","coordinates":[[[-91.1743683541825,30.452818795547],[-91.1724796692062,30.4528747055877],[-91.172463233848,30.4525450558751],[-91.1724563858143,30.4524077018182],[-91.172450907401,30.4522978185686],[-91.172435636873,30.4519915287191],[-91.1743343085245,30.4519353230932],[-91.1743683541825,30.452818795547]]]},"properties":{"FID":15,"ID1":3,"CEMETERY_N":"ST. JOSEPH CATHOLIC CEMETERY","ADDRESS_ID":130270,"OWNERSHIP":"PUBLIC"}},{"type":"Feature","id":16,"geometry":{"type":"Polygon","coordinates":[[[-91.1693016776613,30.4519026788902],[-91.1661430079045,30.4519760670671],[-91.1660608614469,30.450072113785],[-91.1692211093115,30.4499758303576],[-91.1693016776613,30.4519026788902]]]},"properties":{"FID":16,"ID1":4,"CEMETERY_N":"MAGNOLIA CEMETERY","ADDRESS_ID":81290,"OWNERSHIP":"PUBLIC"}},{"type":"Feature","id":17,"geometry":{"type":"Polygon","coordinates":[[[-91.1692132795789,30.4497885727687],[-91.166052782899,30.4498848629371],[-91.166014055141,30.4489872031379],[-91.1691757449976,30.4488908775981],[-91.1692132795789,30.4497885727687]]]},"properties":{"FID":17,"ID1":5,"CEMETERY_N":"BATON ROUGE NATIONAL CEMETERY","ADDRESS_ID":137566,"OWNERSHIP":"PUBLIC"}},{"type":"Feature","id":18,"geometry":{"type":"Polygon","coordinates":[[[-91.1657239814627,30.4459384382965],[-91.165782758464,30.4477739816058],[-91.1651207641106,30.447791074502],[-91.1651098909594,30.4474750233235],[-91.1649830098577,30.4474782987972],[-91.1648561255742,30.447481574145],[-91.1647292412823,30.447484849371],[-91.1646861152375,30.445957670557],[-91.1657239814627,30.4459384382965]]]},"properties":{"FID":18,"ID1":6,"CEMETERY_N":"SWEET OLIVE CEMETERY","ADDRESS_ID":130290,"OWNERSHIP":"PUBLIC"}},{"type":"Feature","id":19,"geometry":{"type":"Polygon","coordinates":[[[-91.150419126092,30.4591782650163],[-91.1504013657895,30.4591788206055],[-91.1502736998259,30.4591828122671],[-91.150146030678,30.4591868038011],[-91.1500183678677,30.4591907952206],[-91.1498906986944,30.4591947892576],[-91.1497630295157,30.4591987804219],[-91.1496353635006,30.4592027714673],[-91.1495076974754,30.4592067623896],[-91.149380028266,30.4592107531842],[-91.1492523622152,30.4592147466095],[-91.1491246993329,30.4592187371664],[-91.1489970300927,30.4592227275915],[-91.1488693640162,30.4592267178976],[-91.1487416947503,30.4592307108255],[-91.1486140286532,30.4592347008852],[-91.1484863625458,30.4592386908216],[-91.1483586932544,30.4592426806304],[-91.1482146300475,30.4592471835313],[-91.1480672816987,30.4592517889056],[-91.1479396155422,30.4592557810637],[-91.1478119493806,30.4592597703492],[-91.1476842832087,30.4592637595115],[-91.1475566170266,30.4592677485505],[-91.1474289508342,30.4592717374663],[-91.1473012846263,30.4592757290084],[-91.1471736184135,30.4592797176779],[-91.1470459490165,30.4592837062194],[-91.1469182827831,30.4592876946423],[-91.1467906133604,30.4592916856871],[-91.1466629471064,30.4592956738635],[-91.1465352808422,30.4592996619168],[-91.1463023141999,30.4593077627646],[-91.1462396426662,30.4593097665243],[-91.1462448571349,30.4592677583478],[-91.1462460461819,30.4592127941954],[-91.1462411486184,30.4591607551805],[-91.1460226569284,30.4577263517779],[-91.1457200386215,30.4563103022038],[-91.14566561269,30.4555896304836],[-91.1456653418298,30.4555834931439],[-91.1456590051471,30.4555190296241],[-91.1456463799865,30.4554552665588],[-91.1456275511873,30.4553926604889],[-91.1456026543726,30.4553316652772],[-91.1455718728012,30.4552727183561],[-91.1455354278249,30.4552162517123],[-91.1454935789357,30.4551626671415],[-91.145446633255,30.4551123527593],[-91.1453949296858,30.4550656719799],[-91.1453388357391,30.4550229635128],[-91.1452787602437,30.4549845331322],[-91.1441946204039,30.4543923078975],[-91.1441786455793,30.4543831566031],[-91.1441368894062,30.4543547629428],[-91.1440993367166,30.4543222592319],[-91.1440665293361,30.4542861054218],[-91.1440389328036,30.4542468218434],[-91.144016939588,30.4542049672171],[-91.144000865914,30.4541611386471],[-91.1439909390892,30.4541159606048],[-91.1439873038573,30.4540700821885],[-91.1439852544606,30.4538683239988],[-91.1501893163613,30.4536695083491],[-91.150419126092,30.4591782650163]]]},"properties":{"FID":19,"ID1":7,"CEMETERY_N":"ROSELAWN MEMORIAL PARK","ADDRESS_ID":79615,"OWNERSHIP":"PUBLIC"}},{"type":"Feature","id":20,"geometry":{"type":"Polygon","coordinates":[[[-91.1707984755316,30.4329901062608],[-91.1707982454684,30.4329901134841],[-91.1705692448481,30.4328312394899],[-91.1704350301916,30.4327800721012],[-91.1703492929906,30.4327714547934],[-91.1703414923459,30.4325848724934],[-91.1703246255782,30.4321818068171],[-91.1726218905065,30.4321263629721],[-91.17286846077,30.4325055178405],[-91.1731358553274,30.4329166989189],[-91.1707984755316,30.4329901062608]]]},"properties":{"FID":20,"ID1":8,"CEMETERY_N":"LUTHERAN BENEVOLENT SOCIETY CEMETERY","ADDRESS_ID":41553,"OWNERSHIP":"PRIVATE"}},{"type":"Feature","id":21,"geometry":{"type":"Polygon","coordinates":[[[-91.134207235191,30.4652140083249],[-91.1337379211844,30.4654769159853],[-91.1318833667042,30.4665157992055],[-91.1316100547826,30.4666487371239],[-91.1315482731524,30.4665630354657],[-91.1315432769323,30.4664522825275],[-91.130729308929,30.4653258478276],[-91.1307688426334,30.4653245770595],[-91.1308791240948,30.4653210377202],[-91.1337235216506,30.4652295685671],[-91.13381868339,30.4652265255267],[-91.1339138518813,30.4652234332774],[-91.134207235191,30.4652140083249]]]},"properties":{"FID":21,"ID1":9,"CEMETERY_N":"GILBERT MEMORIAL CEMETERY","ADDRESS_ID":130194,"OWNERSHIP":"PRIVATE"}},{"type":"Feature","id":22,"geometry":{"type":"Polygon","coordinates":[[[-91.0816767506011,30.4553829532283],[-91.0827568456083,30.455214123005],[-91.0829980550727,30.4551764189549],[-91.0832392643538,30.4551387144644],[-91.0832410529986,30.4556238265384],[-91.0832420736917,30.4559006543828],[-91.0827537483826,30.4558992407366],[-91.0827524450706,30.4561879916287],[-91.0827512018569,30.4564629894407],[-91.0827499586363,30.4567379872305],[-91.082748715395,30.4570129904973],[-91.0827474721745,30.4572879827439],[-91.0827462251298,30.4575644872044],[-91.0827429616982,30.4582864698853],[-91.0835959330209,30.4582778548545],[-91.0839133521291,30.458274648434],[-91.0842131243038,30.4582716197306],[-91.0842230763183,30.4585490388079],[-91.0842329396938,30.4588238593869],[-91.08424279995,30.4590986799372],[-91.0842526602607,30.4593735004647],[-91.084262520633,30.4596483182198],[-91.0842723810529,30.4599231387016],[-91.0842822415275,30.4601979591606],[-91.0842940779708,30.4605277464376],[-91.0843039800478,30.4608037437235],[-91.0839725047102,30.4608058660271],[-91.0836410293585,30.4608079874999],[-91.083309541297,30.4608101081182],[-91.0828187713622,30.4608132433615],[-91.0824745366488,30.4608154449774],[-91.0821411822549,30.4608175728759],[-91.0818078310137,30.4608197026899],[-91.0814744765912,30.4608218289081],[-91.0811570014596,30.4608238553328],[-91.0808395231413,30.4608258809895],[-91.0805220448169,30.4608279031346],[-91.0802045664727,30.460829927267],[-91.0792521313693,30.4608359923434],[-91.0792031222716,30.4608363051247],[-91.079095097902,30.4604541168626],[-91.078903121858,30.4597749015126],[-91.0784527277596,30.4586781891142],[-91.0782381488849,30.4583553899935],[-91.0781855266971,30.4583011062015],[-91.0785135179428,30.4582991979171],[-91.0789895830451,30.4582964298289],[-91.0789878941685,30.4581058234586],[-91.0789758017022,30.4567406797853],[-91.0793566397971,30.4567381473953],[-91.0799913952857,30.4567361183905],[-91.0799871376963,30.4562560594284],[-91.0801057525509,30.4561508006801],[-91.0802160096892,30.4561280751057],[-91.0805086463942,30.4561228937664],[-91.0808224248117,30.4561695836178],[-91.0809749749929,30.4562505983438],[-91.0811822939999,30.4562695503408],[-91.0812686975529,30.4562666218035],[-91.0813134551343,30.4562348922288],[-91.0813212965091,30.4561977747071],[-91.0813117235415,30.4561031229898],[-91.0813398690881,30.4559965799104],[-91.0813970385474,30.4558750136603],[-91.0815172607805,30.4557020961479],[-91.0816783160349,30.4555591711549],[-91.0817020019385,30.4554664001668],[-91.0816767506011,30.4553829532283]]]},"properties":{"FID":22,"ID1":10,"CEMETERY_N":"GREENOAKS MEMORIAL PARK","ADDRESS_ID":127035,"OWNERSHIP":"PUBLIC"}},{"type":"Feature","id":23,"geometry":{"type":"Polygon","coordinates":[[[-91.0789895830452,30.4582964298289],[-91.0785135179428,30.4582991979171],[-91.0785075883206,30.4576294332101],[-91.0785037130452,30.4571917824802],[-91.0785004940739,30.4568281967498],[-91.078492228031,30.4558945273195],[-91.0789676293801,30.4558180677688],[-91.0789758017022,30.4567406797853],[-91.0789878941685,30.4581058234586],[-91.0789895830452,30.4582964298289]]]},"properties":{"FID":23,"ID1":11,"CEMETERY_N":"LIBERAL CEMETERY","ADDRESS_ID":153416,"OWNERSHIP":"PUBLIC"}},{"type":"Feature","id":24,"geometry":{"type":"Polygon","coordinates":[[[-91.060592920907,30.4936399293585],[-91.0604195426341,30.4936359118864],[-91.060340955306,30.4936093557454],[-91.0603137939863,30.4936087263341],[-91.0603095989756,30.4933449752409],[-91.0602475797055,30.4932876634787],[-91.0602444668435,30.4931208180382],[-91.0605832054027,30.4931158929343],[-91.060592920907,30.4936399293585]]]},"properties":{"FID":24,"ID1":12,"CEMETERY_N":"ROSE HILL CEMETERY","ADDRESS_ID":160308,"OWNERSHIP":"PRIVATE"}},{"type":"Feature","id":25,"geometry":{"type":"Polygon","coordinates":[[[-91.1531551918246,30.5029669339954],[-91.1547408515659,30.5033248765255],[-91.1544254446779,30.5033300433907],[-91.1541100377571,30.5033352095041],[-91.1530216519683,30.5033542900801],[-91.1520003421185,30.5033851075864],[-91.1522335964609,30.5027085274892],[-91.1531551918246,30.5029669339954]]]},"properties":{"FID":25,"ID1":13,"CEMETERY_N":"HOPE BENEVOLENT SOCIETY CEMETERY","ADDRESS_ID":97387,"OWNERSHIP":"PUBLIC"}},{"type":"Feature","id":26,"geometry":{"type":"Polygon","coordinates":[[[-91.1708391130942,30.5265249650798],[-91.1703013662607,30.5265356673997],[-91.170297235035,30.5263535592734],[-91.170286008307,30.5258586321616],[-91.1702808386679,30.5250098579812],[-91.1708017292617,30.5250104986259],[-91.1708391130942,30.5265249650798]]]},"properties":{"FID":26,"ID1":14,"CEMETERY_N":"MOUNT PLEASANT BENEVOLENT SOCIETY CEMETERY","ADDRESS_ID":152467,"OWNERSHIP":"PRIVATE"}},{"type":"Feature","id":27,"geometry":{"type":"Polygon","coordinates":[[[-91.1997407613823,30.5512443982747],[-91.1996893206072,30.5512624707312],[-91.199540032605,30.5513149169235],[-91.1995177794549,30.5513217488117],[-91.1992754522776,30.5513860112519],[-91.1984584478295,30.5515904003861],[-91.1977389321519,30.5502016413935],[-91.1984341343993,30.5505637778139],[-91.1997407613823,30.5512443982747]]]},"properties":{"FID":27,"ID1":15,"CEMETERY_N":"NICKWAX MEMORIAL CEMETERY","ADDRESS_ID":130375,"OWNERSHIP":"PRIVATE"}},{"type":"Feature","id":28,"geometry":{"type":"Polygon","coordinates":[[[-91.0885245033038,30.4304073315174],[-91.0886562862566,30.4304071478796],[-91.0891069508395,30.4304066296922],[-91.0891785541499,30.4308385661197],[-91.0881936733663,30.4308279108869],[-91.0882498410652,30.4307545548753],[-91.0883882068019,30.4305796356297],[-91.0885245033038,30.4304073315174]]]},"properties":{"FID":28,"ID1":16,"CEMETERY_N":"LITTLE MISERY CEMETERY","ADDRESS_ID":120956,"OWNERSHIP":"PRIVATE"}},{"type":"Feature","id":29,"geometry":{"type":"Polygon","coordinates":[[[-91.1274649498656,30.3710307175208],[-91.1271865873539,30.3715180291538],[-91.1263091982928,30.3710875444216],[-91.1267773706786,30.3706892224188],[-91.1272302918058,30.370913697331],[-91.1274649498656,30.3710307175208]]]},"properties":{"FID":29,"ID1":17,"CEMETERY_N":"LABORING SOCIETY CEMETERY","ADDRESS_ID":117642,"OWNERSHIP":"PRIVATE"}},{"type":"Feature","id":30,"geometry":{"type":"Polygon","coordinates":[[[-91.0830542396951,30.3816207055242],[-91.0830568485782,30.3816206086969],[-91.0830594571284,30.3816205053462],[-91.083062065324,30.3816203954731],[-91.0830646731432,30.3816202790784],[-91.0830672805643,30.3816201561631],[-91.0830698875657,30.3816200267283],[-91.0830724941256,30.3816198907749],[-91.0830751002225,30.3816197483042],[-91.0830777058346,30.3816195993172],[-91.0830803109402,30.3816194438154],[-91.0830829155177,30.3816192817999],[-91.0830855195453,30.3816191132721],[-91.0830881230016,30.3816189382334],[-91.0830907258647,30.3816187566852],[-91.083093328113,30.3816185686291],[-91.0830959297249,30.3816183740667],[-91.0830985306788,30.3816181729995],[-91.0831011309529,30.3816179654292],[-91.0831037305258,30.3816177513575],[-91.0831063293757,30.3816175307863],[-91.083108927481,30.3816173037174],[-91.0831115248201,30.3816170701526],[-91.0831141213715,30.3816168300939],[-91.0831167171135,30.3816165835433],[-91.0831193120244,30.3816163305028],[-91.0831219060829,30.3816160709746],[-91.0831244992671,30.3816158049608],[-91.0831270915557,30.3816155324636],[-91.083129682927,30.3816152534853],[-91.0831322733594,30.3816149680282],[-91.0831348628315,30.3816146760947],[-91.0831374513216,30.3816143776873],[-91.0831400388083,30.3816140728082],[-91.08314262527,30.3816137614603],[-91.0831452106852,30.3816134436459],[-91.0831477950324,30.3816131193679],[-91.0831503782901,30.3816127886287],[-91.0831529604368,30.3816124514313],[-91.083155541451,30.3816121077784],[-91.083160637383,30.3816392355687],[-91.0839164593637,30.382002752627],[-91.083484550391,30.3826777860171],[-91.0826525730738,30.3822776404456],[-91.0830553250213,30.3816481852705],[-91.0830542396951,30.3816207055242]]]},"properties":{"FID":30,"ID1":18,"CEMETERY_N":"KLEINPETER CEMETERY","ADDRESS_ID":139978,"OWNERSHIP":"PRIVATE"}},{"type":"Feature","id":31,"geometry":{"type":"Polygon","coordinates":[[[-91.0768689829345,30.3748158494107],[-91.0769952107859,30.3748578624701],[-91.0774423709061,30.3750066917929],[-91.077381854916,30.375106511224],[-91.0778473221893,30.3753137861298],[-91.0778325664423,30.3753381254742],[-91.0773670990857,30.3751308505178],[-91.0772359497329,30.3753471767883],[-91.076660588464,30.3751556790492],[-91.0768689829345,30.3748158494107]]]},"properties":{"FID":31,"ID1":19,"CEMETERY_N":"CEMETERY","ADDRESS_ID":171769,"OWNERSHIP":"PRIVATE"}},{"type":"Feature","id":32,"geometry":{"type":"Polygon","coordinates":[[[-91.0020828754249,30.3601844484459],[-91.0018072996942,30.3603591388412],[-91.0014578154235,30.3599468863768],[-91.0017375287342,30.3597585426611],[-91.0020828754249,30.3601844484459]]]},"properties":{"FID":32,"ID1":20,"CEMETERY_N":"CAIN CEMETERY","ADDRESS_ID":155214,"OWNERSHIP":"PRIVATE"}},{"type":"Feature","id":33,"geometry":{"type":"Polygon","coordinates":[[[-90.9993773276088,30.3524388188195],[-90.9988863612075,30.3525249911052],[-90.9987412792766,30.3523546434624],[-90.9984027123941,30.351957112952],[-90.9992850890024,30.3514446342571],[-90.9997428860448,30.3520151718008],[-90.9999846283385,30.3523284297032],[-90.9993773276088,30.3524388188195]]]},"properties":{"FID":33,"ID1":21,"CEMETERY_N":"CEMETERY","ADDRESS_ID":174355,"OWNERSHIP":"PRIVATE"}},{"type":"Feature","id":34,"geometry":{"type":"Polygon","coordinates":[[[-90.9880305786708,30.3488275671457],[-90.987995724378,30.3488502154447],[-90.9874980253285,30.3491736178512],[-90.9873665316373,30.349024504431],[-90.9872104700905,30.348850138128],[-90.9871311102042,30.3487482106994],[-90.9876550610789,30.3484011422802],[-90.9880305786708,30.3488275671457]]]},"properties":{"FID":34,"ID1":22,"CEMETERY_N":"RICHARDS GARDENS OF MEMORY CEMETERY","ADDRESS_ID":175088,"OWNERSHIP":"PRIVATE"}},{"type":"Feature","id":35,"geometry":{"type":"Polygon","coordinates":[[[-91.0343925999771,30.3927256734233],[-91.033916197102,30.3932020057812],[-91.0331783255197,30.3928227591159],[-91.0333237777405,30.3920287886465],[-91.0342257175356,30.3921628210607],[-91.0339691888164,30.3924574828455],[-91.0343925999771,30.3927256734233]]]},"properties":{"FID":35,"ID1":23,"CEMETERY_N":"CEMETERY","ADDRESS_ID":23985,"OWNERSHIP":"PRIVATE"}},{"type":"Feature","id":36,"geometry":{"type":"Polygon","coordinates":[[[-91.0140477743332,30.4260371774185],[-91.0140488533958,30.4260419913096],[-91.0140499246938,30.4260468065029],[-91.0140509882249,30.4260516229891],[-91.0140520439871,30.4260564407587],[-91.0140530919783,30.4260612598023],[-91.0140541321965,30.4260660801105],[-91.0140551646397,30.426070901674],[-91.0140561893058,30.4260757244832],[-91.0140572061928,30.4260805485288],[-91.0140582152988,30.4260853738013],[-91.0140592166218,30.4260902002914],[-91.0140602101597,30.4260950279895],[-91.0140611959108,30.4260998568862],[-91.0140621738729,30.4261046869722],[-91.0140631440444,30.426109518238],[-91.0140641064231,30.4261143506741],[-91.0140650610073,30.4261191842711],[-91.0140660077951,30.4261240190196],[-91.0140669467846,30.4261288549101],[-91.0140678779741,30.4261336919332],[-91.0140688013616,30.4261385300794],[-91.0140697169454,30.4261433693393],[-91.0140706247236,30.4261482097034],[-91.0140715246947,30.4261530511623],[-91.0140724168566,30.4261578937065],[-91.0140733012078,30.4261627373265],[-91.0140741777465,30.4261675820129],[-91.0140750464709,30.4261724277563],[-91.0140759073794,30.4261772745471],[-91.0140767604702,30.4261821223759],[-91.0140776057418,30.4261869712332],[-91.0140784431925,30.4261918211096],[-91.0140792728206,30.4261966719956],[-91.0140800946246,30.4262015238816],[-91.0140809086027,30.4262063767583],[-91.0140817147534,30.4262112306162],[-91.0140825130752,30.4262160854457],[-91.0140833035664,30.4262209412373],[-91.0140840862256,30.4262257979817],[-91.0140848610512,30.4262306556693],[-91.0140856280416,30.4262355142905],[-91.0140863871955,30.4262403738361],[-91.0140871385113,30.4262452342963],[-91.0140878819875,30.4262500956618],[-91.0140886176226,30.426254957923],[-91.0140893454154,30.4262598210705],[-91.0140900653642,30.4262646850947],[-91.0140907774677,30.4262695499862],[-91.0140914817246,30.4262744157354],[-91.0140921781334,30.4262792823329],[-91.0140928666928,30.426284149769],[-91.0140935474014,30.4262890180345],[-91.014094220258,30.4262938871195],[-91.0140948852611,30.4262987570149],[-91.0140955424095,30.4263036277109],[-91.0140961917019,30.4263084991981],[-91.014096833137,30.4263133714669],[-91.0140974667137,30.4263182445079],[-91.0140980924306,30.4263231183115],[-91.0140987102864,30.4263279928682],[-91.0140993202802,30.4263328681685],[-91.0140999224105,30.4263377442028],[-91.0141005166762,30.4263426209617],[-91.0141011030762,30.4263474984356],[-91.0141016816094,30.4263523766149],[-91.0141022522746,30.4263572554903],[-91.0141028150706,30.426362135052],[-91.0141033699965,30.4263670152906],[-91.014103917051,30.4263718961965],[-91.0141044562332,30.4263767777603],[-91.0141049875419,30.4263816599724],[-91.0141055109762,30.4263865428232],[-91.014106026535,30.4263914263032],[-91.0141065342173,30.4263963104029],[-91.0141070340221,30.4264011951127],[-91.0141075259484,30.4264060804231],[-91.0141080099953,30.4264109663246],[-91.0141084861618,30.4264158528075],[-91.0141089544471,30.4264207398624],[-91.0141094148501,30.4264256274797],[-91.0141098673699,30.4264305156499],[-91.0141103120058,30.4264354043633],[-91.0141107487568,30.4264402936106],[-91.0141111776221,30.426445183382],[-91.0141115986007,30.4264500736681],[-91.014112011692,30.4264549644593],[-91.0141124168951,30.4264598557461],[-91.0141128142092,30.4264647475188],[-91.0141132036335,30.4264696397681],[-91.0141135851673,30.4264745324841],[-91.0141139588098,30.4264794256576],[-91.0141143245603,30.4264843192788],[-91.0141146824181,30.4264892133382],[-91.0141150323824,30.4264941078262],[-91.0141153744527,30.4264990027334],[-91.0141157086281,30.42650389805],[-91.0141160349081,30.4265087937667],[-91.014116353292,30.4265136898737],[-91.013983565172,30.4266695722742],[-91.0138178688502,30.4266488947939],[-91.0137591993244,30.4266403118561],[-91.0135998466434,30.4266150155969],[-91.0133989566041,30.4265789698096],[-91.0127224158576,30.4263261218942],[-91.012700242198,30.4263146944794],[-91.0124808303043,30.4262016180451],[-91.0120965515877,30.4259907585534],[-91.0125766755067,30.4260237141669],[-91.0131256979551,30.4260584598619],[-91.0140477743332,30.4260371774185]]]},"properties":{"FID":36,"ID1":24,"CEMETERY_N":"KNOX CEMETERY","ADDRESS_ID":130231,"OWNERSHIP":"PRIVATE"}},{"type":"Feature","id":37,"geometry":{"type":"Polygon","coordinates":[[[-91.151248584738,30.5482757152201],[-91.1511692166759,30.5482781822775],[-91.1509152471173,30.5482860727038],[-91.1508937988348,30.5477209396097],[-91.1510697566484,30.5477150424336],[-91.1512267171683,30.547710600093],[-91.151240177185,30.5480584420865],[-91.151248584738,30.5482757152201]]]},"properties":{"FID":37,"ID1":25,"CEMETERY_N":"DEVALL CEMETERY","ADDRESS_ID":152017,"OWNERSHIP":"PRIVATE"}},{"type":"Feature","id":38,"geometry":{"type":"Polygon","coordinates":[[[-91.1222398213324,30.5966379141729],[-91.1221211705311,30.5971447419247],[-91.1215776430461,30.5970784209247],[-91.121715380251,30.59663828711],[-91.1222398213324,30.5966379141729]]]},"properties":{"FID":38,"ID1":26,"CEMETERY_N":"CEMETERY","ADDRESS_ID":37637,"OWNERSHIP":"PRIVATE"}},{"type":"Feature","id":39,"geometry":{"type":"Polygon","coordinates":[[[-91.106197742388,30.5948927332816],[-91.1057527748048,30.5948944934789],[-91.1057455567581,30.594479360805],[-91.1061905224843,30.5944775978823],[-91.106197742388,30.5948927332816]]]},"properties":{"FID":39,"ID1":27,"CEMETERY_N":"CEMETERY","ADDRESS_ID":35697,"OWNERSHIP":"PRIVATE"}},{"type":"Feature","id":40,"geometry":{"type":"Polygon","coordinates":[[[-91.2768915108219,30.6601731403846],[-91.2768940710815,30.6606855902216],[-91.276068138328,30.6607043774351],[-91.2760726561224,30.6608692943585],[-91.2760898551415,30.6614971197953],[-91.2747583413592,30.6615348507456],[-91.2739128556457,30.6615588025227],[-91.2727388643887,30.6615929659706],[-91.2723243038919,30.6616050462803],[-91.2720629659342,30.6616126608994],[-91.27208315937,30.6597491157991],[-91.2721593388749,30.6593986194392],[-91.2721615681979,30.6594007006921],[-91.2721638033232,30.6594027772889],[-91.2721660442379,30.6594048492174],[-91.2721682909288,30.6594069164655],[-91.2721705433829,30.6594089790212],[-91.2721728015871,30.6594110368725],[-91.2721750655282,30.6594130900075],[-91.2721773351931,30.6594151384141],[-91.2721796105685,30.6594171820805],[-91.2721818916413,30.6594192209947],[-91.2721841783979,30.6594212551449],[-91.2721864708254,30.6594232845192],[-91.2721887689102,30.6594253091058],[-91.2721910726389,30.659427328893],[-91.2721933819982,30.659429343869],[-91.2721956969747,30.659431354022],[-91.2721980175548,30.6594333593404],[-91.272200343725,30.6594353598124],[-91.2722026754718,30.6594373554264],[-91.2722050127816,30.6594393461708],[-91.2722073556409,30.6594413320341],[-91.2722097040359,30.6594433130046],[-91.272212057953,30.6594452890708],[-91.2722144173785,30.6594472602212],[-91.2722167822987,30.6594492264444],[-91.2722191526997,30.6594511877289],[-91.2722215285678,30.6594531440632],[-91.2722239098892,30.6594550954361],[-91.2722262966501,30.659457041836],[-91.2722286888363,30.6594589832517],[-91.2722310864342,30.659460919672],[-91.2722334894297,30.6594628510854],[-91.2722358978089,30.6594647774808],[-91.2722383115576,30.659466698847],[-91.2722407306619,30.6594686151728],[-91.2722431551077,30.6594705264469],[-91.2722455848808,30.6594724326584],[-91.2722480199671,30.659474333796],[-91.2722504603525,30.6594762298488],[-91.2722529060227,30.6594781208056],[-91.2722553569635,30.6594800066555],[-91.2722578131606,30.6594818873876],[-91.2722602745998,30.6594837629907],[-91.2722627412666,30.6594856334541],[-91.2722652131468,30.6594874987669],[-91.2722676902259,30.659489358918],[-91.2722701724895,30.6594912138969],[-91.2722726599232,30.6594930636926],[-91.2722751525125,30.6594949082944],[-91.2722776502429,30.6594967476915],[-91.2722801530998,30.6594985818733],[-91.2722826610687,30.659500410829],[-91.2722851741349,30.659502234548],[-91.2722876922839,30.6595040530197],[-91.272290215501,30.6595058662336],[-91.2722927437714,30.6595076741789],[-91.2722952770805,30.6595094768453],[-91.2722978154136,30.6595112742222],[-91.2723003587558,30.6595130662992],[-91.2723029070923,30.6595148530657],[-91.2723054604083,30.6595166345116],[-91.2723080186889,30.6595184106263],[-91.2723105819193,30.6595201813995],[-91.2723131500846,30.6595219468209],[-91.2723157231696,30.6595237068802],[-91.2723183011596,30.6595254615673],[-91.2723208840395,30.6595272108717],[-91.2723234717942,30.6595289547835],[-91.2723260644086,30.6595306932924],[-91.2723286618678,30.6595324263883],[-91.2723312641565,30.6595341540611],[-91.2723338712596,30.6595358763008],[-91.272336483162,30.6595375930973],[-91.2723390998484,30.6595393044407],[-91.2723417213036,30.6595410103209],[-91.2723443475124,30.659542710728],[-91.2723469784594,30.6595444056523],[-91.2723496141293,30.6595460950837],[-91.2723522545068,30.6595477790124],[-91.2723548995765,30.6595494574287],[-91.272357549323,30.6595511303227],[-91.2723602037309,30.6595527976848],[-91.2723628627848,30.6595544595052],[-91.2723655264691,30.6595561157742],[-91.2723681947683,30.6595577664822],[-91.272370867667,30.6595594116197],[-91.2723735451495,30.6595610511769],[-91.2723762272003,30.6595626851445],[-91.2723789138037,30.6595643135127],[-91.2723816049442,30.6595659362723],[-91.272384300606,30.6595675534137],[-91.2723870007734,30.6595691649275],[-91.2723897054308,30.6595707708043],[-91.2723924145623,30.6595723710348],[-91.2723951281523,30.6595739656097],[-91.2723978461849,30.6595755545197],[-91.2724005686443,30.6595771377555],[-91.2724032955146,30.6595787153079],[-91.27240602678,30.6595802871678],[-91.2724087624245,30.6595818533259],[-91.2724115024323,30.6595834137732],[-91.2724142467873,30.6595849685005],[-91.2724169954737,30.659586517499],[-91.2724197484754,30.6595880607594],[-91.2724225057764,30.6595895982728],[-91.2724252673606,30.6595911300304],[-91.272428033212,30.659592656023],[-91.2724308033144,30.659594176242],[-91.2724335776517,30.6595956906784],[-91.2724363562078,30.6595971993233],[-91.2724391389665,30.6595987021681],[-91.2724419259116,30.659600199204],[-91.2724447170269,30.6596016904222],[-91.272447512296,30.6596031758141],[-91.2724503117029,30.6596046553711],[-91.272453115231,30.6596061290844],[-91.2724559228642,30.6596075969456],[-91.2724587345861,30.6596090589461],[-91.2724615503803,30.6596105150773],[-91.2724643702305,30.6596119653309],[-91.2724671941201,30.6596134096983],[-91.2724700220328,30.6596148481711],[-91.2724728539521,30.659616280741],[-91.2724756898615,30.6596177073997],[-91.2724785297445,30.6596191281388],[-91.2724813735846,30.6596205429501],[-91.2724842213651,30.6596219518252],[-91.2724870730697,30.6596233547561],[-91.2724899286816,30.6596247517345],[-91.2724927881841,30.6596261427524],[-91.2724956515608,30.6596275278016],[-91.2724985187948,30.659628906874],[-91.2725013898695,30.6596302799616],[-91.2725042647682,30.6596316470566],[-91.2725071434742,30.6596330081507],[-91.2725100259706,30.6596343632362],[-91.2725129122408,30.6596357123052],[-91.2725158022678,30.6596370553498],[-91.272518696035,30.6596383923622],[-91.2725215935253,30.6596397233345],[-91.2725244947221,30.6596410482591],[-91.2725273996083,30.6596423671283],[-91.272530308167,30.6596436799344],[-91.2725332203814,30.6596449866696],[-91.2725361362345,30.6596462873264],[-91.2725390557093,30.6596475818974],[-91.2725419787888,30.6596488703748],[-91.2725449054559,30.6596501527512],[-91.2725478356937,30.6596514290191],[-91.2725507694851,30.6596526991712],[-91.272553706813,30.6596539631999],[-91.2725566476603,30.659655221098],[-91.2725595920098,30.6596564728582],[-91.2725625398446,30.6596577184731],[-91.2725654911473,30.6596589579355],[-91.2725684459008,30.6596601912381],[-91.2725714040879,30.6596614183739],[-91.2725743656914,30.6596626393355],[-91.272577330694,30.6596638541161],[-91.2725802990785,30.6596650627084],[-91.2725832708276,30.6596662651055],[-91.2725862459239,30.6596674613002],[-91.2725892243503,30.6596686512858],[-91.2725922060892,30.6596698350552],[-91.2725951911235,30.6596710126015],[-91.2725981794356,30.659672183918],[-91.2726011710083,30.6596733489977],[-91.272604165824,30.6596745078338],[-91.2726071638654,30.6596756604198],[-91.2726101651149,30.6596768067488],[-91.2726131695552,30.6596779468141],[-91.2726161771687,30.6596790806092],[-91.2726191879379,30.6596802081274],[-91.2726222018453,30.6596813293621],[-91.2726252188733,30.6596824443069],[-91.2726282390044,30.6596835529553],[-91.2726312622211,30.6596846553007],[-91.2726342885056,30.6596857513367],[-91.2726373178403,30.6596868410571],[-91.2726403502078,30.6596879244554],[-91.2726433855902,30.6596890015253],[-91.2726464239699,30.6596900722606],[-91.2726494653293,30.6596911366551],[-91.2726525096505,30.6596921947025],[-91.272655556916,30.6596932463966],[-91.2726586071079,30.6596942917314],[-91.2726616602085,30.6596953307008],[-91.2726647162001,30.6596963632987],[-91.2726677750647,30.6596973895191],[-91.2726708367847,30.6596984093561],[-91.2726739013422,30.6596994228035],[-91.2726769687194,30.6597004298558],[-91.2726800388983,30.6597014305068],[-91.2726831118612,30.6597024247509],[-91.2726861875901,30.6597034125822],[-91.2726892660672,30.6597043939949],[-91.2726923472744,30.6597053689834],[-91.2726954311939,30.659706337542],[-91.2726985178078,30.659707299665],[-91.2727016070979,30.6597082553468],[-91.2727046990465,30.659709204582],[-91.2727077936354,30.6597101473648],[-91.2727108908466,30.65971108369],[-91.2727139906622,30.6597120135519],[-91.2727170930639,30.6597129369452],[-91.272720198034,30.6597138538646],[-91.2727233055541,30.6597147643046],[-91.2727264156063,30.65971566826],[-91.2727295281724,30.6597165657255],[-91.2727326432343,30.6597174566959],[-91.2727357607739,30.6597183411661],[-91.272738880773,30.6597192191307],[-91.2727420032135,30.6597200905848],[-91.2727451280771,30.6597209555233],[-91.2727482553457,30.6597218139411],[-91.2727513850012,30.6597226658333],[-91.2727545170251,30.6597235111948],[-91.2727576513994,30.6597243500208],[-91.2727607881058,30.6597251823063],[-91.272763927126,30.6597260080467],[-91.2727670684418,30.6597268272369],[-91.2727702120348,30.6597276398722],[-91.2727733578867,30.659728445948],[-91.2727765059793,30.6597292454595],[-91.2727796562942,30.6597300384021],[-91.2727828088131,30.6597308247711],[-91.2727859635176,30.6597316045621],[-91.2727891203893,30.6597323777703],[-91.2727922794099,30.6597331443914],[-91.272795440561,30.6597339044208],[-91.2727986038242,30.6597346578542],[-91.272801769181,30.6597354046872],[-91.2728049366131,30.6597361449154],[-91.2728081061019,30.6597368785344],[-91.2728112776291,30.6597376055402],[-91.2728144511762,30.6597383259283],[-91.2728176267247,30.6597390396946],[-91.2728208042561,30.659739746835],[-91.2728239837519,30.6597404473453],[-91.2728271651936,30.6597411412215],[-91.2728303485627,30.6597418284595],[-91.2728335338406,30.6597425090553],[-91.2728367210088,30.6597431830049],[-91.2728399100488,30.6597438503045],[-91.272843100942,30.6597445109501],[-91.2728462936698,30.659745164938],[-91.2728494882136,30.6597458122642],[-91.2728526845548,30.659746452925],[-91.2728558826748,30.6597470869168],[-91.272859082555,30.6597477142357],[-91.2728622841768,30.6597483348782],[-91.2728654875215,30.6597489488406],[-91.2728686925705,30.6597495561194],[-91.2728718993051,30.659750156711],[-91.2728751077067,30.6597507506119],[-91.2728783177564,30.6597513378187],[-91.2728815294358,30.659751918328],[-91.2728847427261,30.6597524921364],[-91.2728879576085,30.6597530592404],[-91.2728911740645,30.6597536196369],[-91.2728943920751,30.6597541733226],[-91.2728976116217,30.6597547202942],[-91.2729008326856,30.6597552605486],[-91.272904055248,30.6597557940826],[-91.2729072792901,30.6597563208931],[-91.2729105047932,30.6597568409771],[-91.2729137317385,30.6597573543314],[-91.2729169601072,30.6597578609533],[-91.2729201898805,30.6597583608395],[-91.2729234210396,30.6597588539874],[-91.2729266535657,30.6597593403939],[-91.27292988744,30.6597598200563],[-91.2729331226436,30.6597602929718],[-91.2729363591577,30.6597607591376],[-91.2729395969636,30.6597612185509],[-91.2729428360422,30.6597616712092],[-91.2729460763748,30.6597621171099],[-91.2729493179425,30.6597625562502],[-91.2729525607264,30.6597629886277],[-91.2729558047076,30.6597634142397],[-91.2729590498674,30.659763833084],[-91.2729622961867,30.6597642451579],[-91.2729655436467,30.6597646504591],[-91.2729687922284,30.6597650489853],[-91.272972041913,30.6597654407341],[-91.2729752926815,30.6597658257033],[-91.272978544515,30.6597662038906],[-91.2729817973946,30.6597665752938],[-91.2729850513013,30.6597669399107],[-91.2729883062162,30.6597672977392],[-91.2729915621204,30.6597676487773],[-91.2729948189949,30.6597679930229],[-91.2729980768207,30.659768330474],[-91.2730013355788,30.6597686611286],[-91.2730045952503,30.6597689849848],[-91.2730078558163,30.6597693020407],[-91.2730111172576,30.6597696122944],[-91.2730143795554,30.6597699157443],[-91.2730176426907,30.6597702123884],[-91.2730209066444,30.6597705022251],[-91.2730241713976,30.6597707852527],[-91.2730274369312,30.6597710614695],[-91.2730307032262,30.659771330874],[-91.2730339702636,30.6597715934645],[-91.2730372380244,30.6597718492395],[-91.2730405064896,30.6597720981976],[-91.2730437756402,30.6597723403372],[-91.273047045457,30.6597725756571],[-91.2730503159211,30.6597728041557],[-91.2730535870135,30.6597730258318],[-91.273056858715,30.6597732406842],[-91.2730601310067,30.6597734487114],[-91.2730634038695,30.6597736499124],[-91.2730666772843,30.659773844286],[-91.2730699512321,30.6597740318309],[-91.2767230408826,30.6600087990769],[-91.2767242637485,30.6600089351647],[-91.2767254855807,30.6600090780233],[-91.276726706329,30.6600092276468],[-91.2767279259433,30.6600093840291],[-91.2767291443735,30.6600095471638],[-91.2767303615697,30.6600097170441],[-91.2767315774817,30.6600098936631],[-91.2767327920598,30.6600100770136],[-91.276734005254,30.660010267088],[-91.2767352170146,30.6600104638785],[-91.2767364272918,30.6600106673771],[-91.2767376360358,30.6600108775753],[-91.2767388431972,30.6600110944646],[-91.2767400487263,30.6600113180361],[-91.2767412525736,30.6600115482805],[-91.2767424546897,30.6600117851884],[-91.2767436550253,30.6600120287501],[-91.2767448535311,30.6600122789556],[-91.2767460501579,30.6600125357946],[-91.2767472448565,30.6600127992566],[-91.2767484375779,30.6600130693308],[-91.2767496282732,30.660013346006],[-91.2767508168934,30.660013629271],[-91.2767520033898,30.660013919114],[-91.2767531877135,30.6600142155232],[-91.2767543698162,30.6600145184864],[-91.2767555496492,30.6600148279912],[-91.276756727164,30.6600151440249],[-91.2767579023123,30.6600154665745],[-91.2767590750459,30.6600157956268],[-91.2767602453166,30.6600161311681],[-91.2767614130764,30.6600164731849],[-91.2767625782773,30.660016821663],[-91.2767637408716,30.6600171765881],[-91.2767649008114,30.6600175379457],[-91.2767660580492,30.6600179057208],[-91.2767672125374,30.6600182798986],[-91.2767683642287,30.6600186604634],[-91.2767695130758,30.6600190473998],[-91.2767706590314,30.6600194406918],[-91.2767718020486,30.6600198403234],[-91.2767729420805,30.660020246278],[-91.2767740790802,30.6600206585391],[-91.276775213001,30.6600210770897],[-91.2767763437964,30.6600215019125],[-91.27677747142,30.6600219329903],[-91.2767785958255,30.6600223703052],[-91.2767797169667,30.6600228138394],[-91.2767808347976,30.6600232635746],[-91.2767819492724,30.6600237194924],[-91.2767830603451,30.660024181574],[-91.2767841679703,30.6600246498005],[-91.2767852721024,30.6600251241526],[-91.2767863726962,30.6600256046109],[-91.2767874697065,30.6600260911556],[-91.2767885630881,30.6600265837669],[-91.2767896527963,30.6600270824243],[-91.2767907387862,30.6600275871076],[-91.2767918210134,30.6600280977959],[-91.2767928994333,30.6600286144683],[-91.2767939740017,30.6600291371035],[-91.2767950446746,30.6600296656802],[-91.2767961114078,30.6600302001766],[-91.2767971741577,30.6600307405709],[-91.2767982328806,30.6600312868407],[-91.276799287533,30.6600318389636],[-91.2768003380716,30.6600323969171],[-91.2768013844534,30.6600329606782],[-91.2768024266354,30.6600335302237],[-91.2768034645746,30.6600341055303],[-91.2768044982287,30.6600346865743],[-91.2768055275551,30.660035273332],[-91.2768065525115,30.6600358657792],[-91.2768075730559,30.6600364638915],[-91.2768085891465,30.6600370676445],[-91.2768096007413,30.6600376770133],[-91.276810607799,30.6600382919729],[-91.2768116102783,30.6600389124981],[-91.2768126081379,30.6600395385635],[-91.2768136013368,30.6600401701432],[-91.2768145898343,30.6600408072114],[-91.2768155735899,30.6600414497419],[-91.2768165525631,30.6600420977084],[-91.2768175267137,30.6600427510842],[-91.2768184960018,30.6600434098425],[-91.2768194603875,30.6600440739563],[-91.2768204198313,30.6600447433983],[-91.2768213742938,30.660045418141],[-91.2768223237358,30.6600460981568],[-91.2768232681183,30.6600467834176],[-91.2768242074025,30.6600474738955],[-91.2768251415498,30.6600481695619],[-91.2768260705221,30.6600488703884],[-91.276826994281,30.6600495763462],[-91.2768279127887,30.6600502874064],[-91.2768288260074,30.6600510035396],[-91.2768297338997,30.6600517247165],[-91.2768306364283,30.6600524509076],[-91.2768315335561,30.660053182083],[-91.2768324252463,30.6600539182126],[-91.2768333114624,30.6600546592664],[-91.2768341921678,30.6600554052137],[-91.2768350673265,30.6600561560241],[-91.2768359369026,30.6600569116666],[-91.2768368008602,30.6600576721103],[-91.2768376591641,30.660058437324],[-91.2768385117789,30.6600592072762],[-91.2768393586696,30.6600599819353],[-91.2768401998014,30.6600607612696],[-91.2768410351399,30.6600615452469],[-91.2768418646507,30.6600623338352],[-91.2768426882997,30.6600631270021],[-91.2768435060533,30.6600639247149],[-91.2768443178777,30.6600647269411],[-91.2768451237397,30.6600655336475],[-91.2768459236061,30.6600663448011],[-91.2768467174442,30.6600671603687],[-91.2768475052213,30.6600679803166],[-91.2768482869051,30.6600688046113],[-91.2768490624636,30.660069633219],[-91.2768498318648,30.6600704661055],[-91.2768505950772,30.6600713032367],[-91.2768513520695,30.6600721445782],[-91.2768521028105,30.6600729900956],[-91.2768528472695,30.660073839754],[-91.2768535854159,30.6600746935186],[-91.2768543172194,30.6600755513544],[-91.2768550426499,30.6600764132261],[-91.2768557616776,30.6600772790983],[-91.2768564742731,30.6600781489356],[-91.2768571804071,30.6600790227021],[-91.2768578800506,30.6600799003621],[-91.2768585731749,30.6600807818794],[-91.2768592597515,30.6600816672179],[-91.2768599397522,30.6600825563413],[-91.2768606131491,30.6600834492131],[-91.2768612799146,30.6600843457965],[-91.2768619400213,30.6600852460548],[-91.276862593442,30.6600861499511],[-91.2768632401501,30.6600870574481],[-91.2768638801188,30.6600879685087],[-91.276864513322,30.6600888830955],[-91.2768651397337,30.6600898011709],[-91.2768657593281,30.6600907226972],[-91.2768663720797,30.6600916476366],[-91.2768669779636,30.660092575951],[-91.2768675769546,30.6600935076025],[-91.2768681690284,30.6600944425528],[-91.2768687541605,30.6600953807634],[-91.2768693323269,30.6600963221959],[-91.276869903504,30.6600972668115],[-91.2768704676682,30.6600982145716],[-91.2768710247964,30.6600991654372],[-91.2768715748658,30.6601001193693],[-91.2768721178536,30.6601010763287],[-91.2768726537378,30.6601020362761],[-91.2768731824961,30.6601029991722],[-91.276873704107,30.6601039649773],[-91.2768742185491,30.6601049336519],[-91.2768747258011,30.6601059051561],[-91.2768752258423,30.6601068794501],[-91.2768757186522,30.6601078564939],[-91.2768762042105,30.6601088362473],[-91.2768766824973,30.6601098186703],[-91.2768771534929,30.6601108037223],[-91.276877617178,30.660111791363],[-91.2768780735336,30.6601127815518],[-91.276878522541,30.6601137742482],[-91.2768789641816,30.6601147694112],[-91.2768793984375,30.6601157670001],[-91.2768798252906,30.6601167669739],[-91.2768802447236,30.6601177692916],[-91.2768806567192,30.660118773912],[-91.2768810612605,30.6601197807938],[-91.2768814583309,30.6601207898958],[-91.2768818479141,30.6601218011765],[-91.276882229994,30.6601228145944],[-91.276882604555,30.6601238301078],[-91.2768829715817,30.6601248476752],[-91.2768833310592,30.6601258672546],[-91.2768836829724,30.6601268888044],[-91.2768840273072,30.6601279122824],[-91.2768843640492,30.6601289376467],[-91.2768846931848,30.6601299648553],[-91.2768850147003,30.6601309938658],[-91.2768853285826,30.6601320246362],[-91.2768856348187,30.660133057124],[-91.2768859333962,30.6601340912869],[-91.2768862243027,30.6601351270824],[-91.2768865075264,30.660136164468],[-91.2768867830555,30.6601372034012],[-91.2768870508788,30.6601382438392],[-91.2768873109853,30.6601392857393],[-91.2768875633643,30.6601403290588],[-91.2768878080054,30.6601413737549],[-91.2768880448986,30.6601424197846],[-91.2768882740341,30.660143467105],[-91.2768884954027,30.6601445156731],[-91.2768887089951,30.6601455654459],[-91.2768889148026,30.6601466163802],[-91.2768891128167,30.660147668433],[-91.2768893030294,30.660148721561],[-91.2768894854328,30.660149775721],[-91.2768896600194,30.6601508308696],[-91.2768898267821,30.6601518869637],[-91.276889985714,30.6601529439598],[-91.2768901368086,30.6601540018146],[-91.2768902800597,30.6601550604846],[-91.2768904154613,30.6601561199263],[-91.276890543008,30.6601571800963],[-91.2768906626945,30.660158240951],[-91.2768907745159,30.6601593024469],[-91.2768908784676,30.6601603645404],[-91.2768909745454,30.6601614271879],[-91.2768910627452,30.6601624903458],[-91.2768911430635,30.6601635539704],[-91.2768912154969,30.6601646180181],[-91.2768912800426,30.6601656824451],[-91.2768913366978,30.6601667472078],[-91.2768913854603,30.6601678122624],[-91.2768914263279,30.6601688775654],[-91.2768914592991,30.6601699430728],[-91.2768914843724,30.6601710087409],[-91.2768915015469,30.6601720745261],[-91.2768915108219,30.6601731403846]]]},"properties":{"FID":40,"ID1":28,"CEMETERY_N":"PORT HUDSON NATIONAL CEMETERY","ADDRESS_ID":52983,"OWNERSHIP":"PUBLIC"}},{"type":"Feature","id":41,"geometry":{"type":"Polygon","coordinates":[[[-91.2727388643887,30.6615929659706],[-91.2727556691987,30.6619532594772],[-91.2723452594485,30.6619697017076],[-91.2723243038919,30.6616050462803],[-91.2727388643887,30.6615929659706]]]},"properties":{"FID":41,"ID1":29,"CEMETERY_N":"COLLIER FAMILY CEMETERY","ADDRESS_ID":186201,"OWNERSHIP":"PRIVATE"}},{"type":"Feature","id":42,"geometry":{"type":"Polygon","coordinates":[[[-91.2523424680776,30.640431672715],[-91.2540472740198,30.6407435058996],[-91.2548174869099,30.6391314768821],[-91.2567627602124,30.6392781874734],[-91.2567026000393,30.6467821774984],[-91.2560813581257,30.6467777295712],[-91.2540764711203,30.6467633552462],[-91.2525368549812,30.6467522961561],[-91.2514277055582,30.6467443180309],[-91.2494800783049,30.6467302862607],[-91.2494334467654,30.6466720314624],[-91.2523424680776,30.640431672715]]]},"properties":{"FID":42,"ID1":30,"CEMETERY_N":"LOUISIANA NATIONAL CEMETERY","ADDRESS_ID":183931,"OWNERSHIP":"PUBLIC"}},{"type":"Feature","id":43,"geometry":{"type":"Polygon","coordinates":[[[-91.2551278681042,30.7043064032014],[-91.2543921731342,30.7050764885986],[-91.2540140626833,30.705088938232],[-91.2543712915787,30.7042403211002],[-91.2551278681042,30.7043064032014]]]},"properties":{"FID":43,"ID1":31,"CEMETERY_N":"CEMETERY","ADDRESS_ID":130416,"OWNERSHIP":"PRIVATE"}},{"type":"Feature","id":44,"geometry":{"type":"Polygon","coordinates":[[[-90.9966001967743,30.6073839394787],[-90.9963332067272,30.6073860983545],[-90.9961162080813,30.6068546437667],[-90.9956541605978,30.6063522353703],[-90.9956277465172,30.6061240767155],[-90.9955887754246,30.6053962663879],[-90.9956734212014,30.6051261240719],[-90.9963758502037,30.6051588313161],[-90.9964892439937,30.605639358841],[-90.9965619595631,30.6059873963423],[-90.9966105961449,30.6063369039807],[-90.9966345154489,30.6066539442011],[-90.9966404916025,30.60697196431],[-90.9966270732564,30.6072886676143],[-90.9966001967743,30.6073839394787]]]},"properties":{"FID":44,"ID1":32,"CEMETERY_N":"BETHEL UNITED METHODIST CEMETERY","ADDRESS_ID":133072,"OWNERSHIP":"PRIVATE"}},{"type":"Feature","id":45,"geometry":{"type":"Polygon","coordinates":[[[-91.0483839758426,30.6616545487733],[-91.0483865492375,30.6619093671774],[-91.0470734451461,30.6619059295673],[-91.0465741338266,30.6619046326644],[-91.0465664137455,30.6618118749486],[-91.0465521077473,30.6616296837159],[-91.0483839758426,30.6616545487733]]]},"properties":{"FID":45,"ID1":33,"CEMETERY_N":"MOUNT HOLLY CEMETERY","ADDRESS_ID":171382,"OWNERSHIP":"PRIVATE"}},{"type":"Feature","id":46,"geometry":{"type":"Polygon","coordinates":[[[-90.9729719783067,30.6936417476653],[-90.9729338784289,30.6938934219748],[-90.9725807102188,30.6938910197524],[-90.9726100560063,30.693623103919],[-90.9729719783067,30.6936417476653]]]},"properties":{"FID":46,"ID1":34,"CEMETERY_N":"CEMETERY","ADDRESS_ID":172905,"OWNERSHIP":"PRIVATE"}},{"type":"Feature","id":47,"geometry":{"type":"Polygon","coordinates":[[[-90.9797597026845,30.6861907370943],[-90.978072644054,30.6867264219683],[-90.9779439730701,30.6865791802361],[-90.9778204389382,30.6864286941834],[-90.9777021493405,30.6862750933316],[-90.9775892055755,30.6861185126837],[-90.977579287136,30.686104250018],[-90.97975936735,30.6860930936015],[-90.9797597026845,30.6861907370943]]]},"properties":{"FID":47,"ID1":35,"CEMETERY_N":"SANDY CREEK CEMETERY","ADDRESS_ID":170909,"OWNERSHIP":"PRIVATE"}},{"type":"Feature","id":48,"geometry":{"type":"Polygon","coordinates":[[[-91.0403725318016,30.7078869641585],[-91.0408688707124,30.7078817402071],[-91.0408819411604,30.7087441991957],[-91.0410326693878,30.7088249796895],[-91.0410517016765,30.7097505702012],[-91.0404827371883,30.7097593034734],[-91.0404573191101,30.7088314889797],[-91.040455060076,30.7087490285206],[-91.0404443268455,30.7084842899901],[-91.0404440485424,30.7084785719594],[-91.0404437624186,30.7084728542168],[-91.0404434684747,30.7084671367703],[-91.040443166711,30.708461419628],[-91.0404428571279,30.7084557027978],[-91.0404425397259,30.7084499862878],[-91.0404422145053,30.7084442701058],[-91.0404418814668,30.70843855426],[-91.0404415406106,30.7084328387582],[-91.0404411919374,30.7084271236084],[-91.0404408354476,30.7084214088187],[-91.0404404711416,30.708415694397],[-91.0404400990201,30.7084099803513],[-91.0404397190835,30.7084042666895],[-91.0404393313324,30.7083985534197],[-91.0404389357672,30.7083928405499],[-91.0404385323886,30.7083871280879],[-91.0404381211971,30.7083814160418],[-91.0404377021933,30.7083757044197],[-91.0404372753779,30.7083699932293],[-91.0404368407512,30.7083642824788],[-91.0404363983141,30.7083585721761],[-91.0404359480671,30.7083528623291],[-91.0404354900108,30.708347152946],[-91.0404350241458,30.7083414440345],[-91.040434550473,30.7083357356027],[-91.0404340689928,30.7083300276586],[-91.040433579706,30.7083243202101],[-91.0404330826132,30.7083186132653],[-91.0404325777152,30.708312906832],[-91.0404320650126,30.7083072009183],[-91.0404315445062,30.7083014955321],[-91.0404310161967,30.7082957906814],[-91.0404304800848,30.7082900863742],[-91.0404299361713,30.7082843826184],[-91.040429384457,30.708278679422],[-91.0404288249426,30.7082729767929],[-91.0404282576289,30.7082672747392],[-91.0404276825167,30.7082615732687],[-91.0404270996068,30.7082558723895],[-91.0404265089,30.7082501721096],[-91.0404259103972,30.7082444724368],[-91.0404253040991,30.7082387733791],[-91.0404246900067,30.7082330749445],[-91.0404240681208,30.708227377141],[-91.0404234384422,30.7082216799765],[-91.0404228009718,30.7082159834589],[-91.0404221557106,30.7082102875963],[-91.0404215026595,30.7082045923966],[-91.0404208418192,30.7081988978677],[-91.0404201731909,30.7081932040176],[-91.0404194967753,30.7081875108542],[-91.0404188125735,30.7081818183856],[-91.0404181205865,30.7081761266195],[-91.040417420815,30.708170435564],[-91.0404167132603,30.7081647452271],[-91.0404159979232,30.7081590556167],[-91.0404152748047,30.7081533667407],[-91.0404145439059,30.7081476786071],[-91.0404138052278,30.7081419912238],[-91.0404130587714,30.7081363045989],[-91.0404123045378,30.7081306187401],[-91.0404115425279,30.7081249336554],[-91.0404107727429,30.7081192493528],[-91.0404099951839,30.7081135658403],[-91.040409209852,30.7081078831258],[-91.0404084167481,30.7081022012171],[-91.0404076158735,30.7080965201223],[-91.0404068072293,30.7080908398493],[-91.0404059908166,30.7080851604059],[-91.0404051666365,30.7080794818003],[-91.0404043346903,30.7080738040402],[-91.0404034949789,30.7080681271335],[-91.0404026475037,30.7080624510884],[-91.0404017922658,30.7080567759125],[-91.0404009292665,30.708051101614],[-91.0404000585068,30.7080454282007],[-91.0403991799881,30.7080397556805],[-91.0403982937115,30.7080340840614],[-91.0403973996784,30.7080284133512],[-91.0403964978899,30.708022743558],[-91.0403955883473,30.7080170746896],[-91.0403946710519,30.7080114067538],[-91.040393746005,30.7080057397588],[-91.0403928132078,30.7080000737123],[-91.0403918726617,30.7079944086223],[-91.040390924368,30.7079887444967],[-91.0403899683279,30.7079830813434],[-91.040389004543,30.7079774191704],[-91.0403880330144,30.7079717579853],[-91.0403870537435,30.7079660977964],[-91.0403860667318,30.7079604386114],[-91.0403850719806,30.7079547804382],[-91.0403840694912,30.7079491232848],[-91.0403830592652,30.707943467159],[-91.0403820413038,30.7079378120688],[-91.0403810156086,30.7079321580219],[-91.040379982181,30.7079265050265],[-91.0403789410223,30.7079208530902],[-91.0403778921341,30.7079152022211],[-91.0403768355178,30.7079095524269],[-91.040375771175,30.7079039037157],[-91.0403746991069,30.7078982560954],[-91.0403736193153,30.7078926095736],[-91.0403725318016,30.7078869641585]]]},"properties":{"FID":48,"ID1":36,"CEMETERY_N":"CEMETERY","ADDRESS_ID":60012,"OWNERSHIP":"PRIVATE"}},{"type":"Feature","id":49,"geometry":{"type":"Polygon","coordinates":[[[-91.1247290808815,30.6876598970141],[-91.1247165307594,30.6876329009006],[-91.1246743329503,30.6875587072231],[-91.1246264552917,30.6874867480376],[-91.1245965418257,30.687446445342],[-91.1235349562951,30.6861482706419],[-91.1235087397551,30.6861141567632],[-91.1234127838908,30.6859807972937],[-91.1233749511357,30.6859236366411],[-91.1233568885463,30.6858922244822],[-91.1233410756976,30.6858604914632],[-91.1247092587301,30.6859415487896],[-91.1247290808815,30.6876598970141]]]},"properties":{"FID":49,"ID1":37,"CEMETERY_N":"OAK GROVE CEMETERY","ADDRESS_ID":175075,"OWNERSHIP":"PRIVATE"}},{"type":"Feature","id":50,"geometry":{"type":"Polygon","coordinates":[[[-91.1363643037644,30.7067624345782],[-91.1363769676976,30.7073154773447],[-91.1358125551365,30.7073131569484],[-91.135786185585,30.7070113406813],[-91.1357697377988,30.7068572094345],[-91.1357575382704,30.7067634069925],[-91.1357496820566,30.7067030095671],[-91.1357227593093,30.7065619576268],[-91.1356913875686,30.7064150045338],[-91.1356331537189,30.7062156227324],[-91.1356243982729,30.706185645651],[-91.1363512991527,30.7061342294031],[-91.1363643037644,30.7067624345782]]]},"properties":{"FID":50,"ID1":38,"CEMETERY_N":"FAIR DEAL CEMETERY","ADDRESS_ID":130225,"OWNERSHIP":"PRIVATE"}},{"type":"Feature","id":51,"geometry":{"type":"Polygon","coordinates":[[[-91.1328926796197,30.5830634192561],[-91.1329138065768,30.5857190807329],[-91.1303493062029,30.5854388386033],[-91.1299114086599,30.5853660911367],[-91.1298842644928,30.5840492395875],[-91.1298597736895,30.5828610948442],[-91.1299498499353,30.5828816253369],[-91.1305020008195,30.5830074719684],[-91.1304949764318,30.5826667843395],[-91.1314503326213,30.5828543776957],[-91.1314437633096,30.5825359080926],[-91.1314703860506,30.5824318034145],[-91.1328926796197,30.5830634192561]]]},"properties":{"FID":51,"ID1":62,"CEMETERY_N":"HILLCREST MEMORIAL GARDENS","ADDRESS_ID":190938,"OWNERSHIP":"PUBLIC"}},{"type":"Feature","id":52,"geometry":{"type":"Polygon","coordinates":[[[-91.1673723126069,30.5418467410421],[-91.1663840721133,30.5418918128717],[-91.1663826875267,30.5418918726104],[-91.1663813025712,30.5418919255555],[-91.1663799172913,30.5418919717052],[-91.1663785317314,30.5418920110583],[-91.166377145936,30.5418920436132],[-91.1663757599498,30.5418920693691],[-91.1663743738171,30.541892088325],[-91.1663729875826,30.5418921004804],[-91.1663716012908,30.5418921058349],[-91.1663702149862,30.5418921043883],[-91.1663688287133,30.5418920961407],[-91.1663674425166,30.5418920810923],[-91.1663660564408,30.5418920592435],[-91.1663646705303,30.5418920305952],[-91.1663632848298,30.5418919951482],[-91.1663618993835,30.5418919529037],[-91.1663605142361,30.541891903863],[-91.1663591294321,30.5418918480276],[-91.166357745016,30.5418917853996],[-91.1663563610322,30.5418917159806],[-91.1663549775252,30.5418916397732],[-91.1663535945395,30.5418915567796],[-91.1663522121194,30.5418914670025],[-91.1663508303094,30.5418913704448],[-91.1663494491539,30.5418912671098],[-91.1663480686972,30.5418911570005],[-91.1663466889837,30.5418910401207],[-91.1663453100578,30.5418909164739],[-91.1663439319636,30.5418907860644],[-91.1663425547455,30.5418906488961],[-91.1663411784478,30.5418905049736],[-91.1663398031145,30.5418903543013],[-91.1663384287901,30.5418901968842],[-91.1663370555184,30.5418900327274],[-91.1663356833438,30.5418898618361],[-91.1663343123103,30.5418896842158],[-91.1663329424618,30.5418894998722],[-91.1663315738425,30.5418893088112],[-91.1663302064963,30.5418891110389],[-91.166328840467,30.5418889065618],[-91.1663274757988,30.5418886953864],[-91.1663261125352,30.5418884775194],[-91.1663247507201,30.541888252968],[-91.1663233903974,30.5418880217391],[-91.1663220316105,30.5418877838405],[-91.1663206744034,30.5418875392795],[-91.1663193188195,30.5418872880642],[-91.1663179649024,30.5418870302025],[-91.1663166126955,30.5418867657028],[-91.1663152622423,30.5418864945736],[-91.1663139135863,30.5418862168235],[-91.1663125667707,30.5418859324616],[-91.1663112218387,30.5418856414968],[-91.1663098788337,30.5418853439386],[-91.1663085377987,30.5418850397966],[-91.1663071987768,30.5418847290805],[-91.1663058618111,30.5418844118002],[-91.1663045269444,30.5418840879661],[-91.1663031942197,30.5418837575884],[-91.1663018636798,30.5418834206778],[-91.1663005353675,30.5418830772452],[-91.1662992093253,30.5418827273015],[-91.1662978855959,30.5418823708579],[-91.1662965642219,30.541882007926],[-91.1662952452456,30.5418816385175],[-91.1662939287095,30.5418812626441],[-91.1662926146558,30.541880880318],[-91.1662913031268,30.5418804915514],[-91.1662899941645,30.5418800963568],[-91.1662886878111,30.5418796947468],[-91.1662873841085,30.5418792867346],[-91.1662860830985,30.541878872333],[-91.1662847848231,30.5418784515555],[-91.1662834893238,30.5418780244156],[-91.1662821966424,30.5418775909269],[-91.1662809068202,30.5418771511033],[-91.1662796198989,30.5418767049592],[-91.1662783359196,30.5418762525087],[-91.1662770549237,30.5418757937664],[-91.1662757769523,30.541875328747],[-91.1662745020465,30.5418748574656],[-91.1662732302472,30.5418743799371],[-91.1662719615953,30.5418738961769],[-91.1662706961314,30.5418734062007],[-91.1662694338964,30.5418729100241],[-91.1662681749307,30.5418724076631],[-91.1662669192749,30.5418718991338],[-91.1662656669691,30.5418713844525],[-91.1662644180536,30.5418708636358],[-91.1662631725687,30.5418703367004],[-91.1662619305542,30.5418698036633],[-91.1662606920501,30.5418692645416],[-91.1662594570961,30.5418687193525],[-91.166258225732,30.5418681681136],[-91.1662569979973,30.5418676108427],[-91.1662557739315,30.5418670475575],[-91.1662545535737,30.5418664782762],[-91.1662533369634,30.5418659030172],[-91.1662521241394,30.5418653217988],[-91.166250915141,30.5418647346398],[-91.1662497100067,30.541864141559],[-91.1662485087755,30.5418635425754],[-91.1662473114857,30.5418629377083],[-91.166246118176,30.5418623269772],[-91.1662449288847,30.5418617104016],[-91.1662437436498,30.5418610880014],[-91.1662425625097,30.5418604597966],[-91.1662413855021,30.5418598258073],[-91.1662402126649,30.5418591860538],[-91.1662390440357,30.5418585405569],[-91.1662378796522,30.5418578893371],[-91.1662367195517,30.5418572324155],[-91.1662355637714,30.5418565698131],[-91.1662344123486,30.5418559015512],[-91.1662332653202,30.5418552276512],[-91.166232122723,30.5418545481348],[-91.1662309845938,30.541853863024],[-91.166229850969,30.5418531723406],[-91.1662287218853,30.5418524761068],[-91.1662275973787,30.541851774345],[-91.1662264774854,30.5418510670778],[-91.1662253622415,30.5418503543278],[-91.1662242516827,30.5418496361181],[-91.1662231458447,30.5418489124716],[-91.166222044763,30.5418481834116],[-91.1662209484731,30.5418474489615],[-91.16621985701,30.5418467091449],[-91.166218770409,30.5418459639857],[-91.1662176887049,30.5418452135076],[-91.1662166119324,30.5418444577348],[-91.1662155401261,30.5418436966917],[-91.1662144733205,30.5418429304025],[-91.1662134115499,30.5418421588921],[-91.1662123548483,30.5418413821851],[-91.1662113032496,30.5418406003065],[-91.1662102567878,30.5418398132815],[-91.1662092154964,30.5418390211353],[-91.1662081794088,30.5418382238933],[-91.1662071485583,30.5418374215811],[-91.1662061229781,30.5418366142247],[-91.1662051027011,30.5418358018498],[-91.16620408776,30.5418349844825],[-91.1662030781875,30.5418341621492],[-91.166202074016,30.5418333348762],[-91.1662010752778,30.5418325026902],[-91.1662006861427,30.5418278430931],[-91.1662002892232,30.5418231839879],[-91.1661998845203,30.5418185253843],[-91.1661994720348,30.5418138672922],[-91.1661990517675,30.5418092097212],[-91.1661986237193,30.5418045526811],[-91.1661981878913,30.5417998961817],[-91.1661977442841,30.5417952402327],[-91.1661972928988,30.5417905848438],[-91.1661968337363,30.5417859300247],[-91.1661963667976,30.5417812757852],[-91.1661958920837,30.541776622135],[-91.1661954095955,30.5417719690838],[-91.166194919334,30.5417673166415],[-91.1661944213004,30.5417626648177],[-91.1661939154956,30.541758013622],[-91.1661934019206,30.5417533630644],[-91.1661928805767,30.5417487131545],[-91.1661923514647,30.5417440639019],[-91.166191814586,30.5417394153164],[-91.1661912699415,30.5417347674079],[-91.1661907175325,30.5417301201859],[-91.16619015736,30.5417254736602],[-91.1661895894253,30.5417208278405],[-91.1661890137295,30.5417161827365],[-91.1661884302739,30.541711538358],[-91.1661878390596,30.5417068947146],[-91.166187240088,30.541702251816],[-91.1661866333602,30.5416976096721],[-91.1661860188775,30.5416929682924],[-91.1661853966413,30.5416883276866],[-91.1661847666528,30.5416836878646],[-91.1661841289133,30.541679048836],[-91.1661834834242,30.5416744106104],[-91.1661828301868,30.5416697731976],[-91.1661821692024,30.5416651366074],[-91.1661815004726,30.5416605008493],[-91.1661808239987,30.541655865933],[-91.166180139782,30.5416512318684],[-91.166179447824,30.541646598665],[-91.1661787481262,30.5416419663325],[-91.16617804069,30.5416373348807],[-91.166177325517,30.5416327043192],[-91.1661766026085,30.5416280746577],[-91.1661758719662,30.5416234459059],[-91.1661751335916,30.5416188180734],[-91.1661743874861,30.54161419117],[-91.1661736336514,30.5416095652053],[-91.166172872089,30.541604940189],[-91.1661721028005,30.5416003161307],[-91.1661713257876,30.5415956930401],[-91.1661705410519,30.541591070927],[-91.1661697485949,30.541586449801],[-91.1661689484184,30.5415818296716],[-91.1661681405241,30.5415772105487],[-91.1661673249136,30.5415725924417],[-91.1661665015885,30.5415679753605],[-91.1661656705509,30.5415633593147],[-91.1661648318021,30.5415587443139],[-91.1661639853441,30.5415541303677],[-91.1661631311787,30.5415495174858],[-91.1661622693075,30.5415449056779],[-91.1661613997325,30.5415402949535],[-91.1661605224554,30.5415356853225],[-91.1661596374781,30.5415310767943],[-91.1661587448024,30.5415264693786],[-91.1661578444302,30.5415218630851],[-91.1661569363633,30.5415172579234],[-91.1661560206037,30.5415126539031],[-91.1661550971534,30.5415080510338],[-91.1661541660141,30.5415034493252],[-91.1661532271879,30.5414988487869],[-91.1661522806767,30.5414942494285],[-91.1661513264825,30.5414896512597],[-91.1661503646074,30.5414850542899],[-91.1661493950533,30.5414804585289],[-91.1661484178222,30.5414758639864],[-91.1661474329162,30.5414712706717],[-91.1661464403374,30.5414666785947],[-91.1661454400878,30.5414620877648],[-91.1661444321696,30.5414574981917],[-91.1661434165847,30.5414529098851],[-91.1661423933355,30.5414483228543],[-91.1661413624239,30.5414437371092],[-91.1661403238522,30.5414391526592],[-91.1661392776225,30.5414345695139],[-91.166138223737,30.541429987683],[-91.166137162198,30.541425407176],[-91.1661360930076,30.5414208280025],[-91.166135016168,30.541416250172],[-91.1661339316817,30.5414116736942],[-91.1661328395507,30.5414070985786],[-91.1661317397774,30.5414025248347],[-91.1661306323641,30.5413979524722],[-91.1661295173131,30.5413933815006],[-91.1661283946267,30.5413888119294],[-91.1661272643073,30.5413842437683],[-91.1661261263573,30.5413796770268],[-91.1661249807789,30.5413751117143],[-91.1661238275748,30.5413705478405],[-91.1661226667471,30.5413659854149],[-91.1661214982985,30.541361424447],[-91.1661203222312,30.5413568649465],[-91.1661191385479,30.5413523069228],[-91.1661179472508,30.5413477503854],[-91.1661149719199,30.541232726452],[-91.1664943257458,30.5412253341179],[-91.1673325976163,30.5411875014783],[-91.1673723126069,30.5418467410421]]]},"properties":{"FID":52,"ID1":82,"CEMETERY_N":"HEAVENLY GATES CEMETERY","ADDRESS_ID":164231,"OWNERSHIP":"PUBLIC"}},{"type":"Feature","id":53,"geometry":{"type":"Polygon","coordinates":[[[-91.0248655276934,30.5383643987061],[-91.0249009285461,30.5383624109708],[-91.0249602329244,30.5383529368136],[-91.0250077347604,30.5383385910967],[-91.0251098700744,30.5383752257486],[-91.0250284375606,30.5386028654005],[-91.0247665198799,30.5385161715962],[-91.0248287196848,30.5383663802031],[-91.0248655276934,30.5383643987061]]]},"properties":{"FID":53,"ID1":108,"CEMETERY_N":"CEMETERY","ADDRESS_ID":203019,"OWNERSHIP":"PRIVATE"}},{"type":"Feature","id":54,"geometry":{"type":"Polygon","coordinates":[[[-91.0890477833162,30.4837034629907],[-91.0886503727267,30.4838106134572],[-91.0885150166793,30.4832981354535],[-91.0888356850476,30.483228969069],[-91.0889056014198,30.4832172764138],[-91.0890477833162,30.4837034629907]]]},"properties":{"FID":54,"ID1":109,"CEMETERY_N":"MOUNT OLIVE BAPTIST CHURCH","ADDRESS_ID":122260,"OWNERSHIP":"PRIVATE"}},{"type":"Feature","id":55,"geometry":{"type":"Polygon","coordinates":[[[-91.1377563690829,30.6362545010224],[-91.1371157936938,30.6365869679944],[-91.1367424625998,30.6360493062383],[-91.1372249096863,30.635799283233],[-91.1378759823458,30.6361924179009],[-91.1377563690829,30.6362545010224]]]},"properties":{"FID":55,"ID1":110,"CEMETERY_N":"SHAW-MCHUGH MEMORIAL CEMETERY","ADDRESS_ID":154537,"OWNERSHIP":"PRIVATE"}},{"type":"Feature","id":56,"geometry":{"type":"Polygon","coordinates":[[[-91.048401674129,30.575645397617],[-91.0491120729434,30.5755532945514],[-91.0491171569478,30.5760112829125],[-91.0484285338209,30.5760222253175],[-91.048401674129,30.575645397617]]]},"properties":{"FID":56,"ID1":10009,"CEMETERY_N":"CEMETERY","ADDRESS_ID":201954,"OWNERSHIP":"PRIVATE"}},{"type":"Feature","id":57,"geometry":{"type":"Polygon","coordinates":[[[-91.0008852465392,30.5893196490969],[-91.0005211637356,30.5893050651461],[-91.0005243731124,30.5891086702132],[-91.0005569712923,30.5891128370344],[-91.0008210395418,30.5891499310187],[-91.000897154266,30.5891633983402],[-91.0010172128603,30.589184645044],[-91.0010037115595,30.5893233394206],[-91.0008852465392,30.5893196490969]]]},"properties":{"FID":57,"ID1":999,"CEMETERY_N":"CEMETERY","ADDRESS_ID":205268,"OWNERSHIP":"PRIVATE"}},{"type":"Feature","id":58,"geometry":{"type":"Polygon","coordinates":[[[-91.0732278573411,30.641235422822],[-91.0733804478043,30.6413149597032],[-91.0734861195573,30.6413681419632],[-91.0735648928029,30.6414044423368],[-91.0736045333988,30.6414220220218],[-91.0733722430241,30.6423654145408],[-91.0729650000861,30.6423029355227],[-91.0732278573411,30.641235422822]]]},"properties":{"FID":58,"ID1":9999,"CEMETERY_N":"TUCKER CEMETERY","ADDRESS_ID":201849,"OWNERSHIP":"PRIVATE"}},{"type":"Feature","id":59,"geometry":{"type":"Polygon","coordinates":[[[-91.1639641405173,30.5447794759801],[-91.1626284225928,30.544748445487],[-91.1623242747454,30.5447363761569],[-91.1620063343889,30.5447280797234],[-91.1616983804354,30.544721855771],[-91.1614405461277,30.5447158733025],[-91.1612466673159,30.544711374447],[-91.1599869776728,30.5446753681489],[-91.1599540583311,30.5437634508443],[-91.1599328633424,30.5431763074548],[-91.1599256292938,30.5430097331671],[-91.1598832398208,30.5420336436576],[-91.1612160874977,30.5420350190215],[-91.1612269751708,30.5421367175505],[-91.1625288452458,30.5420906646984],[-91.1626733862294,30.5419463561052],[-91.1627349762429,30.5419998251218],[-91.1628866318031,30.5419451054139],[-91.1629093901793,30.5420336089638],[-91.1629728711009,30.5420123348164],[-91.1631314790495,30.5420140642448],[-91.1632460677502,30.5419928556636],[-91.1633763893704,30.5420464126684],[-91.163550790551,30.5420878227384],[-91.1636293078309,30.5420820884457],[-91.1636630318033,30.542091930743],[-91.1636943418402,30.5421035130954],[-91.1637291311613,30.5421219378018],[-91.1637599454595,30.5421429391489],[-91.1637828577441,30.5421614283613],[-91.1638115097346,30.5421856382945],[-91.1638325119478,30.5422084362033],[-91.1638748635119,30.5422518853614],[-91.1639641405173,30.5447794759801]]]},"properties":{"FID":59,"ID1":996,"CEMETERY_N":"SOUTHERN MEMORIAL GARDENS","ADDRESS_ID":67039,"OWNERSHIP":"PUBLIC"}}]}