{
"type": "FeatureCollection",
"name": "Hospital_Facility",
"crs": { "type": "name", "properties": { "name": "urn:ogc:def:crs:OGC:1.3:CRS84" } },
"features": [
{ "type": "Feature", "properties": { "ID": 1, "CATEGORY": "URGENT CARE", "FACILITY_NAME": "Lake After Hours", "FULL_ADDRESS": "13702 COURSEY BLVD", "CITY": "BATON ROUGE", "STATE": "LOUISIANA", "ZIP": 70817, "PHONE_NUMBER": null, "WEBSITE": "http://lakeafterhours.com/" }, "geometry": { "type": "Point", "coordinates": [ -91.025066164860959, 30.407522453352467 ] } },
{ "type": "Feature", "properties": { "ID": 2, "CATEGORY": "PRIMARY CARE", "FACILITY_NAME": "BR General Physicians - Shenandoah", "FULL_ADDRESS": "13828 COURSEY BLVD", "CITY": "BATON ROUGE", "STATE": "LOUISIANA", "ZIP": 70817, "PHONE_NUMBER": "225-752-4530", "WEBSITE": "https://www.brgeneral.org/locations/baton-rouge-general-physicians-shenandoah/" }, "geometry": { "type": "Point", "coordinates": [ -91.023838751616708, 30.407741612903429 ] } },
{ "type": "Feature", "properties": { "ID": 3, "CATEGORY": "SPECIALITY HOSPITAL", "FACILITY_NAME": "Regions Behavioral Health", "FULL_ADDRESS": "8416 CUMBERLAND PL", "CITY": "BATON ROUGE", "STATE": "LOUISIANA", "ZIP": 70806, "PHONE_NUMBER": "225-408-6060", "WEBSITE": "https://www.regionsbh.com" }, "geometry": { "type": "Point", "coordinates": [ -91.097525368290775, 30.444899470285833 ] } },
{ "type": "Feature", "properties": { "ID": 4, "CATEGORY": "PRIMARY CARE", "FACILITY_NAME": "BR General Imaging Center - Dijon", "FULL_ADDRESS": "5422 DIJON DR", "CITY": "BATON ROUGE", "STATE": "LOUISIANA", "ZIP": 70808, "PHONE_NUMBER": "225-769-9337", "WEBSITE": "https://www.brgeneral.org/locations/baton-rouge-general-imaging-center-dijon/" }, "geometry": { "type": "Point", "coordinates": [ -91.113814940039674, 30.401572618502868 ] } },
{ "type": "Feature", "properties": { "ID": 5, "CATEGORY": "URGENT CARE", "FACILITY_NAME": "Lake After Hours", "FULL_ADDRESS": "3282 DRUSILLA LN", "CITY": "BATON ROUGE", "STATE": "LOUISIANA", "ZIP": 70809, "PHONE_NUMBER": null, "WEBSITE": "http://lakeafterhours.com/" }, "geometry": { "type": "Point", "coordinates": [ -91.088675060360089, 30.421006034120488 ] } },
{ "type": "Feature", "properties": { "ID": 6, "CATEGORY": "SPECIALITY HOSPITAL", "FACILITY_NAME": "Seaside Health System", "FULL_ADDRESS": "4363 CONVENTION ST", "CITY": "BATON ROUGE", "STATE": "LOUISIANA", "ZIP": 70806, "PHONE_NUMBER": "225-367-6038", "WEBSITE": "https://www.seasidehealthsystem.com" }, "geometry": { "type": "Point", "coordinates": [ -91.144160834652325, 30.449650153520309 ] } },
{ "type": "Feature", "properties": { "ID": 7, "CATEGORY": "SPECIALTY HOSPITAL", "FACILITY_NAME": "Apollo Behavioral Health Hospital", "FULL_ADDRESS": "9938 AIRLINE HWY", "CITY": "BATON ROUGE", "STATE": "LOUISIANA", "ZIP": 70809, "PHONE_NUMBER": "225-663-2881", "WEBSITE": "http://www.apollo-bhh.com/" }, "geometry": { "type": "Point", "coordinates": [ -91.078609187546505, 30.42742107712661 ] } },
{ "type": "Feature", "properties": { "ID": 8, "CATEGORY": "EMERGENCY ROOM & PRIMARY CARE", "FACILITY_NAME": "OLOL/LSU Health North Clinic", "FULL_ADDRESS": "5439 AIRLINE HWY", "CITY": "BATON ROUGE", "STATE": "LOUISIANA", "ZIP": 70811, "PHONE_NUMBER": "225-358-4853", "WEBSITE": "https://ololrmc.com/services/lsu-health-baton-rouge/" }, "geometry": { "type": "Point", "coordinates": [ -91.136509495750516, 30.508175073285781 ] } },
{ "type": "Feature", "properties": { "ID": 9, "CATEGORY": "SPECIALITY HOSPITAL", "FACILITY_NAME": "Baton Rouge Vascular Access", "FULL_ADDRESS": "505 E AIRPORT AVE", "CITY": "BATON ROUGE", "STATE": "LOUISIANA", "ZIP": 70806, "PHONE_NUMBER": "225-769-2572", "WEBSITE": "https://www.azuravascularcare.com/center/baton-rouge-vascular-access/" }, "geometry": { "type": "Point", "coordinates": [ -91.10146563858217, 30.446581890458983 ] } },
{ "type": "Feature", "properties": { "ID": 10, "CATEGORY": "PRIMARY CARE", "FACILITY_NAME": "BR General Physicians - Bluebonnet Family Clinic", "FULL_ADDRESS": "8680 BLUEBONNET BLVD", "CITY": "BATON ROUGE", "STATE": "LOUISIANA", "ZIP": 70810, "PHONE_NUMBER": "225-333-3590", "WEBSITE": "https://www.brgeneral.org/locations/baton-rouge-general-physicians-bluebonnet-family/" }, "geometry": { "type": "Point", "coordinates": [ -91.101872794732472, 30.371715239641659 ] } },
{ "type": "Feature", "properties": { "ID": 11, "CATEGORY": "PRIMARY CARE", "FACILITY_NAME": "Ochsner Health Center Bluebonnet South", "FULL_ADDRESS": "10150 BLUEBONNET BLVD", "CITY": "BATON ROUGE", "STATE": "LOUISIANA", "ZIP": 70810, "PHONE_NUMBER": "225-761-5200", "WEBSITE": "https://www.ochsner.org/locations/ochsner-health-center-bluebonnet-south" }, "geometry": { "type": "Point", "coordinates": [ -91.111967388424304, 30.352749793402158 ] } },
{ "type": "Feature", "properties": { "ID": 12, "CATEGORY": "SPECIALTY HOSPITAL", "FACILITY_NAME": "Surgical Specialty Center", "FULL_ADDRESS": "8080 BLUEBONNET BLVD", "CITY": "BATON ROUGE", "STATE": "LOUISIANA", "ZIP": 70810, "PHONE_NUMBER": "225-408-8080", "WEBSITE": "http://www.sscbr.com/" }, "geometry": { "type": "Point", "coordinates": [ -91.100807138371962, 30.376548657781896 ] } },
{ "type": "Feature", "properties": { "ID": 13, "CATEGORY": "SPECIALTY HOSPITAL", "FACILITY_NAME": "Mary Bird Perkins Cancer Center", "FULL_ADDRESS": "4950 ESSEN LN", "CITY": "BATON ROUGE", "STATE": "LOUISIANA", "ZIP": 70808, "PHONE_NUMBER": "225-767-0847", "WEBSITE": "http://marybird.org/" }, "geometry": { "type": "Point", "coordinates": [ -91.105146868439434, 30.403649939153784 ] } },
{ "type": "Feature", "properties": { "ID": 14, "CATEGORY": "SPECIALTY HOSPITAL", "FACILITY_NAME": "Oceans Behavioral Hospital Baton Rouge", "FULL_ADDRESS": "11135 FLORIDA BLVD", "CITY": "BATON ROUGE", "STATE": "LOUISIANA", "ZIP": 70815, "PHONE_NUMBER": "225-356-7030", "WEBSITE": "http://obhbr.info/" }, "geometry": { "type": "Point", "coordinates": [ -91.06126334633386, 30.458839224233689 ] } },
{ "type": "Feature", "properties": { "ID": 15, "CATEGORY": "PRIMARY CARE", "FACILITY_NAME": "BR General Physicians - Primary Care Group", "FULL_ADDRESS": "5353 FLORIDA BLVD", "CITY": "BATON ROUGE", "STATE": "LOUISIANA", "ZIP": 70806, "PHONE_NUMBER": "225-367-4558", "WEBSITE": "https://www.brgeneral.org/locations/baton-rouge-general-physicians-primary-care-grou/" }, "geometry": { "type": "Point", "coordinates": [ -91.134795338320799, 30.451562762416152 ] } },
{ "type": "Feature", "properties": { "ID": 16, "CATEGORY": "FULL SERVICE HOSPITAL", "FACILITY_NAME": "Baton Rouge General Hospital - Mid City Campus", "FULL_ADDRESS": "3600 FLORIDA ST", "CITY": "BATON ROUGE", "STATE": "LOUISIANA", "ZIP": 70806, "PHONE_NUMBER": "225-387-7000", "WEBSITE": "http://www.brgeneral.org/" }, "geometry": { "type": "Point", "coordinates": [ -91.153086616071093, 30.449630665664316 ] } },
{ "type": "Feature", "properties": { "ID": 17, "CATEGORY": "PRIMARY CARE", "FACILITY_NAME": "OLOL/LSU Health Mid City Clinic And Pharmacy", "FULL_ADDRESS": "1401 N FOSTER DR", "CITY": "BATON ROUGE", "STATE": "LOUISIANA", "ZIP": 70806, "PHONE_NUMBER": "225-358-4853", "WEBSITE": "https://ololrmc.com/services/lsu-health-baton-rouge/" }, "geometry": { "type": "Point", "coordinates": [ -91.140378353014611, 30.46167411682497 ] } },
{ "type": "Feature", "properties": { "ID": 18, "CATEGORY": "PRIMARY CARE", "FACILITY_NAME": "BR General Physicians - Bella Family Medical", "FULL_ADDRESS": "8333 GOODWOOD BLVD", "CITY": "BATON ROUGE", "STATE": "LOUISIANA", "ZIP": 70806, "PHONE_NUMBER": "225-272-0106", "WEBSITE": "https://www.brgeneral.org/locations/baton-rouge-general-physicians-bella-family-medi/" }, "geometry": { "type": "Point", "coordinates": [ -91.098893079973394, 30.44301777823496 ] } },
{ "type": "Feature", "properties": { "ID": 19, "CATEGORY": "SPECIALTY HOSPITAL", "FACILITY_NAME": "Our Lady of the Lake Children's Hospital", "FULL_ADDRESS": "8300 CONSTANTIN BLVD", "CITY": "BATON ROUGE", "STATE": "LOUISIANA", "ZIP": 70809, "PHONE_NUMBER": null, "WEBSITE": "https://ololchildrens.org" }, "geometry": { "type": "Point", "coordinates": [ -91.097313341535809, 30.400015024489335 ] } },
{ "type": "Feature", "properties": { "ID": 20, "CATEGORY": "MENTAL HEALTH CENTER", "FACILITY_NAME": "Capital Area Human Services District", "FULL_ADDRESS": "4615 GOVERNMENT ST", "CITY": "BATON ROUGE", "STATE": "LOUISIANA", "ZIP": 70806, "PHONE_NUMBER": "225-922-2700", "WEBSITE": "http://cahsd.org/" }, "geometry": { "type": "Point", "coordinates": [ -91.142124612577717, 30.44495389360954 ] } },
{ "type": "Feature", "properties": { "ID": 21, "CATEGORY": "SPECIALITY HOSPITAL", "FACILITY_NAME": "Seaside Health System - Progressive PHP", "FULL_ADDRESS": "12038 GREENWELL SPRINGS-PORT HUDSON RD", "CITY": "ZACHARY", "STATE": "LOUISIANA", "ZIP": 70791, "PHONE_NUMBER": "225-654-8944", "WEBSITE": "https://progressivephp.com" }, "geometry": { "type": "Point", "coordinates": [ -91.052991875337483, 30.628321969514964 ] } },
{ "type": "Feature", "properties": { "ID": 22, "CATEGORY": "PRIMARY CARE", "FACILITY_NAME": "OLOL Medical Plaza", "FULL_ADDRESS": "7777 HENNESSY BLVD", "CITY": "BATON ROUGE", "STATE": "LOUISIANA", "ZIP": 70808, "PHONE_NUMBER": null, "WEBSITE": "http://www.ololrmc.com" }, "geometry": { "type": "Point", "coordinates": [ -91.108614892369687, 30.404246165969028 ] } },
{ "type": "Feature", "properties": { "ID": 23, "CATEGORY": "FULL SERVICE HOSPITAL", "FACILITY_NAME": "Our Lady Of The Lake Regional Medical Center", "FULL_ADDRESS": "5000 HENNESSY BLVD", "CITY": "BATON ROUGE", "STATE": "LOUISIANA", "ZIP": 70808, "PHONE_NUMBER": "225-765-6565", "WEBSITE": "http://www.ololrmc.com" }, "geometry": { "type": "Point", "coordinates": [ -91.106953780960779, 30.403515742966892 ] } },
{ "type": "Feature", "properties": { "ID": 24, "CATEGORY": "URGENT CARE", "FACILITY_NAME": "BR General Express Care - Highland Village", "FULL_ADDRESS": "4410 HIGHLAND RD, STE A3", "CITY": "BATON ROUGE", "STATE": "LOUISIANA", "ZIP": 70808, "PHONE_NUMBER": "225-831-4025", "WEBSITE": "https://www.brgeneral.org/locations/brg-express-care-highland-village/" }, "geometry": { "type": "Point", "coordinates": [ -91.171499093148668, 30.402406393068443 ] } },
{ "type": "Feature", "properties": { "ID": 25, "CATEGORY": "URGENT CARE", "FACILITY_NAME": "Lake After Hours", "FULL_ADDRESS": "20152 HIGHLAND RD", "CITY": "BATON ROUGE", "STATE": "LOUISIANA", "ZIP": 70817, "PHONE_NUMBER": null, "WEBSITE": "http://lakeafterhours.com/" }, "geometry": { "type": "Point", "coordinates": [ -91.006580223440665, 30.35984459553033 ] } },
{ "type": "Feature", "properties": { "ID": 26, "CATEGORY": "PRIMARY CARE", "FACILITY_NAME": "Ochsner Community Health - Brees Family Center", "FULL_ADDRESS": "7855 HOWELL BLVD", "CITY": "BATON ROUGE", "STATE": "LOUISIANA", "ZIP": 70807, "PHONE_NUMBER": "225-726-2522", "WEBSITE": "https://www.ochsner.org/locations/ochsner-community-health-brees-family-center-howell-blvd" }, "geometry": { "type": "Point", "coordinates": [ -91.156586134641969, 30.518464261603501 ] } },
{ "type": "Feature", "properties": { "ID": 27, "CATEGORY": "PRIMARY CARE", "FACILITY_NAME": "Woman's Center For Wellness", "FULL_ADDRESS": "9637 JEFFERSON HWY", "CITY": "BATON ROUGE", "STATE": "LOUISIANA", "ZIP": 70809, "PHONE_NUMBER": "225-924-8300", "WEBSITE": "http://www.womans.org/locations/maps/womans-center-for-wellness/" }, "geometry": { "type": "Point", "coordinates": [ -91.077526530964363, 30.411772076830403 ] } },
{ "type": "Feature", "properties": { "ID": 28, "CATEGORY": "PRIMARY CARE", "FACILITY_NAME": "Ochsner Health Center Jefferson Place", "FULL_ADDRESS": "8150 JEFFERSON HWY", "CITY": "BATON ROUGE", "STATE": "LOUISIANA", "ZIP": 70809, "PHONE_NUMBER": "225-336-3100", "WEBSITE": "https://www.ochsner.org/locations/ochsner-health-center-jefferson-place/" }, "geometry": { "type": "Point", "coordinates": [ -91.103130467900044, 30.422408946443618 ] } },
{ "type": "Feature", "properties": { "ID": 29, "CATEGORY": "MENTAL HEALTH CENTER", "FACILITY_NAME": "Margaret Dumas Mental Health Center", "FULL_ADDRESS": "3843 HARDING BLVD", "CITY": "BATON ROUGE", "STATE": "LOUISIANA", "ZIP": 70807, "PHONE_NUMBER": "225-359-9315", "WEBSITE": null }, "geometry": { "type": "Point", "coordinates": [ -91.152040006114973, 30.521982266930841 ] } },
{ "type": "Feature", "properties": { "ID": 30, "CATEGORY": "SPECIALTY HOSPITAL", "FACILITY_NAME": "KPC Promise Hospital Baton Rouge", "FULL_ADDRESS": "5130 MANCUSO LN", "CITY": "BATON ROUGE", "STATE": "LOUISIANA", "ZIP": 70809, "PHONE_NUMBER": "225-490-9600", "WEBSITE": "http://batonrouge.kpcph.com" }, "geometry": { "type": "Point", "coordinates": [ -91.102458575547317, 30.397457596313075 ] } },
{ "type": "Feature", "properties": { "ID": 31, "CATEGORY": "URGENT CARE", "FACILITY_NAME": "BR General Express Care - Nicholson Gateway", "FULL_ADDRESS": "3604 NICHOLSON DR", "CITY": "BATON ROUGE", "STATE": "LOUISIANA", "ZIP": 70802, "PHONE_NUMBER": "225-831-4030", "WEBSITE": "https://www.brgeneral.org/locations/brg-express-care-nicholson-gateway/" }, "geometry": { "type": "Point", "coordinates": [ -91.186982266023023, 30.413101955940473 ] } },
{ "type": "Feature", "properties": { "ID": 32, "CATEGORY": "SPECIALTY HOSPITAL", "FACILITY_NAME": "Baton Rouge Behavioral Hospital", "FULL_ADDRESS": "4040 NORTH BLVD", "CITY": "BATON ROUGE", "STATE": "LOUISIANA", "ZIP": 70806, "PHONE_NUMBER": "225-300-8470", "WEBSITE": "http://batonrougebehavioral.com/" }, "geometry": { "type": "Point", "coordinates": [ -91.147822243772097, 30.447937632271415 ] } },
{ "type": "Feature", "properties": { "ID": 33, "CATEGORY": "PRIMARY CARE", "FACILITY_NAME": "BR General Mid-City Medical Office Bldg", "FULL_ADDRESS": "3401 NORTH BLVD", "CITY": "BATON ROUGE", "STATE": "LOUISIANA", "ZIP": 70806, "PHONE_NUMBER": "225-381-6620", "WEBSITE": "https://www.brgeneral.org/locations/family-health-center/" }, "geometry": { "type": "Point", "coordinates": [ -91.15381356358526, 30.448669306580751 ] } },
{ "type": "Feature", "properties": { "ID": 34, "CATEGORY": "MENTAL HEALTH CENTER", "FACILITY_NAME": "Behavioral Wellness Center", "FULL_ADDRESS": "4045 NORTH BLVD", "CITY": "BATON ROUGE", "STATE": "LOUISIANA", "ZIP": 70806, "PHONE_NUMBER": "225-387-7652", "WEBSITE": "https://www.brgeneral.org/locations/behavioral-wellness-center/" }, "geometry": { "type": "Point", "coordinates": [ -91.147842847556404, 30.44867041296375 ] } },
{ "type": "Feature", "properties": { "ID": 35, "CATEGORY": "PRIMARY CARE", "FACILITY_NAME": "OLOL/LSU Health Medicine Specialty Clinics", "FULL_ADDRESS": "5131 O'DONOVAN DR, STE 201", "CITY": "BATON ROUGE", "STATE": "LOUISIANA", "ZIP": 70808, "PHONE_NUMBER": "225-358-4853", "WEBSITE": "https://ololrmc.com/location/lsu-health-baton-rouge-medicine-and-medicine-specialty-clinics" }, "geometry": { "type": "Point", "coordinates": [ -91.11215661158208, 30.40400863218753 ] } },
{ "type": "Feature", "properties": { "ID": 36, "CATEGORY": "SPECIALITY HOSPITAL", "FACILITY_NAME": "AMG Specialty Hospital", "FULL_ADDRESS": "4601 MC HUGH RD", "CITY": "ZACHARY", "STATE": "LOUISIANA", "ZIP": 70791, "PHONE_NUMBER": "225-683-1600", "WEBSITE": "https://amgihm.com/locations/zachary/" }, "geometry": { "type": "Point", "coordinates": [ -91.139714787699162, 30.647205287574703 ] } },
{ "type": "Feature", "properties": { "ID": 37, "CATEGORY": "FULL SERVICE HOSPITAL", "FACILITY_NAME": "Ochsner Medical Center Baton Rouge", "FULL_ADDRESS": "17000 MEDICAL CENTER DR", "CITY": "BATON ROUGE", "STATE": "LOUISIANA", "ZIP": 70816, "PHONE_NUMBER": "225-752-2470", "WEBSITE": "https://www.ochsner.org/locations/ochsner-medical-center-baton-rouge/" }, "geometry": { "type": "Point", "coordinates": [ -90.999930905574644, 30.442807388370152 ] } },
{ "type": "Feature", "properties": { "ID": 38, "CATEGORY": "PRIMARY CARE", "FACILITY_NAME": "Ochsner Health Center O'Neal", "FULL_ADDRESS": "16777 MEDICAL CENTER DR", "CITY": "BATON ROUGE", "STATE": "LOUISIANA", "ZIP": 70816, "PHONE_NUMBER": "225-761-5200", "WEBSITE": "https://www.ochsner.org/locations/ochsner-health-center-oneal" }, "geometry": { "type": "Point", "coordinates": [ -91.002251406326138, 30.442264843351769 ] } },
{ "type": "Feature", "properties": { "ID": 39, "CATEGORY": "SPECIALTY HOSPITAL", "FACILITY_NAME": "Ochsner Cancer Center", "FULL_ADDRESS": "17050 MEDICAL CENTER DR", "CITY": "BATON ROUGE", "STATE": "LOUISIANA", "ZIP": 70816, "PHONE_NUMBER": "225-761-5200", "WEBSITE": "https://www.ochsner.org/locations/ochsner-baton-rouge-cancer-center" }, "geometry": { "type": "Point", "coordinates": [ -90.998795667796145, 30.44237253272664 ] } },
{ "type": "Feature", "properties": { "ID": 40, "CATEGORY": "URGENT CARE", "FACILITY_NAME": "Lake After Hours", "FULL_ADDRESS": "123 LEE DR", "CITY": "BATON ROUGE", "STATE": "LOUISIANA", "ZIP": 70808, "PHONE_NUMBER": null, "WEBSITE": "http://lakeafterhours.com/" }, "geometry": { "type": "Point", "coordinates": [ -91.159541974144744, 30.394692725785305 ] } },
{ "type": "Feature", "properties": { "ID": 41, "CATEGORY": "SPECIALTY HOSPITAL", "FACILITY_NAME": "OLOL/LSU Health Perkins Surgery Center", "FULL_ADDRESS": "9032 PERKINS RD", "CITY": "BATON ROUGE", "STATE": "LOUISIANA", "ZIP": 70810, "PHONE_NUMBER": "225-358-4853", "WEBSITE": "https://ololrmc.com/services/lsu-health-baton-rouge/" }, "geometry": { "type": "Point", "coordinates": [ -91.103542481474747, 30.382528284629196 ] } },
{ "type": "Feature", "properties": { "ID": 42, "CATEGORY": "URGENT CARE", "FACILITY_NAME": "Lake After Hours Kids", "FULL_ADDRESS": "12525 PERKINS RD, STE A", "CITY": "BATON ROUGE", "STATE": "LOUISIANA", "ZIP": 70810, "PHONE_NUMBER": null, "WEBSITE": "http://lakeafterhours.com/" }, "geometry": { "type": "Point", "coordinates": [ -91.078664831041607, 30.370289166644397 ] } },
{ "type": "Feature", "properties": { "ID": 43, "CATEGORY": "PRIMARY CARE", "FACILITY_NAME": "The Baton Rouge Clinic, AMC", "FULL_ADDRESS": "7373 PERKINS RD", "CITY": "BATON ROUGE", "STATE": "LOUISIANA", "ZIP": 70808, "PHONE_NUMBER": "225-769-4044", "WEBSITE": "https://batonrougeclinic.com" }, "geometry": { "type": "Point", "coordinates": [ -91.112080457165277, 30.398230959493194 ] } },
{ "type": "Feature", "properties": { "ID": 44, "CATEGORY": "PRIMARY CARE", "FACILITY_NAME": "BR General Gastroenterology Center", "FULL_ADDRESS": "6615 PERKINS RD", "CITY": "BATON ROUGE", "STATE": "LOUISIANA", "ZIP": 70808, "PHONE_NUMBER": "225-927-1190", "WEBSITE": "https://www.brgeneral.org/locations/baton-rouge-general-gastroenterology-center/" }, "geometry": { "type": "Point", "coordinates": [ -91.120319853036889, 30.403500720538858 ] } },
{ "type": "Feature", "properties": { "ID": 45, "CATEGORY": "FULL SERVICE HOSPITAL", "FACILITY_NAME": "Baton Rouge General Hospital - Bluebonnet Campus", "FULL_ADDRESS": "8585 PICARDY AVE", "CITY": "BATON ROUGE", "STATE": "LOUISIANA", "ZIP": 70809, "PHONE_NUMBER": "225-763-4000", "WEBSITE": "http://www.brgeneral.org/" }, "geometry": { "type": "Point", "coordinates": [ -91.094691720702841, 30.393652435661945 ] } },
{ "type": "Feature", "properties": { "ID": 46, "CATEGORY": "PRIMARY CARE", "FACILITY_NAME": "Picardy Plaza", "FULL_ADDRESS": "8490 PICARDY AVE", "CITY": "BATON ROUGE", "STATE": "LOUISIANA", "ZIP": 70809, "PHONE_NUMBER": "225-819-1175", "WEBSITE": "https://www.brgeneral.org/locations/picardy-plaza/" }, "geometry": { "type": "Point", "coordinates": [ -91.097323449275436, 30.392079726632289 ] } },
{ "type": "Feature", "properties": { "ID": 47, "CATEGORY": "PRIMARY CARE", "FACILITY_NAME": "Medical Tower 1", "FULL_ADDRESS": "8595 PICARDY AVE", "CITY": "BATON ROUGE", "STATE": "LOUISIANA", "ZIP": 70809, "PHONE_NUMBER": "225-763-4900", "WEBSITE": "https://www.brgeneral.org/locations/baton-rouge-family-medical-center/" }, "geometry": { "type": "Point", "coordinates": [ -91.093992496107177, 30.393609432445707 ] } },
{ "type": "Feature", "properties": { "ID": 48, "CATEGORY": "PRIMARY CARE", "FACILITY_NAME": "Ochsner Health Center Central", "FULL_ADDRESS": "11424 SULLIVAN RD", "CITY": "CENTRAL", "STATE": "LOUISIANA", "ZIP": 70818, "PHONE_NUMBER": "225-261-9790", "WEBSITE": "https://www.ochsner.org/locations/ochsner-health-center-central/" }, "geometry": { "type": "Point", "coordinates": [ -91.033700303736268, 30.552187870852478 ] } },
{ "type": "Feature", "properties": { "ID": 49, "CATEGORY": "URGENT CARE", "FACILITY_NAME": "Lake After Hours", "FULL_ADDRESS": "8751 SULLIVAN RD", "CITY": "CENTRAL", "STATE": "LOUISIANA", "ZIP": 70818, "PHONE_NUMBER": null, "WEBSITE": "http://lakeafterhours.com/" }, "geometry": { "type": "Point", "coordinates": [ -91.028684205996129, 30.531055571008245 ] } },
{ "type": "Feature", "properties": { "ID": 50, "CATEGORY": "PRIMARY CARE", "FACILITY_NAME": "Medical Tower 4", "FULL_ADDRESS": "8888 SUMMA AVE", "CITY": "BATON ROUGE", "STATE": "LOUISIANA", "ZIP": 70809, "PHONE_NUMBER": "225-237-1515", "WEBSITE": "https://www.brgeneral.org/locations/baton-rouge-general-physicians-cardiovascular-an/" }, "geometry": { "type": "Point", "coordinates": [ -91.094430037914734, 30.394224502081855 ] } },
{ "type": "Feature", "properties": { "ID": 51, "CATEGORY": "PRIMARY CARE", "FACILITY_NAME": "Center for Health", "FULL_ADDRESS": "9001 SUMMA AVE", "CITY": "BATON ROUGE", "STATE": "LOUISIANA", "ZIP": 70809, "PHONE_NUMBER": "225-333-3728", "WEBSITE": "https://www.brgeneral.org/locations/center-for-health/" }, "geometry": { "type": "Point", "coordinates": [ -91.091891626769566, 30.392864471981287 ] } },
{ "type": "Feature", "properties": { "ID": 52, "CATEGORY": "SPECIALITY HOSPITAL", "FACILITY_NAME": "Sage Specialty LTAC Hospital", "FULL_ADDRESS": "8225 SUMMA AVE", "CITY": "BATON ROUGE", "STATE": "LOUISIANA", "ZIP": 70809, "PHONE_NUMBER": "225-208-0300", "WEBSITE": "https://www.thecarpenterhealthnetwork.com/about-us/sage-ltac/" }, "geometry": { "type": "Point", "coordinates": [ -91.099311377380147, 30.399188464167104 ] } },
{ "type": "Feature", "properties": { "ID": 53, "CATEGORY": "SPECIALTY HOSPITAL", "FACILITY_NAME": "Sage Rehabilitation Hospital", "FULL_ADDRESS": "8000 SUMMA AVE", "CITY": "BATON ROUGE", "STATE": "LOUISIANA", "ZIP": 70809, "PHONE_NUMBER": "225-819-0703", "WEBSITE": "http://www.sage-rehab.org/" }, "geometry": { "type": "Point", "coordinates": [ -91.103574080760382, 30.400316612055644 ] } },
{ "type": "Feature", "properties": { "ID": 54, "CATEGORY": "SPECIALTY HOSPITAL", "FACILITY_NAME": "Bethesda Rehabilitation Hospital", "FULL_ADDRESS": "7414 SUMRALL DR", "CITY": "BATON ROUGE", "STATE": "LOUISIANA", "ZIP": 70812, "PHONE_NUMBER": "225-767-2034", "WEBSITE": "https://bethesdarehab.com/" }, "geometry": { "type": "Point", "coordinates": [ -91.116871560888214, 30.515055752559132 ] } },
{ "type": "Feature", "properties": { "ID": 55, "CATEGORY": "SPECIALTY HOSPITAL", "FACILITY_NAME": "Baton Rouge Rehabilitation Hospital", "FULL_ADDRESS": "8595 UNITED PLAZA BLVD", "CITY": "BATON ROUGE", "STATE": "LOUISIANA", "ZIP": 70809, "PHONE_NUMBER": "225-927-0567", "WEBSITE": "https://www.brrehab.com" }, "geometry": { "type": "Point", "coordinates": [ -91.095142282345407, 30.410445447864095 ] } },
{ "type": "Feature", "properties": { "ID": 56, "CATEGORY": "URGENT CARE", "FACILITY_NAME": "Lake After Hours", "FULL_ADDRESS": "2380 O'NEAL LN, STE A", "CITY": "BATON ROUGE", "STATE": "LOUISIANA", "ZIP": 70816, "PHONE_NUMBER": null, "WEBSITE": "http://lakeafterhours.com/" }, "geometry": { "type": "Point", "coordinates": [ -91.008118448178763, 30.434952272368712 ] } },
{ "type": "Feature", "properties": { "ID": 57, "CATEGORY": "SPECIALTY HOSPITAL", "FACILITY_NAME": "Ochsner Therapy and Wellness O'Neal", "FULL_ADDRESS": "2077 O'NEAL LN", "CITY": "BATON ROUGE", "STATE": "LOUISIANA", "ZIP": 70816, "PHONE_NUMBER": "225-754-5188", "WEBSITE": "https://www.ochsner.org/locations/therapy-wellness-oneal" }, "geometry": { "type": "Point", "coordinates": [ -91.006984306302897, 30.438798589073222 ] } },
{ "type": "Feature", "properties": { "ID": 58, "CATEGORY": "PRIMARY CARE", "FACILITY_NAME": "BR General Imaging Center - O'Neal", "FULL_ADDRESS": "2550 O'NEAL LN", "CITY": "BATON ROUGE", "STATE": "LOUISIANA", "ZIP": 70816, "PHONE_NUMBER": "225-769-9337", "WEBSITE": "https://www.brgeneral.org/locations/baton-rouge-general-imaging-center-o-neal/" }, "geometry": { "type": "Point", "coordinates": [ -91.008533193597074, 30.43150912693304 ] } },
{ "type": "Feature", "properties": { "ID": 59, "CATEGORY": "PRIMARY CARE", "FACILITY_NAME": "BR General Physicians - O'Neal", "FULL_ADDRESS": "2645 O'NEAL LN, BLDG B", "CITY": "BATON ROUGE", "STATE": "LOUISIANA", "ZIP": 70816, "PHONE_NUMBER": "225-333-3660", "WEBSITE": "https://www.brgeneral.org/locations/baton-rouge-general-physicians-family-medicine-o/" }, "geometry": { "type": "Point", "coordinates": [ -91.006501433150547, 30.430780149696044 ] } },
{ "type": "Feature", "properties": { "ID": 60, "CATEGORY": "SPECIALTY HOSPITAL", "FACILITY_NAME": "The Spine Hospital of Louisiana", "FULL_ADDRESS": "10105 PARK ROWE CIR", "CITY": "BATON ROUGE", "STATE": "LOUISIANA", "ZIP": 70810, "PHONE_NUMBER": "225-763-9900", "WEBSITE": "http://www.spinehola.com/" }, "geometry": { "type": "Point", "coordinates": [ -91.09419306053428, 30.380442718634395 ] } },
{ "type": "Feature", "properties": { "ID": 61, "CATEGORY": "SPECIALTY HOSPITAL", "FACILITY_NAME": "The Neuromedical Center", "FULL_ADDRESS": "10105 PARK ROWE CIR", "CITY": "BATON ROUGE", "STATE": "LOUISIANA", "ZIP": 70810, "PHONE_NUMBER": "225-769-2200", "WEBSITE": "http://www.theneuromedicalcenter.com/" }, "geometry": { "type": "Point", "coordinates": [ -91.094051775479031, 30.38030028157533 ] } },
{ "type": "Feature", "properties": { "ID": 62, "CATEGORY": "SPECIALTY HOSPITAL", "FACILITY_NAME": "Woman's Hospital", "FULL_ADDRESS": "100 WOMAN'S WAY", "CITY": "BATON ROUGE", "STATE": "LOUISIANA", "ZIP": 70817, "PHONE_NUMBER": "225-927-1300", "WEBSITE": "http://www.womans.org/" }, "geometry": { "type": "Point", "coordinates": [ -91.037217758729, 30.38597876262595 ] } },
{ "type": "Feature", "properties": { "ID": 63, "CATEGORY": "PRIMARY CARE", "FACILITY_NAME": "Ochsner Medical Complex The Grove", "FULL_ADDRESS": "10310 THE GROVE BLVD", "CITY": "BATON ROUGE", "STATE": "LOUISIANA", "ZIP": 70809, "PHONE_NUMBER": "225-761-5200", "WEBSITE": "https://www.ochsner.org/locations/ochsner-medical-complex-high-grove" }, "geometry": { "type": "Point", "coordinates": [ -91.075922689789195, 30.386029300693441 ] } },
{ "type": "Feature", "properties": { "ID": 64, "CATEGORY": "FULL SERVICE HOSPITAL", "FACILITY_NAME": "Lane Regional Medical Center", "FULL_ADDRESS": "6300 MAIN ST", "CITY": "ZACHARY", "STATE": "LOUISIANA", "ZIP": 70791, "PHONE_NUMBER": "225-658-4000", "WEBSITE": "http://lanermc.org/" }, "geometry": { "type": "Point", "coordinates": [ -91.13752438115219, 30.648923613130236 ] } },
{ "type": "Feature", "properties": { "ID": 65, "CATEGORY": "PRIMARY CARE", "FACILITY_NAME": "Ochsner Health Center Zachary", "FULL_ADDRESS": "4845 MAIN ST", "CITY": "ZACHARY", "STATE": "LOUISIANA", "ZIP": 70791, "PHONE_NUMBER": "225-761-5200", "WEBSITE": "https://www.ochsner.org/locations/ochsner-health-center-zachary" }, "geometry": { "type": "Point", "coordinates": [ -91.152530606341074, 30.648963447407894 ] } },
{ "type": "Feature", "properties": { "ID": 66, "CATEGORY": "URGENT CARE", "FACILITY_NAME": "Lake After Hours", "FULL_ADDRESS": "18989 OLD SCENIC HWY", "CITY": "ZACHARY", "STATE": "LOUISIANA", "ZIP": 70791, "PHONE_NUMBER": null, "WEBSITE": "http://lakeafterhours.com/" }, "geometry": { "type": "Point", "coordinates": [ -91.195448572453969, 30.635450351838951 ] } },
{ "type": "Feature", "properties": { "ID": 67, "CATEGORY": "URGENT CARE", "FACILITY_NAME": "Ochsner Urgent Care and Rehab Center Highland Park", "FULL_ADDRESS": "18303 PERKINS RD E, STE 304", "CITY": "BATON ROUGE", "STATE": "LOUISIANA", "ZIP": 70809, "PHONE_NUMBER": "225-236-5980", "WEBSITE": "https://www.ochsner.org/locations/ochsner-urgent-care-and-occupational-health-highland-park" }, "geometry": { "type": "Point", "coordinates": [ -91.023165263287808, 30.347733623600433 ] } },
{ "type": "Feature", "properties": { "ID": 68, "CATEGORY": "PRIMARY CARE", "FACILITY_NAME": "BR General Physicians - Central", "FULL_ADDRESS": "11111 PARK PLACE DR", "CITY": "CENTRAL", "STATE": "LOUISIANA", "ZIP": 70818, "PHONE_NUMBER": "225-333-3636", "WEBSITE": "https://www.brgeneral.org/locations/baton-rouge-general-physicians-central/" }, "geometry": { "type": "Point", "coordinates": [ -91.062924061870476, 30.542435600930688 ] } },
{ "type": "Feature", "properties": { "ID": 69, "CATEGORY": "URGENT CARE", "FACILITY_NAME": "Ochsner Urgent Care - Arlington Marketplace", "FULL_ADDRESS": "650 ARLINGTON CREEK CENTRE BLVD", "CITY": "BATON ROUGE", "STATE": "LOUISIANA", "ZIP": 70820, "PHONE_NUMBER": null, "WEBSITE": "https://www.ochsner.org/locations/ochsner-urgent-care-arlington-marketplace" }, "geometry": { "type": "Point", "coordinates": [ -91.163093468977422, 30.390743971923147 ] } },
{ "type": "Feature", "properties": { "ID": 70, "CATEGORY": "PRIMARY CARE", "FACILITY_NAME": "BR General Physicians - Zachary", "FULL_ADDRESS": "1189 AMERICANA BLVD", "CITY": "ZACHARY", "STATE": "LOUISIANA", "ZIP": 70791, "PHONE_NUMBER": "225-237-1625", "WEBSITE": "https://www.brgeneral.org/locations/baton-rouge-general-physicians-family-medicine-z/" }, "geometry": { "type": "Point", "coordinates": [ -91.212222430739587, 30.6509326697342 ] } }
]
}
