{
"type": "FeatureCollection",
"name": "Public_Safety_Facility",
"crs": { "type": "name", "properties": { "name": "urn:ogc:def:crs:OGC:1.3:CRS84" } },
"features": [
{ "type": "Feature", "properties": { "ID": 5, "DESCRIPTION": "EMS Carpenter Station", "FACILITY_TYPE": "EMS", "AGENCY": "EMERGENCY MEDICAL SERVICES", "FULL_ADDRESS": "5650 CARPENTER RD", "CITY": "ZACHARY", "STATE": "LOUISIANA", "ZIP": 70791 }, "geometry": { "type": "Point", "coordinates": [ -91.1435760321218, 30.646790101637301 ] } },
{ "type": "Feature", "properties": { "ID": 7, "DESCRIPTION": "EBRSO Zachary-Plains Substation", "FACILITY_TYPE": "POLICE PROTECTION", "AGENCY": "EBR SHERIFFS OFFICE", "FULL_ADDRESS": "23060 BRIAN RD", "CITY": "ZACHARY", "STATE": "LOUISIANA", "ZIP": 70791 }, "geometry": { "type": "Point", "coordinates": [ -91.205014979556779, 30.691111240516875 ] } },
{ "type": "Feature", "properties": { "ID": 8, "DESCRIPTION": "Zachary FD Station 84", "FACILITY_TYPE": "FIRE PROTECTION", "AGENCY": "CITY OF ZACHARY", "FULL_ADDRESS": "23060 BRIAN RD", "CITY": "ZACHARY", "STATE": "LOUISIANA", "ZIP": 70791 }, "geometry": { "type": "Point", "coordinates": [ -91.204959756287096, 30.691165721509776 ] } },
{ "type": "Feature", "properties": { "ID": 10, "DESCRIPTION": "EBR Parish Prison", "FACILITY_TYPE": "POLICE PROTECTION", "AGENCY": "EBR SHERIFFS OFFICE", "FULL_ADDRESS": "2867 BRIGADIER GENERAL ISAAC SMITH AVE", "CITY": "BATON ROUGE", "STATE": "LOUISIANA", "ZIP": 70807 }, "geometry": { "type": "Point", "coordinates": [ -91.164560212263012, 30.534274386880274 ] } },
{ "type": "Feature", "properties": { "ID": 11, "DESCRIPTION": "BRFD Station 15", "FACILITY_TYPE": "FIRE PROTECTION", "AGENCY": "BATON ROUGE FIRE DEPARTMENT", "FULL_ADDRESS": "3150 BRIGHTSIDE DR", "CITY": "BATON ROUGE", "STATE": "LOUISIANA", "ZIP": 70820 }, "geometry": { "type": "Point", "coordinates": [ -91.193008958608345, 30.390820775283846 ] } },
{ "type": "Feature", "properties": { "ID": 16, "DESCRIPTION": "EBRSO Traffic Section", "FACILITY_TYPE": "POLICE PROTECTION", "AGENCY": "EBR SHERIFFS OFFICE", "FULL_ADDRESS": "9313 BURBANK DR", "CITY": "BATON ROUGE", "STATE": "LOUISIANA", "ZIP": 70820 }, "geometry": { "type": "Point", "coordinates": [ -91.125777752000289, 30.361693569402888 ] } },
{ "type": "Feature", "properties": { "ID": 25, "DESCRIPTION": "BRFD Station 19", "FACILITY_TYPE": "FIRE PROTECTION", "AGENCY": "BATON ROUGE FIRE DEPARTMENT", "FULL_ADDRESS": "11010 COURSEY BLVD", "CITY": "BATON ROUGE", "STATE": "LOUISIANA", "ZIP": 70816 }, "geometry": { "type": "Point", "coordinates": [ -91.05821961480423, 30.414447460858408 ] } },
{ "type": "Feature", "properties": { "ID": 26, "DESCRIPTION": "EMS Coursey Station", "FACILITY_TYPE": "EMS", "AGENCY": "EMERGENCY MEDICAL SERVICES", "FULL_ADDRESS": "11010 COURSEY BLVD", "CITY": "BATON ROUGE", "STATE": "LOUISIANA", "ZIP": 70816 }, "geometry": { "type": "Point", "coordinates": [ -91.058381298511222, 30.414457120297541 ] } },
{ "type": "Feature", "properties": { "ID": 33, "DESCRIPTION": "Central FD Station 33", "FACILITY_TYPE": "FIRE PROTECTION", "AGENCY": "CENTRAL VOLUNTEER FIRE DEPARTMENT", "FULL_ADDRESS": "7019 DONNYBROOK AVE", "CITY": "GREENWELL SPRINGS", "STATE": "LOUISIANA", "ZIP": 70739 }, "geometry": { "type": "Point", "coordinates": [ -91.004423165387706, 30.517987491113445 ] } },
{ "type": "Feature", "properties": { "ID": 39, "DESCRIPTION": "Pride VFD Station 10", "FACILITY_TYPE": "FIRE PROTECTION", "AGENCY": "PRIDE VOLUNTEER FIRE DEPARTMENT", "FULL_ADDRESS": "20920 CARSON RD", "CITY": "PRIDE", "STATE": "LOUISIANA", "ZIP": 70770 }, "geometry": { "type": "Point", "coordinates": [ -90.970709376998144, 30.667413844894192 ] } },
{ "type": "Feature", "properties": { "ID": 41, "DESCRIPTION": "EMS Castille Station ", "FACILITY_TYPE": "EMS", "AGENCY": "EMERGENCY MEDICAL SERVICES", "FULL_ADDRESS": "9020 CASTILLE RD", "CITY": "BATON ROUGE", "STATE": "LOUISIANA", "ZIP": 70809 }, "geometry": { "type": "Point", "coordinates": [ -91.031686322451392, 30.367006853939397 ] } },
{ "type": "Feature", "properties": { "ID": 51, "DESCRIPTION": "BRFD Station 2", "FACILITY_TYPE": "FIRE PROTECTION", "AGENCY": "BATON ROUGE FIRE DEPARTMENT", "FULL_ADDRESS": "3333 CHOCTAW DR", "CITY": "BATON ROUGE", "STATE": "LOUISIANA", "ZIP": 70805 }, "geometry": { "type": "Point", "coordinates": [ -91.156000084152851, 30.470540360127075 ] } },
{ "type": "Feature", "properties": { "ID": 54, "DESCRIPTION": "BRFD Station 7", "FACILITY_TYPE": "FIRE PROTECTION", "AGENCY": "BATON ROUGE FIRE DEPARTMENT", "FULL_ADDRESS": "5758 CLAYCUT RD", "CITY": "BATON ROUGE", "STATE": "LOUISIANA", "ZIP": 70806 }, "geometry": { "type": "Point", "coordinates": [ -91.13032796758128, 30.441161445347042 ] } },
{ "type": "Feature", "properties": { "ID": 55, "DESCRIPTION": "EMS Claycut Station", "FACILITY_TYPE": "EMS", "AGENCY": "EMERGENCY MEDICAL SERVICES", "FULL_ADDRESS": "5758 CLAYCUT RD", "CITY": "BATON ROUGE", "STATE": "LOUISIANA", "ZIP": 70806 }, "geometry": { "type": "Point", "coordinates": [ -91.130410874113792, 30.441331311823983 ] } },
{ "type": "Feature", "properties": { "ID": 58, "DESCRIPTION": "EMS Airline Station (future)", "FACILITY_TYPE": "EMS", "AGENCY": "EMERGENCY MEDICAL SERVICES", "FULL_ADDRESS": "8850 CONNELL'S VILLAGE LN", "CITY": "BATON ROUGE", "STATE": "LOUISIANA", "ZIP": 70815 }, "geometry": { "type": "Point", "coordinates": [ -91.092487035269883, 30.447095884378118 ] } },
{ "type": "Feature", "properties": { "ID": 85, "DESCRIPTION": "EBRSO Kleinpeter Substation", "FACILITY_TYPE": "POLICE PROTECTION", "AGENCY": "EBR SHERIFFS OFFICE", "FULL_ADDRESS": "14431 AIRLINE HWY", "CITY": "BATON ROUGE", "STATE": "LOUISIANA", "ZIP": 70817 }, "geometry": { "type": "Point", "coordinates": [ -91.022144175665289, 30.36534395128831 ] } },
{ "type": "Feature", "properties": { "ID": 86, "DESCRIPTION": "BRPD Headquarters / District 3 Station", "FACILITY_TYPE": "POLICE PROTECTION", "AGENCY": "BATON ROUGE POLICE DEPARTMENT", "FULL_ADDRESS": "9000 AIRLINE HWY", "CITY": "BATON ROUGE", "STATE": "LOUISIANA", "ZIP": 70815 }, "geometry": { "type": "Point", "coordinates": [ -91.09146560460259, 30.445428770424034 ] } },
{ "type": "Feature", "properties": { "ID": 88, "DESCRIPTION": "St George FD Station 60", "FACILITY_TYPE": "FIRE PROTECTION", "AGENCY": "ST GEORGE VOLUNTEER FIRE DEPARTMENT", "FULL_ADDRESS": "14100 AIRLINE HWY", "CITY": "BATON ROUGE", "STATE": "LOUISIANA", "ZIP": 70809 }, "geometry": { "type": "Point", "coordinates": [ -91.026959944966904, 30.366116913993121 ] } },
{ "type": "Feature", "properties": { "ID": 90, "DESCRIPTION": "BRPD Training", "FACILITY_TYPE": "POLICE PROTECTION", "AGENCY": "BATON ROUGE POLICE DEPARTMENT", "FULL_ADDRESS": "9050 AIRLINE HWY, STE 110", "CITY": "BATON ROUGE", "STATE": "LOUISIANA", "ZIP": 70815 }, "geometry": { "type": "Point", "coordinates": [ -91.091057693270855, 30.444777540429296 ] } },
{ "type": "Feature", "properties": { "ID": 91, "DESCRIPTION": "BRPD S-3 Building", "FACILITY_TYPE": "POLICE PROTECTION", "AGENCY": "BATON ROUGE POLICE DEPARTMENT", "FULL_ADDRESS": "9048 AIRLINE HWY", "CITY": "BATON ROUGE", "STATE": "LOUISIANA", "ZIP": 70815 }, "geometry": { "type": "Point", "coordinates": [ -91.093180007002275, 30.445278530992518 ] } },
{ "type": "Feature", "properties": { "ID": 94, "DESCRIPTION": "St George FD HQ", "FACILITY_TYPE": "FIRE PROTECTION", "AGENCY": "ST GEORGE VOLUNTEER FIRE DEPARTMENT", "FULL_ADDRESS": "14100 AIRLINE HWY", "CITY": "BATON ROUGE", "STATE": "LOUISIANA", "ZIP": 70809 }, "geometry": { "type": "Point", "coordinates": [ -91.026605026688713, 30.365766669595004 ] } },
{ "type": "Feature", "properties": { "ID": 95, "DESCRIPTION": "LSP Crime/Photo Lab", "FACILITY_TYPE": "PUBLIC SAFETY", "AGENCY": "STATE OF LOUISIANA", "FULL_ADDRESS": "376 E AIRPORT AVE", "CITY": "BATON ROUGE", "STATE": "LOUISIANA", "ZIP": 70806 }, "geometry": { "type": "Point", "coordinates": [ -91.103986435702012, 30.448175890047921 ] } },
{ "type": "Feature", "properties": { "ID": 98, "DESCRIPTION": "Baker Police Headquarters", "FACILITY_TYPE": "POLICE PROTECTION", "AGENCY": "BAKER POLICE DEPARTMENT", "FULL_ADDRESS": "1320 ALABAMA AVE", "CITY": "BAKER", "STATE": "LOUISIANA", "ZIP": 70714 }, "geometry": { "type": "Point", "coordinates": [ -91.164959416555973, 30.589346069908821 ] } },
{ "type": "Feature", "properties": { "ID": 110, "DESCRIPTION": "St George FD Station 63", "FACILITY_TYPE": "FIRE PROTECTION", "AGENCY": "ST GEORGE VOLUNTEER FIRE DEPARTMENT", "FULL_ADDRESS": "7027 ANTIOCH RD", "CITY": "BATON ROUGE", "STATE": "LOUISIANA", "ZIP": 70817 }, "geometry": { "type": "Point", "coordinates": [ -91.007061486397262, 30.388391741161563 ] } },
{ "type": "Feature", "properties": { "ID": 118, "DESCRIPTION": "Central FD Station 34", "FACILITY_TYPE": "FIRE PROTECTION", "AGENCY": "CENTRAL VOLUNTEER FIRE DEPARTMENT", "FULL_ADDRESS": "15341 E BEAVER DR", "CITY": "PRIDE", "STATE": "LOUISIANA", "ZIP": 70770 }, "geometry": { "type": "Point", "coordinates": [ -91.02233533596106, 30.587836812236159 ] } },
{ "type": "Feature", "properties": { "ID": 123, "DESCRIPTION": "BRPD Air Support", "FACILITY_TYPE": "POLICE PROTECTION", "AGENCY": "BATON ROUGE POLICE DEPARTMENT", "FULL_ADDRESS": "4475 BLANCHE NOYES AVE", "CITY": "BATON ROUGE", "STATE": "LOUISIANA", "ZIP": 70807 }, "geometry": { "type": "Point", "coordinates": [ -91.144273024346148, 30.532285065938559 ] } },
{ "type": "Feature", "properties": { "ID": 124, "DESCRIPTION": "Civil Air Patrol", "FACILITY_TYPE": "PUBLIC SAFETY", "AGENCY": "STATE OF LOUISIANA", "FULL_ADDRESS": "9163 BLANCHE NOYES AVE", "CITY": "BATON ROUGE", "STATE": "LOUISIANA", "ZIP": 70807 }, "geometry": { "type": "Point", "coordinates": [ -91.143222680435926, 30.530616695253773 ] } },
{ "type": "Feature", "properties": { "ID": 134, "DESCRIPTION": "BRPD K9/SRT", "FACILITY_TYPE": "POLICE PROTECTION", "AGENCY": "BATON ROUGE POLICE DEPARTMENT", "FULL_ADDRESS": "2727 LIEUTENANT GENERAL BENJAMIN DAVIS, JR. AVE", "CITY": "BATON ROUGE", "STATE": "LOUISIANA", "ZIP": 70807 }, "geometry": { "type": "Point", "coordinates": [ -91.166462528981157, 30.535640854318775 ] } },
{ "type": "Feature", "properties": { "ID": 135, "DESCRIPTION": "EBRSO Training Facility", "FACILITY_TYPE": "POLICE PROTECTION", "AGENCY": "EBR SHERIFFS OFFICE", "FULL_ADDRESS": "2829 LIEUTENANT GENERAL BENJAMIN DAVIS, JR. AVE", "CITY": "BATON ROUGE", "STATE": "LOUISIANA", "ZIP": 70807 }, "geometry": { "type": "Point", "coordinates": [ -91.164424954918005, 30.535924127800328 ] } },
{ "type": "Feature", "properties": { "ID": 136, "DESCRIPTION": "EBR Sheriff's Office Special Ops & Fleet Services", "FACILITY_TYPE": "POLICE PROTECTION", "AGENCY": "EBR SHERIFFS OFFICE", "FULL_ADDRESS": "8686 GENERAL CHENNAULT DR", "CITY": "BATON ROUGE", "STATE": "LOUISIANA", "ZIP": 70807 }, "geometry": { "type": "Point", "coordinates": [ -91.159758566486616, 30.52757092691262 ] } },
{ "type": "Feature", "properties": { "ID": 141, "DESCRIPTION": "BRFD Station 3", "FACILITY_TYPE": "FIRE PROTECTION", "AGENCY": "BATON ROUGE FIRE DEPARTMENT", "FULL_ADDRESS": "3142 EVANGELINE ST", "CITY": "BATON ROUGE", "STATE": "LOUISIANA", "ZIP": 70805 }, "geometry": { "type": "Point", "coordinates": [ -91.158432520497598, 30.492303458808557 ] } },
{ "type": "Feature", "properties": { "ID": 143, "DESCRIPTION": "EMS Evangeline Station", "FACILITY_TYPE": "EMS", "AGENCY": "EMERGENCY MEDICAL SERVICES", "FULL_ADDRESS": "3142 EVANGELINE ST", "CITY": "BATON ROUGE", "STATE": "LOUISIANA", "ZIP": 70805 }, "geometry": { "type": "Point", "coordinates": [ -91.158429710959084, 30.49233787437872 ] } },
{ "type": "Feature", "properties": { "ID": 144, "DESCRIPTION": "BRPD Evidence/Crime Scene", "FACILITY_TYPE": "POLICE PROTECTION", "AGENCY": "BATON ROUGE POLICE DEPARTMENT", "FULL_ADDRESS": "2905 EVANGELINE ST", "CITY": "BATON ROUGE", "STATE": "LOUISIANA", "ZIP": 70805 }, "geometry": { "type": "Point", "coordinates": [ -91.161750290772758, 30.492752536368631 ] } },
{ "type": "Feature", "properties": { "ID": 148, "DESCRIPTION": "BRFD Station 18", "FACILITY_TYPE": "FIRE PROTECTION", "AGENCY": "BATON ROUGE FIRE DEPARTMENT", "FULL_ADDRESS": "1993 N FLANNERY RD", "CITY": "BATON ROUGE", "STATE": "LOUISIANA", "ZIP": 70815 }, "geometry": { "type": "Point", "coordinates": [ -91.036014672791566, 30.468862255449078 ] } },
{ "type": "Feature", "properties": { "ID": 150, "DESCRIPTION": "Zachary FD Station 82", "FACILITY_TYPE": "FIRE PROTECTION", "AGENCY": "CITY OF ZACHARY", "FULL_ADDRESS": "2250 FLONACHER RD", "CITY": "ZACHARY", "STATE": "LOUISIANA", "ZIP": 70791 }, "geometry": { "type": "Point", "coordinates": [ -91.192651798169877, 30.664253953266243 ] } },
{ "type": "Feature", "properties": { "ID": 163, "DESCRIPTION": "EMS Florida Station", "FACILITY_TYPE": "EMS", "AGENCY": "EMERGENCY MEDICAL SERVICES", "FULL_ADDRESS": "3024 FLORIDA ST", "CITY": "BATON ROUGE", "STATE": "LOUISIANA", "ZIP": 70806 }, "geometry": { "type": "Point", "coordinates": [ -91.157884314578467, 30.449658583001359 ] } },
{ "type": "Feature", "properties": { "ID": 164, "DESCRIPTION": "BRFD Station 1", "FACILITY_TYPE": "FIRE PROTECTION", "AGENCY": "BATON ROUGE FIRE DEPARTMENT", "FULL_ADDRESS": "3024 FLORIDA ST", "CITY": "BATON ROUGE", "STATE": "LOUISIANA", "ZIP": 70806 }, "geometry": { "type": "Point", "coordinates": [ -91.157662458791535, 30.449648678663884 ] } },
{ "type": "Feature", "properties": { "ID": 172, "DESCRIPTION": "L.C. Saurage Army Reserve Center", "FACILITY_TYPE": "MILITARY", "AGENCY": "US FEDERAL GOVERNMENT", "FULL_ADDRESS": "1735 FOSS ST", "CITY": "BATON ROUGE", "STATE": "LOUISIANA", "ZIP": 70802 }, "geometry": { "type": "Point", "coordinates": [ -91.171181880950414, 30.460383067230357 ] } },
{ "type": "Feature", "properties": { "ID": 185, "DESCRIPTION": "BRFD Station 12", "FACILITY_TYPE": "FIRE PROTECTION", "AGENCY": "BATON ROUGE FIRE DEPARTMENT", "FULL_ADDRESS": "555 GOVERNMENT ST", "CITY": "BATON ROUGE", "STATE": "LOUISIANA", "ZIP": 70802 }, "geometry": { "type": "Point", "coordinates": [ -91.184534339301237, 30.443661038501912 ] } },
{ "type": "Feature", "properties": { "ID": 194, "DESCRIPTION": "BRFD Station 6", "FACILITY_TYPE": "FIRE PROTECTION", "AGENCY": "BATON ROUGE FIRE DEPARTMENT", "FULL_ADDRESS": "5321 GREENWELL SPRINGS RD", "CITY": "BATON ROUGE", "STATE": "LOUISIANA", "ZIP": 70806 }, "geometry": { "type": "Point", "coordinates": [ -91.137271808428579, 30.464267344134143 ] } },
{ "type": "Feature", "properties": { "ID": 196, "DESCRIPTION": "Pride VFD Station 12", "FACILITY_TYPE": "FIRE PROTECTION", "AGENCY": "PRIDE VOLUNTEER FIRE DEPARTMENT", "FULL_ADDRESS": "38260 GREENWELL SPRINGS RD", "CITY": "CLINTON", "STATE": "LOUISIANA", "ZIP": 70722 }, "geometry": { "type": "Point", "coordinates": [ -90.881603822736537, 30.691851277532457 ] } },
{ "type": "Feature", "properties": { "ID": 199, "DESCRIPTION": "Baker FD Station 21", "FACILITY_TYPE": "FIRE PROTECTION", "AGENCY": "BAKER FIRE DEPARTMENT", "FULL_ADDRESS": "3701 GROOM RD", "CITY": "BAKER", "STATE": "LOUISIANA", "ZIP": 70714 }, "geometry": { "type": "Point", "coordinates": [ -91.161062878071576, 30.58806498327969 ] } },
{ "type": "Feature", "properties": { "ID": 202, "DESCRIPTION": "BRPD District 2 Station", "FACILITY_TYPE": "POLICE PROTECTION", "AGENCY": "BATON ROUGE POLICE DEPARTMENT", "FULL_ADDRESS": "2265 HIGHLAND RD", "CITY": "BATON ROUGE", "STATE": "LOUISIANA", "ZIP": 70802 }, "geometry": { "type": "Point", "coordinates": [ -91.179858081881477, 30.426097383120549 ] } },
{ "type": "Feature", "properties": { "ID": 203, "DESCRIPTION": "BRFD Station 11", "FACILITY_TYPE": "FIRE PROTECTION", "AGENCY": "BATON ROUGE FIRE DEPARTMENT", "FULL_ADDRESS": "3186 HIGHLAND RD", "CITY": "BATON ROUGE", "STATE": "LOUISIANA", "ZIP": 70802 }, "geometry": { "type": "Point", "coordinates": [ -91.177499121758345, 30.419631285183883 ] } },
{ "type": "Feature", "properties": { "ID": 205, "DESCRIPTION": "Louisiana State Police Troop A", "FACILITY_TYPE": "POLICE PROTECTION", "AGENCY": "LOUISIANA STATE POLICE", "FULL_ADDRESS": "17801 HIGHLAND RD", "CITY": "BATON ROUGE", "STATE": "LOUISIANA", "ZIP": 70810 }, "geometry": { "type": "Point", "coordinates": [ -91.031136246296697, 30.34628498988441 ] } },
{ "type": "Feature", "properties": { "ID": 207, "DESCRIPTION": "St George FD Station 68", "FACILITY_TYPE": "FIRE PROTECTION", "AGENCY": "ST GEORGE VOLUNTEER FIRE DEPARTMENT", "FULL_ADDRESS": "326 HIGHLANDIA DR", "CITY": "BATON ROUGE", "STATE": "LOUISIANA", "ZIP": 70810 }, "geometry": { "type": "Point", "coordinates": [ -91.029483571876838, 30.342217403307618 ] } },
{ "type": "Feature", "properties": { "ID": 208, "DESCRIPTION": "St George FD Station 64", "FACILITY_TYPE": "FIRE PROTECTION", "AGENCY": "ST GEORGE VOLUNTEER FIRE DEPARTMENT", "FULL_ADDRESS": "17575 HOO SHOO TOO RD", "CITY": "BATON ROUGE", "STATE": "LOUISIANA", "ZIP": 70817 }, "geometry": { "type": "Point", "coordinates": [ -90.991217559184051, 30.356683039187608 ] } },
{ "type": "Feature", "properties": { "ID": 212, "DESCRIPTION": "Central Police Department", "FACILITY_TYPE": "POLICE PROTECTION", "AGENCY": "CITY OF CENTRAL", "FULL_ADDRESS": "13505 HOOPER RD", "CITY": "CENTRAL", "STATE": "LOUISIANA", "ZIP": 70818 }, "geometry": { "type": "Point", "coordinates": [ -91.03904192442576, 30.55463752578639 ] } },
{ "type": "Feature", "properties": { "ID": 218, "DESCRIPTION": "BRPD VCU", "FACILITY_TYPE": "POLICE PROTECTION", "AGENCY": "BATON ROUGE POLICE DEPARTMENT", "FULL_ADDRESS": "7919 INDEPENDENCE BLVD", "CITY": "BATON ROUGE", "STATE": "LOUISIANA", "ZIP": 70806 }, "geometry": { "type": "Point", "coordinates": [ -91.106044378424755, 30.449158048656003 ] } },
{ "type": "Feature", "properties": { "ID": 219, "DESCRIPTION": "Department of Public Safety & La State Police", "FACILITY_TYPE": "PUBLIC SAFETY", "AGENCY": "STATE OF LOUISIANA", "FULL_ADDRESS": "7919 INDEPENDENCE BLVD", "CITY": "BATON ROUGE", "STATE": "LOUISIANA", "ZIP": 70806 }, "geometry": { "type": "Point", "coordinates": [ -91.105885138286368, 30.449166794795882 ] } },
{ "type": "Feature", "properties": { "ID": 220, "DESCRIPTION": "LA State Fire Marshal", "FACILITY_TYPE": "PUBLIC SAFETY", "AGENCY": "STATE OF LOUISIANA", "FULL_ADDRESS": "8181 INDEPENDENCE BLVD", "CITY": "BATON ROUGE", "STATE": "LOUISIANA", "ZIP": 70806 }, "geometry": { "type": "Point", "coordinates": [ -91.103320111807591, 30.449409544829258 ] } },
{ "type": "Feature", "properties": { "ID": 222, "DESCRIPTION": "Gov. Office of Homeland Security and Emer. Prep.", "FACILITY_TYPE": "PUBLIC SAFETY", "AGENCY": "STATE OF LOUISIANA", "FULL_ADDRESS": "7667 INDEPENDENCE BLVD", "CITY": "BATON ROUGE", "STATE": "LOUISIANA", "ZIP": 70806 }, "geometry": { "type": "Point", "coordinates": [ -91.108788653716019, 30.449662138368854 ] } },
{ "type": "Feature", "properties": { "ID": 223, "DESCRIPTION": "LSP Training Academy", "FACILITY_TYPE": "PUBLIC SAFETY", "AGENCY": "STATE OF LOUISIANA", "FULL_ADDRESS": "7901 INDEPENDENCE BLVD", "CITY": "BATON ROUGE", "STATE": "LOUISIANA", "ZIP": 70806 }, "geometry": { "type": "Point", "coordinates": [ -91.106682327614863, 30.447953349606259 ] } },
{ "type": "Feature", "properties": { "ID": 225, "DESCRIPTION": "EBRSO Property Crimes Complex", "FACILITY_TYPE": "PUBLIC SAFETY", "AGENCY": "EBR SHERIFFS OFFICE", "FULL_ADDRESS": "11130 INDUSTRIPLEX BLVD", "CITY": "BATON ROUGE", "STATE": "LOUISIANA", "ZIP": 70809 }, "geometry": { "type": "Point", "coordinates": [ -91.058541779457883, 30.388180874205407 ] } },
{ "type": "Feature", "properties": { "ID": 227, "DESCRIPTION": "BRPD Pistol Range & EBRSO Training Facility", "FACILITY_TYPE": "POLICE PROTECTION", "AGENCY": "BATON ROUGE POLICE DEPARTMENT", "FULL_ADDRESS": "999 W IRENE RD", "CITY": "ZACHARY", "STATE": "LOUISIANA", "ZIP": 70791 }, "geometry": { "type": "Point", "coordinates": [ -91.232615022532144, 30.608578610806582 ] } },
{ "type": "Feature", "properties": { "ID": 231, "DESCRIPTION": "EBRSO Pride-Chaneyville Substation", "FACILITY_TYPE": "POLICE PROTECTION", "AGENCY": "EBR SHERIFFS OFFICE", "FULL_ADDRESS": "12828 JACKSON RD", "CITY": "ZACHARY", "STATE": "LOUISIANA", "ZIP": 70791 }, "geometry": { "type": "Point", "coordinates": [ -91.030910836019629, 30.684573455797395 ] } },
{ "type": "Feature", "properties": { "ID": 236, "DESCRIPTION": "St George FD Station 62", "FACILITY_TYPE": "FIRE PROTECTION", "AGENCY": "ST GEORGE VOLUNTEER FIRE DEPARTMENT", "FULL_ADDRESS": "9214 JEFFERSON HWY", "CITY": "BATON ROUGE", "STATE": "LOUISIANA", "ZIP": 70809 }, "geometry": { "type": "Point", "coordinates": [ -91.083968580260887, 30.413657322379379 ] } },
{ "type": "Feature", "properties": { "ID": 244, "DESCRIPTION": "EBRSO Central Substation", "FACILITY_TYPE": "POLICE PROTECTION", "AGENCY": "EBR SHERIFFS OFFICE", "FULL_ADDRESS": "13016 GURNEY RD", "CITY": "CENTRAL", "STATE": "LOUISIANA", "ZIP": 70818 }, "geometry": { "type": "Point", "coordinates": [ -91.043065796869485, 30.560511991296408 ] } },
{ "type": "Feature", "properties": { "ID": 251, "DESCRIPTION": "BRFD Station 14", "FACILITY_TYPE": "FIRE PROTECTION", "AGENCY": "BATON ROUGE FIRE DEPARTMENT", "FULL_ADDRESS": "4121 HARDING BLVD", "CITY": "BATON ROUGE", "STATE": "LOUISIANA", "ZIP": 70811 }, "geometry": { "type": "Point", "coordinates": [ -91.149123402556015, 30.522073564070329 ] } },
{ "type": "Feature", "properties": { "ID": 252, "DESCRIPTION": "EMS HQ and EMS Harding Station", "FACILITY_TYPE": "EMS", "AGENCY": "EMERGENCY MEDICAL SERVICES", "FULL_ADDRESS": "3801 HARDING BLVD", "CITY": "BATON ROUGE", "STATE": "LOUISIANA", "ZIP": 70807 }, "geometry": { "type": "Point", "coordinates": [ -91.152809880208679, 30.523500679022021 ] } },
{ "type": "Feature", "properties": { "ID": 253, "DESCRIPTION": "ATM-EOC (Communications)", "FACILITY_TYPE": "PUBLIC SAFETY", "AGENCY": "EBR COMMUNICATIONS DISTRICT", "FULL_ADDRESS": "3773 HARDING BLVD", "CITY": "BATON ROUGE", "STATE": "LOUISIANA", "ZIP": 70807 }, "geometry": { "type": "Point", "coordinates": [ -91.15381107084383, 30.522455507124398 ] } },
{ "type": "Feature", "properties": { "ID": 254, "DESCRIPTION": "First Responder Safe Room and Training Center", "FACILITY_TYPE": "PUBLIC SAFETY", "AGENCY": "MOHSEP", "FULL_ADDRESS": "3785 HARDING BLVD", "CITY": "BATON ROUGE", "STATE": "LOUISIANA", "ZIP": 70807 }, "geometry": { "type": "Point", "coordinates": [ -91.153305896049162, 30.522986186966612 ] } },
{ "type": "Feature", "properties": { "ID": 261, "DESCRIPTION": "Eastside FD Station 92", "FACILITY_TYPE": "FIRE PROTECTION", "AGENCY": "EASTSIDE VOLUNTEER FIRE DEPARTMENT", "FULL_ADDRESS": "17505 S HARRELL'S FERRY RD", "CITY": "BATON ROUGE", "STATE": "LOUISIANA", "ZIP": 70816 }, "geometry": { "type": "Point", "coordinates": [ -90.992407720708997, 30.423119914680957 ] } },
{ "type": "Feature", "properties": { "ID": 268, "DESCRIPTION": "Central FD Station 35", "FACILITY_TYPE": "FIRE PROTECTION", "AGENCY": "CENTRAL VOLUNTEER FIRE DEPARTMENT", "FULL_ADDRESS": "10626 LOVETT RD", "CITY": "CENTRAL", "STATE": "LOUISIANA", "ZIP": 70818 }, "geometry": { "type": "Point", "coordinates": [ -91.066028104188703, 30.534967971672888 ] } },
{ "type": "Feature", "properties": { "ID": 273, "DESCRIPTION": "National Guard Baker Armory", "FACILITY_TYPE": "MILITARY", "AGENCY": "STATE OF LOUISIANA", "FULL_ADDRESS": "2900 S MAGNOLIA DR", "CITY": "BAKER", "STATE": "LOUISIANA", "ZIP": 70714 }, "geometry": { "type": "Point", "coordinates": [ -91.172333284386994, 30.57471831253223 ] } },
{ "type": "Feature", "properties": { "ID": 275, "DESCRIPTION": "Federal Emergency Management Agency", "FACILITY_TYPE": "PUBLIC SAFETY", "AGENCY": "US FEDERAL GOVERNMENT", "FULL_ADDRESS": "1500 MAIN ST", "CITY": "BATON ROUGE", "STATE": "LOUISIANA", "ZIP": 70802 }, "geometry": { "type": "Point", "coordinates": [ -91.172598444372483, 30.451389198536106 ] } },
{ "type": "Feature", "properties": { "ID": 285, "DESCRIPTION": "Central FD Station 32", "FACILITY_TYPE": "FIRE PROTECTION", "AGENCY": "CENTRAL VOLUNTEER FIRE DEPARTMENT", "FULL_ADDRESS": "4864 MONTICELLO BLVD", "CITY": "BATON ROUGE", "STATE": "LOUISIANA", "ZIP": 70814 }, "geometry": { "type": "Point", "coordinates": [ -91.050694525504525, 30.495574168157763 ] } },
{ "type": "Feature", "properties": { "ID": 314, "DESCRIPTION": "BRFD Station 10", "FACILITY_TYPE": "FIRE PROTECTION", "AGENCY": "BATON ROUGE FIRE DEPARTMENT", "FULL_ADDRESS": "7380 MENLO DR", "CITY": "BATON ROUGE", "STATE": "LOUISIANA", "ZIP": 70808 }, "geometry": { "type": "Point", "coordinates": [ -91.138068596681464, 30.38046992693203 ] } },
{ "type": "Feature", "properties": { "ID": 315, "DESCRIPTION": "BRFD Administration And Training Center", "FACILITY_TYPE": "FIRE PROTECTION", "AGENCY": "BATON ROUGE FIRE DEPARTMENT", "FULL_ADDRESS": "8011 MERLE GUSTAFSON DR", "CITY": "BATON ROUGE", "STATE": "LOUISIANA", "ZIP": 70807 }, "geometry": { "type": "Point", "coordinates": [ -91.150266600659009, 30.522253025442694 ] } },
{ "type": "Feature", "properties": { "ID": 317, "DESCRIPTION": "District 6 FD Station 52 ", "FACILITY_TYPE": "FIRE PROTECTION", "AGENCY": "HOOPER ROAD VOLUNTEER FIRE DEPARTMENT", "FULL_ADDRESS": "6324 MICKENS RD", "CITY": "BATON ROUGE", "STATE": "LOUISIANA", "ZIP": 70811 }, "geometry": { "type": "Point", "coordinates": [ -91.125882666037839, 30.523840158603946 ] } },
{ "type": "Feature", "properties": { "ID": 325, "DESCRIPTION": "Baker FD Station 22", "FACILITY_TYPE": "FIRE PROTECTION", "AGENCY": "BAKER FIRE DEPARTMENT", "FULL_ADDRESS": "6252 LAVEY LN", "CITY": "BAKER", "STATE": "LOUISIANA", "ZIP": 70714 }, "geometry": { "type": "Point", "coordinates": [ -91.130403696608653, 30.575362796600892 ] } },
{ "type": "Feature", "properties": { "ID": 326, "DESCRIPTION": "EMS Lavey Station", "FACILITY_TYPE": "EMS", "AGENCY": "EMERGENCY MEDICAL SERVICES", "FULL_ADDRESS": "6252 LAVEY LN", "CITY": "BAKER", "STATE": "LOUISIANA", "ZIP": 70714 }, "geometry": { "type": "Point", "coordinates": [ -91.130339722168486, 30.575358614099134 ] } },
{ "type": "Feature", "properties": { "ID": 330, "DESCRIPTION": "Pride VFD Station 11", "FACILITY_TYPE": "FIRE PROTECTION", "AGENCY": "PRIDE VOLUNTEER FIRE DEPARTMENT", "FULL_ADDRESS": "16929 LIBERTY RD", "CITY": "GREENWELL SPRINGS", "STATE": "LOUISIANA", "ZIP": 70739 }, "geometry": { "type": "Point", "coordinates": [ -90.996518467009864, 30.603584077217999 ] } },
{ "type": "Feature", "properties": { "ID": 332, "DESCRIPTION": "EBR Sheriff's Office", "FACILITY_TYPE": "POLICE PROTECTION", "AGENCY": "EBR SHERIFFS OFFICE", "FULL_ADDRESS": "8900 JIMMY WEDELL DR", "CITY": "BATON ROUGE", "STATE": "LOUISIANA", "ZIP": 70807 }, "geometry": { "type": "Point", "coordinates": [ -91.156964482315061, 30.528720292909391 ] } },
{ "type": "Feature", "properties": { "ID": 338, "DESCRIPTION": "Brownsfield VFD Station 72", "FACILITY_TYPE": "FIRE PROTECTION", "AGENCY": "BROWNSFIELD VOLUNTEER FIRE DEPARTMENT", "FULL_ADDRESS": "6850 KENT DR", "CITY": "BAKER", "STATE": "LOUISIANA", "ZIP": 70714 }, "geometry": { "type": "Point", "coordinates": [ -91.12328742272507, 30.588538073146701 ] } },
{ "type": "Feature", "properties": { "ID": 341, "DESCRIPTION": "Brownsfield VFD Station 71", "FACILITY_TYPE": "FIRE PROTECTION", "AGENCY": "BROWNSFIELD VOLUNTEER FIRE DEPARTMENT", "FULL_ADDRESS": "11420 PLANK RD", "CITY": "BATON ROUGE", "STATE": "LOUISIANA", "ZIP": 70811 }, "geometry": { "type": "Point", "coordinates": [ -91.135848789866188, 30.549042733082111 ] } },
{ "type": "Feature", "properties": { "ID": 343, "DESCRIPTION": "BRPD District 1 Station", "FACILITY_TYPE": "POLICE PROTECTION", "AGENCY": "BATON ROUGE POLICE DEPARTMENT", "FULL_ADDRESS": "4545 PLANK RD", "CITY": "BATON ROUGE", "STATE": "LOUISIANA", "ZIP": 70805 }, "geometry": { "type": "Point", "coordinates": [ -91.157431110649298, 30.490914248883058 ] } },
{ "type": "Feature", "properties": { "ID": 353, "DESCRIPTION": "Pride VFD Station 13", "FACILITY_TYPE": "FIRE PROTECTION", "AGENCY": "PRIDE VOLUNTEER FIRE DEPARTMENT", "FULL_ADDRESS": "13467 PORT HUDSON-PRIDE RD", "CITY": "PRIDE", "STATE": "LOUISIANA", "ZIP": 70770 }, "geometry": { "type": "Point", "coordinates": [ -91.017856591324986, 30.705828198418281 ] } },
{ "type": "Feature", "properties": { "ID": 355, "DESCRIPTION": "BRFD Station 4", "FACILITY_TYPE": "FIRE PROTECTION", "AGENCY": "BATON ROUGE FIRE DEPARTMENT", "FULL_ADDRESS": "6241 PRESCOTT RD", "CITY": "BATON ROUGE", "STATE": "LOUISIANA", "ZIP": 70805 }, "geometry": { "type": "Point", "coordinates": [ -91.127930130342833, 30.488760190718999 ] } },
{ "type": "Feature", "properties": { "ID": 356, "DESCRIPTION": "District 6 FD Station 51", "FACILITY_TYPE": "FIRE PROTECTION", "AGENCY": "HOOPER ROAD VOLUNTEER FIRE DEPARTMENT", "FULL_ADDRESS": "7878 PRESCOTT RD", "CITY": "BATON ROUGE", "STATE": "LOUISIANA", "ZIP": 70812 }, "geometry": { "type": "Point", "coordinates": [ -91.107700619092753, 30.488833229176205 ] } },
{ "type": "Feature", "properties": { "ID": 371, "DESCRIPTION": "BRFD Station 9", "FACILITY_TYPE": "FIRE PROTECTION", "AGENCY": "BATON ROUGE FIRE DEPARTMENT", "FULL_ADDRESS": "4025 PERKINS RD", "CITY": "BATON ROUGE", "STATE": "LOUISIANA", "ZIP": 70808 }, "geometry": { "type": "Point", "coordinates": [ -91.148370780871161, 30.41926993672276 ] } },
{ "type": "Feature", "properties": { "ID": 372, "DESCRIPTION": "EMS Perkins Station", "FACILITY_TYPE": "EMS", "AGENCY": "EMERGENCY MEDICAL SERVICES", "FULL_ADDRESS": "4025 PERKINS RD", "CITY": "BATON ROUGE", "STATE": "LOUISIANA", "ZIP": 70808 }, "geometry": { "type": "Point", "coordinates": [ -91.148333188333368, 30.419272408166663 ] } },
{ "type": "Feature", "properties": { "ID": 373, "DESCRIPTION": "St George FD Station 61", "FACILITY_TYPE": "FIRE PROTECTION", "AGENCY": "ST GEORGE VOLUNTEER FIRE DEPARTMENT", "FULL_ADDRESS": "13686 PERKINS RD", "CITY": "BATON ROUGE", "STATE": "LOUISIANA", "ZIP": 70810 }, "geometry": { "type": "Point", "coordinates": [ -91.068290439395639, 30.365611090529335 ] } },
{ "type": "Feature", "properties": { "ID": 384, "DESCRIPTION": "EMS Sullivan Station", "FACILITY_TYPE": "EMS", "AGENCY": "EMERGENCY MEDICAL SERVICES", "FULL_ADDRESS": "11644 SULLIVAN RD", "CITY": "CENTRAL", "STATE": "LOUISIANA", "ZIP": 70818 }, "geometry": { "type": "Point", "coordinates": [ -91.036998523783311, 30.555094180899083 ] } },
{ "type": "Feature", "properties": { "ID": 386, "DESCRIPTION": "Central FD Station 31", "FACILITY_TYPE": "FIRE PROTECTION", "AGENCY": "CENTRAL VOLUNTEER FIRE DEPARTMENT", "FULL_ADDRESS": "11646 SULLIVAN RD", "CITY": "CENTRAL", "STATE": "LOUISIANA", "ZIP": 70818 }, "geometry": { "type": "Point", "coordinates": [ -91.037120551263044, 30.555263999974297 ] } },
{ "type": "Feature", "properties": { "ID": 391, "DESCRIPTION": "Chaneyville VFD Station 40", "FACILITY_TYPE": "FIRE PROTECTION", "AGENCY": "CHANEYVILLE VOLUNTEER FIRE DEPARTMENT", "FULL_ADDRESS": "22790 REAMES RD", "CITY": "ZACHARY", "STATE": "LOUISIANA", "ZIP": 70791 }, "geometry": { "type": "Point", "coordinates": [ -91.027050459190903, 30.685152577648857 ] } },
{ "type": "Feature", "properties": { "ID": 397, "DESCRIPTION": "BRPD District 4 Station", "FACILITY_TYPE": "POLICE PROTECTION", "AGENCY": "BATON ROUGE POLICE DEPARTMENT", "FULL_ADDRESS": "8227 SCENIC HWY", "CITY": "BATON ROUGE", "STATE": "LOUISIANA", "ZIP": 70807 }, "geometry": { "type": "Point", "coordinates": [ -91.180506890387008, 30.521855079905613 ] } },
{ "type": "Feature", "properties": { "ID": 404, "DESCRIPTION": "St George FD Station 65", "FACILITY_TYPE": "FIRE PROTECTION", "AGENCY": "ST GEORGE VOLUNTEER FIRE DEPARTMENT", "FULL_ADDRESS": "1506 SEABORD DR", "CITY": "BATON ROUGE", "STATE": "LOUISIANA", "ZIP": 70820 }, "geometry": { "type": "Point", "coordinates": [ -91.125687240236118, 30.355873140058012 ] } },
{ "type": "Feature", "properties": { "ID": 407, "DESCRIPTION": "BRFD Station 13", "FACILITY_TYPE": "FIRE PROTECTION", "AGENCY": "BATON ROUGE FIRE DEPARTMENT", "FULL_ADDRESS": "835 SHARP RD", "CITY": "BATON ROUGE", "STATE": "LOUISIANA", "ZIP": 70815 }, "geometry": { "type": "Point", "coordinates": [ -91.068838183186415, 30.447413899458766 ] } },
{ "type": "Feature", "properties": { "ID": 418, "DESCRIPTION": "BRPD Mounted Patrol", "FACILITY_TYPE": "POLICE PROTECTION", "AGENCY": "BATON ROUGE POLICE DEPARTMENT", "FULL_ADDRESS": "6402 RIVER RD", "CITY": "BATON ROUGE", "STATE": "LOUISIANA", "ZIP": 70820 }, "geometry": { "type": "Point", "coordinates": [ -91.204900963558501, 30.387127723016544 ] } },
{ "type": "Feature", "properties": { "ID": 425, "DESCRIPTION": "BRFD Station 17", "FACILITY_TYPE": "FIRE PROTECTION", "AGENCY": "BATON ROUGE FIRE DEPARTMENT", "FULL_ADDRESS": "14350 OLD HAMMOND HWY", "CITY": "BATON ROUGE", "STATE": "LOUISIANA", "ZIP": 70816 }, "geometry": { "type": "Point", "coordinates": [ -91.026068981234133, 30.45031187973807 ] } },
{ "type": "Feature", "properties": { "ID": 428, "DESCRIPTION": "Eastside FD Station 91", "FACILITY_TYPE": "FIRE PROTECTION", "AGENCY": "EASTSIDE VOLUNTEER FIRE DEPARTMENT", "FULL_ADDRESS": "15094 OLD HAMMOND HWY", "CITY": "BATON ROUGE", "STATE": "LOUISIANA", "ZIP": 70816 }, "geometry": { "type": "Point", "coordinates": [ -91.018642263899665, 30.453907151680493 ] } },
{ "type": "Feature", "properties": { "ID": 429, "DESCRIPTION": "EMS Old Hammond Station", "FACILITY_TYPE": "EMS", "AGENCY": "EMERGENCY MEDICAL SERVICES", "FULL_ADDRESS": "14523 OLD HAMMOND HWY", "CITY": "BATON ROUGE", "STATE": "LOUISIANA", "ZIP": 70819 }, "geometry": { "type": "Point", "coordinates": [ -91.024420546490859, 30.452119263480917 ] } },
{ "type": "Feature", "properties": { "ID": 431, "DESCRIPTION": "Alsen/St Irma Lee VFD Station 25", "FACILITY_TYPE": "FIRE PROTECTION", "AGENCY": "ALSEN/ST IRMA LEE VOLUNTEER FIRE DEPARTMENT", "FULL_ADDRESS": "674 OLD RAFE MAYER RD", "CITY": "BATON ROUGE", "STATE": "LOUISIANA", "ZIP": 70807 }, "geometry": { "type": "Point", "coordinates": [ -91.197533859507303, 30.570183832945432 ] } },
{ "type": "Feature", "properties": { "ID": 450, "DESCRIPTION": "BRFD Station 8", "FACILITY_TYPE": "FIRE PROTECTION", "AGENCY": "BATON ROUGE FIRE DEPARTMENT", "FULL_ADDRESS": "150 S WOODDALE DR", "CITY": "BATON ROUGE", "STATE": "LOUISIANA", "ZIP": 70806 }, "geometry": { "type": "Point", "coordinates": [ -91.103729084575235, 30.450194485508167 ] } },
{ "type": "Feature", "properties": { "ID": 453, "DESCRIPTION": "EMS YMCA Plaza Station", "FACILITY_TYPE": "EMS", "AGENCY": "EMERGENCY MEDICAL SERVICES", "FULL_ADDRESS": "8140 YMCA PLAZA DR", "CITY": "BATON ROUGE", "STATE": "LOUISIANA", "ZIP": 70810 }, "geometry": { "type": "Point", "coordinates": [ -91.076074869286089, 30.373804688959464 ] } },
{ "type": "Feature", "properties": { "ID": 455, "DESCRIPTION": "Chaneyville VFD Station 42", "FACILITY_TYPE": "FIRE PROTECTION", "AGENCY": "CHANEYVILLE VOLUNTEER FIRE DEPARTMENT", "FULL_ADDRESS": "8801 ZACHARY-DEERFORD RD", "CITY": "ZACHARY", "STATE": "LOUISIANA", "ZIP": 70791 }, "geometry": { "type": "Point", "coordinates": [ -91.092646951859706, 30.642661710914798 ] } },
{ "type": "Feature", "properties": { "ID": 457, "DESCRIPTION": "EBRSO Scotlandville Substation", "FACILITY_TYPE": "POLICE PROTECTION", "AGENCY": "EBR SHERIFFS OFFICE", "FULL_ADDRESS": "1270 ROSENWALD RD", "CITY": "BATON ROUGE", "STATE": "LOUISIANA", "ZIP": 70807 }, "geometry": { "type": "Point", "coordinates": [ -91.180716046882722, 30.531143810707473 ] } },
{ "type": "Feature", "properties": { "ID": 458, "DESCRIPTION": "BRFD Station 16", "FACILITY_TYPE": "FIRE PROTECTION", "AGENCY": "BATON ROUGE FIRE DEPARTMENT", "FULL_ADDRESS": "1200 ROSENWALD RD", "CITY": "BATON ROUGE", "STATE": "LOUISIANA", "ZIP": 70807 }, "geometry": { "type": "Point", "coordinates": [ -91.180956195933462, 30.53180892627525 ] } },
{ "type": "Feature", "properties": { "ID": 461, "DESCRIPTION": "St George FD Station 66", "FACILITY_TYPE": "FIRE PROTECTION", "AGENCY": "ST GEORGE VOLUNTEER FIRE DEPARTMENT", "FULL_ADDRESS": "16415 GEORGE O'NEAL RD", "CITY": "BATON ROUGE", "STATE": "LOUISIANA", "ZIP": 70817 }, "geometry": { "type": "Point", "coordinates": [ -91.003863851984718, 30.407554661309366 ] } },
{ "type": "Feature", "properties": { "ID": 469, "DESCRIPTION": "BRPD Downtown District Station", "FACILITY_TYPE": "POLICE PROTECTION", "AGENCY": "BATON ROUGE POLICE DEPARTMENT", "FULL_ADDRESS": "201 3RD ST", "CITY": "BATON ROUGE", "STATE": "LOUISIANA", "ZIP": 70801 }, "geometry": { "type": "Point", "coordinates": [ -91.188367116483235, 30.448541011094758 ] } },
{ "type": "Feature", "properties": { "ID": 476, "DESCRIPTION": "Women's Community Rehabilitation Center", "FACILITY_TYPE": "PUBLIC SAFETY", "AGENCY": "STATE OF LOUISIANA", "FULL_ADDRESS": "855 SAINT FERDINAND ST", "CITY": "BATON ROUGE", "STATE": "LOUISIANA", "ZIP": 70802 }, "geometry": { "type": "Point", "coordinates": [ -91.186137324578524, 30.439786998101258 ] } },
{ "type": "Feature", "properties": { "ID": 483, "DESCRIPTION": "EBRSO Gardere Substation", "FACILITY_TYPE": "POLICE PROTECTION", "AGENCY": "EBR SHERIFFS OFFICE", "FULL_ADDRESS": "3777 L'AUBERGE CROSSING DR", "CITY": "BATON ROUGE", "STATE": "LOUISIANA", "ZIP": 70820 }, "geometry": { "type": "Point", "coordinates": [ -91.147013042117862, 30.343962726423637 ] } },
{ "type": "Feature", "properties": { "ID": 498, "DESCRIPTION": "Zachary Police Headquarters", "FACILITY_TYPE": "POLICE PROTECTION", "AGENCY": "CITY OF ZACHARY", "FULL_ADDRESS": "4510 MAIN ST", "CITY": "ZACHARY", "STATE": "LOUISIANA", "ZIP": 70791 }, "geometry": { "type": "Point", "coordinates": [ -91.156305437218606, 30.648078996898711 ] } },
{ "type": "Feature", "properties": { "ID": 499, "DESCRIPTION": "Zachary FD Station 81", "FACILITY_TYPE": "FIRE PROTECTION", "AGENCY": "CITY OF ZACHARY", "FULL_ADDRESS": "4525 MAIN ST", "CITY": "ZACHARY", "STATE": "LOUISIANA", "ZIP": 70791 }, "geometry": { "type": "Point", "coordinates": [ -91.156081741597916, 30.648936665465268 ] } },
{ "type": "Feature", "properties": { "ID": 501, "DESCRIPTION": "Zachary FD Station 83", "FACILITY_TYPE": "FIRE PROTECTION", "AGENCY": "CITY OF ZACHARY", "FULL_ADDRESS": "9366 MAIN ST", "CITY": "ZACHARY", "STATE": "LOUISIANA", "ZIP": 70791 }, "geometry": { "type": "Point", "coordinates": [ -91.10845816922712, 30.648480214739585 ] } },
{ "type": "Feature", "properties": { "ID": 504, "DESCRIPTION": "BRFD Station 5", "FACILITY_TYPE": "FIRE PROTECTION", "AGENCY": "BATON ROUGE FIRE DEPARTMENT", "FULL_ADDRESS": "3215 MONTERREY DR", "CITY": "BATON ROUGE", "STATE": "LOUISIANA", "ZIP": 70814 }, "geometry": { "type": "Point", "coordinates": [ -91.084004648105235, 30.479735846456354 ] } },
{ "type": "Feature", "properties": { "ID": 517, "DESCRIPTION": "Louisiana Correctional Institute for Women", "FACILITY_TYPE": "PUBLIC SAFETY", "AGENCY": "STATE OF LOUISIANA", "FULL_ADDRESS": "15200 OLD SCENIC HWY", "CITY": "BAKER", "STATE": "LOUISIANA", "ZIP": 70714 }, "geometry": { "type": "Point", "coordinates": [ -91.206334246508234, 30.584095902347467 ] } },
{ "type": "Feature", "properties": { "ID": 520, "DESCRIPTION": "Armed Forces Reserve Center & BR Armory", "FACILITY_TYPE": "MILITARY", "AGENCY": "STATE OF LOUISIANA", "FULL_ADDRESS": "8110 INNOVATION PARK DR", "CITY": "BATON ROUGE", "STATE": "LOUISIANA", "ZIP": 70820 }, "geometry": { "type": "Point", "coordinates": [ -91.137897980434317, 30.359084582100841 ] } }
]
}
