{
"type": "FeatureCollection",
"name": "School",
"crs": { "type": "name", "properties": { "name": "urn:ogc:def:crs:OGC:1.3:CRS84" } },
"features": [
{ "type": "Feature", "properties": { "ID": 1, "NAME": "Victory Academy", "TYPE": "Elementary", "GRADELEVELS": "Pre-K to 8", "PUBLIC_PRIVATE": "Private", "SCHOOLSYSTEM": "Private", "NAME_FORMER": null, "FULL_ADDRESS": "3953 N FLANNERY RD", "CITY": "BATON ROUGE", "STATE": "LOUISIANA", "ZIP": 70814, "PHONE_NUMBER": "225-272-8339", "WEBSITE": "https://www.vcawarriors.org" }, "geometry": { "type": "Point", "coordinates": [ -91.036119029738131, 30.487618649510924 ] } },
{ "type": "Feature", "properties": { "ID": 5, "NAME": "Park Forest Elementary School", "TYPE": "Elementary", "GRADELEVELS": "Pre-K to 5", "PUBLIC_PRIVATE": "Public", "SCHOOLSYSTEM": "East Baton Rouge Parish", "NAME_FORMER": null, "FULL_ADDRESS": "10717 ELAIN DR", "CITY": "BATON ROUGE", "STATE": "LOUISIANA", "ZIP": 70814, "PHONE_NUMBER": "225-272-0814", "WEBSITE": "https://www.ebrschools.org/schools/" }, "geometry": { "type": "Point", "coordinates": [ -91.065667743692231, 30.483427086608007 ] } },
{ "type": "Feature", "properties": { "ID": 6, "NAME": "Belaire Magnet High School", "TYPE": "High", "GRADELEVELS": "9 to 12", "PUBLIC_PRIVATE": "Public", "SCHOOLSYSTEM": "East Baton Rouge Parish", "NAME_FORMER": null, "FULL_ADDRESS": "12121 TAMS DR", "CITY": "BATON ROUGE", "STATE": "LOUISIANA", "ZIP": 70815, "PHONE_NUMBER": "225-272-1860", "WEBSITE": "https://www.ebrschools.org/schools/" }, "geometry": { "type": "Point", "coordinates": [ -91.048338899093778, 30.467505492132982 ] } },
{ "type": "Feature", "properties": { "ID": 7, "NAME": "LaBelle Aire Elementary School", "TYPE": "Elementary", "GRADELEVELS": "Pre-K to 5", "PUBLIC_PRIVATE": "Public", "SCHOOLSYSTEM": "East Baton Rouge Parish", "NAME_FORMER": null, "FULL_ADDRESS": "12255 TAMS DR", "CITY": "BATON ROUGE", "STATE": "LOUISIANA", "ZIP": 70815, "PHONE_NUMBER": "225-275-7480", "WEBSITE": "https://www.ebrschools.org/schools/" }, "geometry": { "type": "Point", "coordinates": [ -91.045838898930029, 30.467227492231327 ] } },
{ "type": "Feature", "properties": { "ID": 8, "NAME": "Riveroaks Elementary School", "TYPE": "Elementary", "GRADELEVELS": "Pre-K to 5", "PUBLIC_PRIVATE": "Public", "SCHOOLSYSTEM": "East Baton Rouge Parish", "NAME_FORMER": null, "FULL_ADDRESS": "950 FONTAINEBLEAU DR", "CITY": "BATON ROUGE", "STATE": "LOUISIANA", "ZIP": 70819, "PHONE_NUMBER": "225-275-4600", "WEBSITE": "https://www.ebrschools.org/schools/" }, "geometry": { "type": "Point", "coordinates": [ -91.022997713615325, 30.453875050357837 ] } },
{ "type": "Feature", "properties": { "ID": 11, "NAME": "Cedarcrest-Southmoor Elementary School", "TYPE": "Elementary", "GRADELEVELS": "Pre-K to 5", "PUBLIC_PRIVATE": "Public", "SCHOOLSYSTEM": "East Baton Rouge Parish", "NAME_FORMER": null, "FULL_ADDRESS": "10187 TWIN CEDARS ST", "CITY": "BATON ROUGE", "STATE": "LOUISIANA", "ZIP": 70816, "PHONE_NUMBER": "225-293-9950", "WEBSITE": "https://www.ebrschools.org/schools/" }, "geometry": { "type": "Point", "coordinates": [ -91.068069547185502, 30.425247119769182 ] } },
{ "type": "Feature", "properties": { "ID": 12, "NAME": "Sherwood Middle Academic Magnet School", "TYPE": "Middle", "GRADELEVELS": "6 to 8", "PUBLIC_PRIVATE": "Public", "SCHOOLSYSTEM": "East Baton Rouge Parish", "NAME_FORMER": null, "FULL_ADDRESS": "1020 MARLBROOK DR", "CITY": "BATON ROUGE", "STATE": "LOUISIANA", "ZIP": 70815, "PHONE_NUMBER": "225-272-3090", "WEBSITE": "https://www.ebrschools.org/schools/" }, "geometry": { "type": "Point", "coordinates": [ -91.063116935003407, 30.447054783777943 ] } },
{ "type": "Feature", "properties": { "ID": 13, "NAME": "Episcopal High School", "TYPE": "High", "GRADELEVELS": "Pre-K to 12", "PUBLIC_PRIVATE": "Private", "SCHOOLSYSTEM": "Private", "NAME_FORMER": null, "FULL_ADDRESS": "3200 WOODLAND RIDGE BLVD", "CITY": "BATON ROUGE", "STATE": "LOUISIANA", "ZIP": 70816, "PHONE_NUMBER": "225-753-3180", "WEBSITE": "http://www.ehsbr.org/" }, "geometry": { "type": "Point", "coordinates": [ -91.033691567893783, 30.421988078249452 ] } },
{ "type": "Feature", "properties": { "ID": 14, "NAME": "Saint Jean Vianney Catholic School", "TYPE": "Elementary", "GRADELEVELS": "K to 8", "PUBLIC_PRIVATE": "Private", "SCHOOLSYSTEM": "Catholic", "NAME_FORMER": null, "FULL_ADDRESS": "16266 S HARRELL'S FERRY RD", "CITY": "BATON ROUGE", "STATE": "LOUISIANA", "ZIP": 70816, "PHONE_NUMBER": "225-751-1831", "WEBSITE": "http://www.stjeanvianneyschool.org/" }, "geometry": { "type": "Point", "coordinates": [ -91.005005886097308, 30.423894484477739 ] } },
{ "type": "Feature", "properties": { "ID": 15, "NAME": "Southeast Middle Magnet School", "TYPE": "Middle", "GRADELEVELS": "6 to 8", "PUBLIC_PRIVATE": "Public", "SCHOOLSYSTEM": "East Baton Rouge Parish", "NAME_FORMER": null, "FULL_ADDRESS": "15000 S HARRELL'S FERRY RD", "CITY": "BATON ROUGE", "STATE": "LOUISIANA", "ZIP": 70816, "PHONE_NUMBER": "225-753-5930", "WEBSITE": "https://www.ebrschools.org/schools/" }, "geometry": { "type": "Point", "coordinates": [ -91.019773720960828, 30.429278225406886 ] } },
{ "type": "Feature", "properties": { "ID": 16, "NAME": "Wedgewood Elementary School", "TYPE": "Elementary", "GRADELEVELS": "Pre-K to 5", "PUBLIC_PRIVATE": "Public", "SCHOOLSYSTEM": "East Baton Rouge Parish", "NAME_FORMER": null, "FULL_ADDRESS": "2330 ASPENWOOD DR", "CITY": "BATON ROUGE", "STATE": "LOUISIANA", "ZIP": 70816, "PHONE_NUMBER": "225-753-7301", "WEBSITE": "https://www.ebrschools.org/schools/" }, "geometry": { "type": "Point", "coordinates": [ -91.013687049378873, 30.436143102421454 ] } },
{ "type": "Feature", "properties": { "ID": 20, "NAME": "Progress Elementary School", "TYPE": "Elementary", "GRADELEVELS": "Pre-K to 5", "PUBLIC_PRIVATE": "Public", "SCHOOLSYSTEM": "East Baton Rouge Parish", "NAME_FORMER": null, "FULL_ADDRESS": "855 PROGRESS RD", "CITY": "BATON ROUGE", "STATE": "LOUISIANA", "ZIP": 70807, "PHONE_NUMBER": "225-775-4986", "WEBSITE": "https://www.ebrschools.org/schools/" }, "geometry": { "type": "Point", "coordinates": [ -91.185586906667822, 30.53828245361391 ] } },
{ "type": "Feature", "properties": { "ID": 21, "NAME": "Northdale Academy", "TYPE": "High", "GRADELEVELS": "6 to 12", "PUBLIC_PRIVATE": "Public", "SCHOOLSYSTEM": "East Baton Rouge Parish", "NAME_FORMER": "Red Oaks Elementary School", "FULL_ADDRESS": "10755 CLETUS DR", "CITY": "BATON ROUGE", "STATE": "LOUISIANA", "ZIP": 70815, "PHONE_NUMBER": "225-272-2036", "WEBSITE": "https://www.ebrschools.org/schools/" }, "geometry": { "type": "Point", "coordinates": [ -91.064576078049143, 30.469466934453962 ] } },
{ "type": "Feature", "properties": { "ID": 22, "NAME": "Sacred Heart of Jesus School", "TYPE": "Elementary", "GRADELEVELS": "Pre-K to 8", "PUBLIC_PRIVATE": "Private", "SCHOOLSYSTEM": "Catholic", "NAME_FORMER": null, "FULL_ADDRESS": "2251 MAIN ST", "CITY": "BATON ROUGE", "STATE": "LOUISIANA", "ZIP": 70802, "PHONE_NUMBER": "225-383-7481", "WEBSITE": "http://sacredheartbr.com/" }, "geometry": { "type": "Point", "coordinates": [ -91.165311093552191, 30.452620877819299 ] } },
{ "type": "Feature", "properties": { "ID": 23, "NAME": "Saint Aloysius Catholic School", "TYPE": "Elementary", "GRADELEVELS": "Pre-K to 8", "PUBLIC_PRIVATE": "Private", "SCHOOLSYSTEM": "Catholic", "NAME_FORMER": null, "FULL_ADDRESS": "4001 MIMOSA ST", "CITY": "BATON ROUGE", "STATE": "LOUISIANA", "ZIP": 70808, "PHONE_NUMBER": "225-383-3871", "WEBSITE": "http://school.aloysius.org/" }, "geometry": { "type": "Point", "coordinates": [ -91.150378146893914, 30.415822081196861 ] } },
{ "type": "Feature", "properties": { "ID": 25, "NAME": "Saint George Catholic School", "TYPE": "Elementary", "GRADELEVELS": "K to 8", "PUBLIC_PRIVATE": "Private", "SCHOOLSYSTEM": "Catholic", "NAME_FORMER": null, "FULL_ADDRESS": "7880 SAINT GEORGE DR", "CITY": "BATON ROUGE", "STATE": "LOUISIANA", "ZIP": 70809, "PHONE_NUMBER": "225-293-1298", "WEBSITE": "http://st-georgeschool.com/" }, "geometry": { "type": "Point", "coordinates": [ -91.069172901185524, 30.378616472462113 ] } },
{ "type": "Feature", "properties": { "ID": 26, "NAME": "Redemptorist St. Gerard School", "TYPE": "Elementary", "GRADELEVELS": "Pre-K to 8", "PUBLIC_PRIVATE": "Private", "SCHOOLSYSTEM": "Catholic", "NAME_FORMER": null, "FULL_ADDRESS": "3655 SAINT GERARD AVE", "CITY": "BATON ROUGE", "STATE": "LOUISIANA", "ZIP": 70805, "PHONE_NUMBER": "225-355-1437", "WEBSITE": "http://rsgbr.org" }, "geometry": { "type": "Point", "coordinates": [ -91.152547869479605, 30.49782675648709 ] } },
{ "type": "Feature", "properties": { "ID": 29, "NAME": "Southdowns Pre-K Center", "TYPE": "Elementary", "GRADELEVELS": "Pre-K", "PUBLIC_PRIVATE": "Public", "SCHOOLSYSTEM": "East Baton Rouge Parish", "NAME_FORMER": null, "FULL_ADDRESS": "2050 HOOD AVE", "CITY": "BATON ROUGE", "STATE": "LOUISIANA", "ZIP": 70808, "PHONE_NUMBER": "225-346-1127", "WEBSITE": "https://www.ebrschools.org/schools/" }, "geometry": { "type": "Point", "coordinates": [ -91.151397379256679, 30.416518611046641 ] } },
{ "type": "Feature", "properties": { "ID": 34, "NAME": "Trinity Lutheran School", "TYPE": "Elementary", "GRADELEVELS": "Pre-K to 8", "PUBLIC_PRIVATE": "Private", "SCHOOLSYSTEM": "Private", "NAME_FORMER": null, "FULL_ADDRESS": "15160 S HARRELL'S FERRY RD", "CITY": "BATON ROUGE", "STATE": "LOUISIANA", "ZIP": 70816, "PHONE_NUMBER": "225-272-3110", "WEBSITE": "http://tlcbr.org/" }, "geometry": { "type": "Point", "coordinates": [ -91.018042348751507, 30.427072168885292 ] } },
{ "type": "Feature", "properties": { "ID": 35, "NAME": "Central Private School - Lower School", "TYPE": "Elementary", "GRADELEVELS": "Pre-K to 5", "PUBLIC_PRIVATE": "Private", "SCHOOLSYSTEM": "Private", "NAME_FORMER": null, "FULL_ADDRESS": "12801 CENTERRA CT", "CITY": "BAKER", "STATE": "LOUISIANA", "ZIP": 70714, "PHONE_NUMBER": "225-261-3341", "WEBSITE": "http://www.centralprivate.org/" }, "geometry": { "type": "Point", "coordinates": [ -91.060923870463824, 30.566740652914561 ] } },
{ "type": "Feature", "properties": { "ID": 36, "NAME": "Zachary Early Learning Center", "TYPE": "Elementary", "GRADELEVELS": "Pre-K", "PUBLIC_PRIVATE": "Public", "SCHOOLSYSTEM": "Zachary Community", "NAME_FORMER": null, "FULL_ADDRESS": "4400 ROLLINS PL", "CITY": "ZACHARY", "STATE": "LOUISIANA", "ZIP": 70791, "PHONE_NUMBER": "225-654-6011", "WEBSITE": "http://www.zacharyelc.org/" }, "geometry": { "type": "Point", "coordinates": [ -91.158412194395979, 30.663050152721578 ] } },
{ "type": "Feature", "properties": { "ID": 37, "NAME": "Rollins Place Elementary School", "TYPE": "Elementary", "GRADELEVELS": "K to 2", "PUBLIC_PRIVATE": "Public", "SCHOOLSYSTEM": "Zachary Community", "NAME_FORMER": null, "FULL_ADDRESS": "4400 ROLLINS PL", "CITY": "ZACHARY", "STATE": "LOUISIANA", "ZIP": 70791, "PHONE_NUMBER": "225-658-1940", "WEBSITE": "http://www.rollinsplaceelementary.org/" }, "geometry": { "type": "Point", "coordinates": [ -91.155379734188841, 30.663288064229114 ] } },
{ "type": "Feature", "properties": { "ID": 38, "NAME": "Copper Mill Elementary School", "TYPE": "Elementary", "GRADELEVELS": null, "PUBLIC_PRIVATE": "Public", "SCHOOLSYSTEM": "Zachary Community", "NAME_FORMER": null, "FULL_ADDRESS": "1300 INDEPENDENCE BLVD", "CITY": "ZACHARY", "STATE": "LOUISIANA", "ZIP": 70791, "PHONE_NUMBER": "225-658-1288", "WEBSITE": "http://www.coppermillelementary.org/" }, "geometry": { "type": "Point", "coordinates": [ -91.190137730608711, 30.6427559104213 ] } },
{ "type": "Feature", "properties": { "ID": 39, "NAME": "Central Intermediate School", "TYPE": "Elementary", "GRADELEVELS": "3 to 5", "PUBLIC_PRIVATE": "Public", "SCHOOLSYSTEM": "Central Community", "NAME_FORMER": null, "FULL_ADDRESS": "12636 SULLIVAN RD", "CITY": "CENTRAL", "STATE": "LOUISIANA", "ZIP": 70818, "PHONE_NUMBER": "225-261-1390", "WEBSITE": "http://centralintermediate.centralcss.org/" }, "geometry": { "type": "Point", "coordinates": [ -91.038536355188782, 30.562476661682627 ] } },
{ "type": "Feature", "properties": { "ID": 40, "NAME": "Louisiana State University Laboratory School", "TYPE": "All Grades", "GRADELEVELS": "K to 12", "PUBLIC_PRIVATE": "Public", "SCHOOLSYSTEM": "Louisiana State University System", "NAME_FORMER": null, "FULL_ADDRESS": "45 LAB SCHOOL SERVICE LOT", "CITY": "BATON ROUGE", "STATE": "LOUISIANA", "ZIP": 70803, "PHONE_NUMBER": "225-578-3221", "WEBSITE": "http://www.uhigh.lsu.edu/" }, "geometry": { "type": "Point", "coordinates": [ -91.173115402920658, 30.414524235846631 ] } },
{ "type": "Feature", "properties": { "ID": 41, "NAME": "Southern University Laboratory School", "TYPE": "All Grades", "GRADELEVELS": "K to 12", "PUBLIC_PRIVATE": "Public", "SCHOOLSYSTEM": "Southern University System", "NAME_FORMER": null, "FULL_ADDRESS": "807 SWAN AVE", "CITY": "BATON ROUGE", "STATE": "LOUISIANA", "ZIP": 70813, "PHONE_NUMBER": "225-771-3490", "WEBSITE": "http://www.sulabschool.com/" }, "geometry": { "type": "Point", "coordinates": [ -91.187403484394906, 30.524444092142645 ] } },
{ "type": "Feature", "properties": { "ID": 44, "NAME": "Prescott Academy", "TYPE": "Elementary", "GRADELEVELS": "Pre-K to 8", "PUBLIC_PRIVATE": "Public", "SCHOOLSYSTEM": "Charter - RSD", "NAME_FORMER": "Democracy Prep Louisiana Charter School", "FULL_ADDRESS": "4055 PRESCOTT RD", "CITY": "BATON ROUGE", "STATE": "LOUISIANA", "ZIP": 70805, "PHONE_NUMBER": "225-372-2037", "WEBSITE": "http://dpbrms.democracyprep.org/" }, "geometry": { "type": "Point", "coordinates": [ -91.148511011039176, 30.488310600857957 ] } },
{ "type": "Feature", "properties": { "ID": 45, "NAME": "Shenandoah Elementary School", "TYPE": "Elementary", "GRADELEVELS": "Pre-K to 5", "PUBLIC_PRIVATE": "Public", "SCHOOLSYSTEM": "East Baton Rouge Parish", "NAME_FORMER": null, "FULL_ADDRESS": "16555 APPOMATTOX AVE", "CITY": "BATON ROUGE", "STATE": "LOUISIANA", "ZIP": 70817, "PHONE_NUMBER": "225-753-3560", "WEBSITE": "https://www.ebrschools.org/schools/" }, "geometry": { "type": "Point", "coordinates": [ -91.000835723171178, 30.395942329336236 ] } },
{ "type": "Feature", "properties": { "ID": 46, "NAME": "Country Day School of Baton Rouge", "TYPE": "Elementary", "GRADELEVELS": "Pre-K ", "PUBLIC_PRIVATE": "Private", "SCHOOLSYSTEM": "Private", "NAME_FORMER": null, "FULL_ADDRESS": "4455 NORTH BLVD", "CITY": "BATON ROUGE", "STATE": "LOUISIANA", "ZIP": 70806, "PHONE_NUMBER": "225-928-4042", "WEBSITE": "http://www.countrydayschoolbr.com/" }, "geometry": { "type": "Point", "coordinates": [ -91.143845020117638, 30.448957290778889 ] } },
{ "type": "Feature", "properties": { "ID": 47, "NAME": "Parkview Elementary School", "TYPE": "Elementary", "GRADELEVELS": "Pre-K to 5", "PUBLIC_PRIVATE": "Public", "SCHOOLSYSTEM": "East Baton Rouge Parish", "NAME_FORMER": null, "FULL_ADDRESS": "5660 PARKFOREST DR", "CITY": "BATON ROUGE", "STATE": "LOUISIANA", "ZIP": 70816, "PHONE_NUMBER": "225-753-5615", "WEBSITE": "https://www.ebrschools.org/schools/" }, "geometry": { "type": "Point", "coordinates": [ -91.044792915500025, 30.400122441285504 ] } },
{ "type": "Feature", "properties": { "ID": 48, "NAME": "Catholic High School", "TYPE": "High", "GRADELEVELS": "8 to 12", "PUBLIC_PRIVATE": "Private", "SCHOOLSYSTEM": "Catholic", "NAME_FORMER": null, "FULL_ADDRESS": "855 HEARTHSTONE DR", "CITY": "BATON ROUGE", "STATE": "LOUISIANA", "ZIP": 70806, "PHONE_NUMBER": "225-383-0397", "WEBSITE": "http://www.catholichigh.org/" }, "geometry": { "type": "Point", "coordinates": [ -91.155895015707969, 30.44073628653517 ] } },
{ "type": "Feature", "properties": { "ID": 51, "NAME": "Saint Jude the Apostle School", "TYPE": "Elementary", "GRADELEVELS": "Pre-K to 8", "PUBLIC_PRIVATE": "Private", "SCHOOLSYSTEM": "Catholic", "NAME_FORMER": null, "FULL_ADDRESS": "9150 HIGHLAND RD", "CITY": "BATON ROUGE", "STATE": "LOUISIANA", "ZIP": 70808, "PHONE_NUMBER": "225-769-2344", "WEBSITE": "http://www.stjudebr.org/" }, "geometry": { "type": "Point", "coordinates": [ -91.12139491416869, 30.365838467847748 ] } },
{ "type": "Feature", "properties": { "ID": 53, "NAME": "Tara High School", "TYPE": "High", "GRADELEVELS": "9 to 12", "PUBLIC_PRIVATE": "Public", "SCHOOLSYSTEM": "East Baton Rouge Parish", "NAME_FORMER": null, "FULL_ADDRESS": "9002 WHITEHALL AVE", "CITY": "BATON ROUGE", "STATE": "LOUISIANA", "ZIP": 70806, "PHONE_NUMBER": "225-927-6100", "WEBSITE": "https://www.ebrschools.org/schools/" }, "geometry": { "type": "Point", "coordinates": [ -91.08888211123363, 30.434003356004876 ] } },
{ "type": "Feature", "properties": { "ID": 54, "NAME": "Highland Elementary School", "TYPE": "Elementary", "GRADELEVELS": "Pre-K to 5", "PUBLIC_PRIVATE": "Public", "SCHOOLSYSTEM": "East Baton Rouge Parish", "NAME_FORMER": null, "FULL_ADDRESS": "280 SUNSET BLVD", "CITY": "BATON ROUGE", "STATE": "LOUISIANA", "ZIP": 70808, "PHONE_NUMBER": "225-766-1272", "WEBSITE": "https://www.ebrschools.org/schools/" }, "geometry": { "type": "Point", "coordinates": [ -91.148459724668072, 30.392334226568241 ] } },
{ "type": "Feature", "properties": { "ID": 56, "NAME": "Capitol High School", "TYPE": "High", "GRADELEVELS": "6 to 12", "PUBLIC_PRIVATE": "Public", "SCHOOLSYSTEM": "East Baton Rouge Parish", "NAME_FORMER": null, "FULL_ADDRESS": "1000 N 23RD ST", "CITY": "BATON ROUGE", "STATE": "LOUISIANA", "ZIP": 70802, "PHONE_NUMBER": "225-239-7506", "WEBSITE": "https://capitolhighbr.org" }, "geometry": { "type": "Point", "coordinates": [ -91.16364013880073, 30.459216035827613 ] } },
{ "type": "Feature", "properties": { "ID": 58, "NAME": "LaSalle Elementary School", "TYPE": "Elementary", "GRADELEVELS": "Pre-K to 5", "PUBLIC_PRIVATE": "Public", "SCHOOLSYSTEM": "East Baton Rouge Parish", "NAME_FORMER": null, "FULL_ADDRESS": "8000 LASALLE AVE", "CITY": "BATON ROUGE", "STATE": "LOUISIANA", "ZIP": 70806, "PHONE_NUMBER": "225-927-6130", "WEBSITE": "https://www.ebrschools.org/schools/" }, "geometry": { "type": "Point", "coordinates": [ -91.103380505087188, 30.434157359331621 ] } },
{ "type": "Feature", "properties": { "ID": 59, "NAME": "Glen Oaks Park Elementary School", "TYPE": "Elementary", "GRADELEVELS": "3 to 5", "PUBLIC_PRIVATE": "Public", "SCHOOLSYSTEM": "East Baton Rouge Parish", "NAME_FORMER": null, "FULL_ADDRESS": "5656 LANIER DR", "CITY": "BATON ROUGE", "STATE": "LOUISIANA", "ZIP": 70812, "PHONE_NUMBER": "225-356-4521", "WEBSITE": "https://www.ebrschools.org/schools/" }, "geometry": { "type": "Point", "coordinates": [ -91.107043820071709, 30.503207661679461 ] } },
{ "type": "Feature", "properties": { "ID": 63, "NAME": "Martin Luther King Junior Christian Academy", "TYPE": "Elementary", "GRADELEVELS": "Pre-K to 8", "PUBLIC_PRIVATE": "Private", "SCHOOLSYSTEM": "Private", "NAME_FORMER": null, "FULL_ADDRESS": "4295 PRESCOTT CT", "CITY": "BATON ROUGE", "STATE": "LOUISIANA", "ZIP": 70805, "PHONE_NUMBER": "225-356-7407", "WEBSITE": null }, "geometry": { "type": "Point", "coordinates": [ -91.138894924600649, 30.489449493939755 ] } },
{ "type": "Feature", "properties": { "ID": 65, "NAME": "EBR Readiness Middle Campus", "TYPE": "Middle", "GRADELEVELS": "6 to 8", "PUBLIC_PRIVATE": "Public", "SCHOOLSYSTEM": "East Baton Rouge Parish", "NAME_FORMER": "Ryan Elementary School", "FULL_ADDRESS": "10337 ELM GROVE GARDEN DR", "CITY": "BATON ROUGE", "STATE": "LOUISIANA", "ZIP": 70807, "PHONE_NUMBER": "225-775-2407", "WEBSITE": "https://www.ebrschools.org/schools/" }, "geometry": { "type": "Point", "coordinates": [ -91.170050606532428, 30.538532591345472 ] } },
{ "type": "Feature", "properties": { "ID": 66, "NAME": "Saint Francis Xavier Catholic School", "TYPE": "Elementary", "GRADELEVELS": "Pre-K to 8", "PUBLIC_PRIVATE": "Private", "SCHOOLSYSTEM": "Catholic", "NAME_FORMER": null, "FULL_ADDRESS": "1150 S 12TH ST", "CITY": "BATON ROUGE", "STATE": "LOUISIANA", "ZIP": 70802, "PHONE_NUMBER": "225-387-6639", "WEBSITE": "https://www.sfxbr.org" }, "geometry": { "type": "Point", "coordinates": [ -91.177192437756418, 30.437853067934693 ] } },
{ "type": "Feature", "properties": { "ID": 67, "NAME": "Crestworth Elementary School", "TYPE": "Elementary", "GRADELEVELS": "K to 8", "PUBLIC_PRIVATE": "Public", "SCHOOLSYSTEM": "East Baton Rouge Parish", "NAME_FORMER": "Crestworth Learning Academy", "FULL_ADDRESS": "10650 AVENUE F", "CITY": "BATON ROUGE", "STATE": "LOUISIANA", "ZIP": 70807, "PHONE_NUMBER": "225-778-1317", "WEBSITE": "https://www.ebrschools.org/schools/" }, "geometry": { "type": "Point", "coordinates": [ -91.194980948507364, 30.541228513686022 ] } },
{ "type": "Feature", "properties": { "ID": 68, "NAME": "Scotlandville Magnet High School", "TYPE": "High", "GRADELEVELS": "9 to 12", "PUBLIC_PRIVATE": "Public", "SCHOOLSYSTEM": "East Baton Rouge Parish", "NAME_FORMER": null, "FULL_ADDRESS": "9870 SCOTLAND AVE", "CITY": "BATON ROUGE", "STATE": "LOUISIANA", "ZIP": 70807, "PHONE_NUMBER": "225-775-3715", "WEBSITE": "https://www.ebrschools.org/schools/" }, "geometry": { "type": "Point", "coordinates": [ -91.176949937176957, 30.533338502270244 ] } },
{ "type": "Feature", "properties": { "ID": 69, "NAME": "Scotlandville Middle School", "TYPE": "Middle", "GRADELEVELS": "6 to 8", "PUBLIC_PRIVATE": "Public", "SCHOOLSYSTEM": "East Baton Rouge Parish", "NAME_FORMER": "Scotlandville Elementary School", "FULL_ADDRESS": "9147 ELM GROVE GARDEN DR", "CITY": "BATON ROUGE", "STATE": "LOUISIANA", "ZIP": 70807, "PHONE_NUMBER": "225-775-0776", "WEBSITE": "https://www.ebrschools.org/schools/" }, "geometry": { "type": "Point", "coordinates": [ -91.170283934943285, 30.529727501065391 ] } },
{ "type": "Feature", "properties": { "ID": 70, "NAME": "Sharon Hills Elementary School", "TYPE": "Elementary", "GRADELEVELS": "Pre-K to 5", "PUBLIC_PRIVATE": "Public", "SCHOOLSYSTEM": "East Baton Rouge Parish", "NAME_FORMER": null, "FULL_ADDRESS": "6450 GUYNELL DR", "CITY": "BATON ROUGE", "STATE": "LOUISIANA", "ZIP": 70811, "PHONE_NUMBER": "225-355-6522", "WEBSITE": "https://www.ebrschools.org/schools/" }, "geometry": { "type": "Point", "coordinates": [ -91.126672922943541, 30.533616503292944 ] } },
{ "type": "Feature", "properties": { "ID": 71, "NAME": "Zachary Elementary School", "TYPE": "Elementary", "GRADELEVELS": null, "PUBLIC_PRIVATE": "Public", "SCHOOLSYSTEM": "Zachary Community", "NAME_FORMER": null, "FULL_ADDRESS": "3775 HEMLOCK ST", "CITY": "ZACHARY", "STATE": "LOUISIANA", "ZIP": 70791, "PHONE_NUMBER": "225-654-4036", "WEBSITE": "http://zacharyelementary.org/" }, "geometry": { "type": "Point", "coordinates": [ -91.167505939647569, 30.641116524744234 ] } },
{ "type": "Feature", "properties": { "ID": 72, "NAME": "Zachary High School", "TYPE": "High", "GRADELEVELS": null, "PUBLIC_PRIVATE": "Public", "SCHOOLSYSTEM": "Zachary Community", "NAME_FORMER": null, "FULL_ADDRESS": "4100 BRONCO LN", "CITY": "ZACHARY", "STATE": "LOUISIANA", "ZIP": 70791, "PHONE_NUMBER": "225-654-2776", "WEBSITE": "http://www.zacharyhigh.org/" }, "geometry": { "type": "Point", "coordinates": [ -91.161116938283584, 30.652227527809991 ] } },
{ "type": "Feature", "properties": { "ID": 73, "NAME": "Woodlawn Middle Magnet School", "TYPE": "Middle", "GRADELEVELS": "6 to 8", "PUBLIC_PRIVATE": "Public", "SCHOOLSYSTEM": "East Baton Rouge Parish", "NAME_FORMER": null, "FULL_ADDRESS": "14939 TIGER BEND RD", "CITY": "BATON ROUGE", "STATE": "LOUISIANA", "ZIP": 70817, "PHONE_NUMBER": "225-751-0436", "WEBSITE": "https://www.ebrschools.org/schools/" }, "geometry": { "type": "Point", "coordinates": [ -91.015195254277245, 30.392433407186278 ] } },
{ "type": "Feature", "properties": { "ID": 75, "NAME": "Northeast High School", "TYPE": "High", "GRADELEVELS": "7 to 12", "PUBLIC_PRIVATE": "Public", "SCHOOLSYSTEM": "East Baton Rouge Parish", "NAME_FORMER": null, "FULL_ADDRESS": "13700 PORT HUDSON-PRIDE RD", "CITY": "PRIDE", "STATE": "LOUISIANA", "ZIP": 70770, "PHONE_NUMBER": "225-654-5808", "WEBSITE": "https://www.ebrschools.org/schools/" }, "geometry": { "type": "Point", "coordinates": [ -91.012873717520762, 30.702861613825281 ] } },
{ "type": "Feature", "properties": { "ID": 78, "NAME": "Arlington Preparatory Academy", "TYPE": "High", "GRADELEVELS": "6 to 12", "PUBLIC_PRIVATE": "Public", "SCHOOLSYSTEM": "East Baton Rouge Parish", "NAME_FORMER": "Howell Park Elementary School", "FULL_ADDRESS": "6125 WINBOURNE AVE", "CITY": "BATON ROUGE", "STATE": "LOUISIANA", "ZIP": 70805, "PHONE_NUMBER": "225-766-8188", "WEBSITE": "https://www.ebrschools.org/schools/" }, "geometry": { "type": "Point", "coordinates": [ -91.128894921807799, 30.47972749192483 ] } },
{ "type": "Feature", "properties": { "ID": 79, "NAME": "Istrouma Magnet High School", "TYPE": "High", "GRADELEVELS": "9 to 12", "PUBLIC_PRIVATE": "Public", "SCHOOLSYSTEM": "East Baton Rouge Parish", "NAME_FORMER": null, "FULL_ADDRESS": "3730 WINBOURNE AVE", "CITY": "BATON ROUGE", "STATE": "LOUISIANA", "ZIP": 70805, "PHONE_NUMBER": "225-636-2686", "WEBSITE": "https://www.ebrschools.org/schools/" }, "geometry": { "type": "Point", "coordinates": [ -91.150901210220013, 30.476693117342496 ] } },
{ "type": "Feature", "properties": { "ID": 80, "NAME": "Istrouma Magnet Middle School", "TYPE": "Middle", "GRADELEVELS": "6 to 8", "PUBLIC_PRIVATE": "Public", "SCHOOLSYSTEM": "East Baton Rouge Parish", "NAME_FORMER": null, "FULL_ADDRESS": "3730 WINBOURNE AVE", "CITY": "BATON ROUGE", "STATE": "LOUISIANA", "ZIP": 70805, "PHONE_NUMBER": "225-636-2686", "WEBSITE": "https://www.ebrschools.org/schools/" }, "geometry": { "type": "Point", "coordinates": [ -91.151429661388846, 30.47698839306371 ] } },
{ "type": "Feature", "properties": { "ID": 81, "NAME": "Lanier Elementary A Redesign School", "TYPE": "Elementary", "GRADELEVELS": "Pre-K to 5", "PUBLIC_PRIVATE": "Public", "SCHOOLSYSTEM": "Charter - RSD", "NAME_FORMER": "Lanier Elementary School", "FULL_ADDRESS": "4705 LANIER DR", "CITY": "BATON ROUGE", "STATE": "LOUISIANA", "ZIP": 70812, "PHONE_NUMBER": "225-308-3273", "WEBSITE": "https://www.redesignschoolslouisiana.org" }, "geometry": { "type": "Point", "coordinates": [ -91.10833891691324, 30.493616495499769 ] } },
{ "type": "Feature", "properties": { "ID": 83, "NAME": "Magnolia Woods Elementary School", "TYPE": "Elementary", "GRADELEVELS": "Pre-K to 5", "PUBLIC_PRIVATE": "Public", "SCHOOLSYSTEM": "East Baton Rouge Parish", "NAME_FORMER": null, "FULL_ADDRESS": "760 MAXINE DR", "CITY": "BATON ROUGE", "STATE": "LOUISIANA", "ZIP": 70808, "PHONE_NUMBER": "225-769-6845", "WEBSITE": "https://www.ebrschools.org/schools/" }, "geometry": { "type": "Point", "coordinates": [ -91.12263102457851, 30.382983974909848 ] } },
{ "type": "Feature", "properties": { "ID": 84, "NAME": "Mayfair Laboratory School", "TYPE": "Elementary", "GRADELEVELS": "K to 8", "PUBLIC_PRIVATE": "Public", "SCHOOLSYSTEM": "East Baton Rouge Parish", "NAME_FORMER": null, "FULL_ADDRESS": "9880 HYACINTH AVE", "CITY": "BATON ROUGE", "STATE": "LOUISIANA", "ZIP": 70810, "PHONE_NUMBER": "225-761-7849", "WEBSITE": "https://www.ebrschools.org/schools/" }, "geometry": { "type": "Point", "coordinates": [ -91.102480491823414, 30.380355759968808 ] } },
{ "type": "Feature", "properties": { "ID": 86, "NAME": "Melrose Elementary School", "TYPE": "Elementary", "GRADELEVELS": "Pre-K to 2", "PUBLIC_PRIVATE": "Public", "SCHOOLSYSTEM": "East Baton Rouge Parish", "NAME_FORMER": null, "FULL_ADDRESS": "1348 VALCOUR DR", "CITY": "BATON ROUGE", "STATE": "LOUISIANA", "ZIP": 70806, "PHONE_NUMBER": "225-926-2353", "WEBSITE": "https://www.ebrschools.org/schools/" }, "geometry": { "type": "Point", "coordinates": [ -91.134449922559199, 30.461672488479621 ] } },
{ "type": "Feature", "properties": { "ID": 91, "NAME": "Saint Alphonsus Catholic School", "TYPE": "Elementary", "GRADELEVELS": "Pre-K to 8", "PUBLIC_PRIVATE": "Private", "SCHOOLSYSTEM": "Catholic", "NAME_FORMER": null, "FULL_ADDRESS": "13940 GREENWELL SPRINGS RD", "CITY": "GREENWELL SPRINGS", "STATE": "LOUISIANA", "ZIP": 70739, "PHONE_NUMBER": "225-261-5299", "WEBSITE": "http://www.stalphonsusbr.org/" }, "geometry": { "type": "Point", "coordinates": [ -91.031146430759136, 30.508245559538821 ] } },
{ "type": "Feature", "properties": { "ID": 94, "NAME": "Bethany Christian School", "TYPE": "Elementary", "GRADELEVELS": "K to 6", "PUBLIC_PRIVATE": "Private", "SCHOOLSYSTEM": "Private", "NAME_FORMER": null, "FULL_ADDRESS": "11107 HONORE LN", "CITY": "BATON ROUGE", "STATE": "LOUISIANA", "ZIP": 70809, "PHONE_NUMBER": "225-774-0133", "WEBSITE": "http://www.bethanychristianschool.com/" }, "geometry": { "type": "Point", "coordinates": [ -91.056419033268938, 30.386547087835893 ] } },
{ "type": "Feature", "properties": { "ID": 95, "NAME": "Jehovah-Jireh Christian Academy", "TYPE": "All Grades", "GRADELEVELS": "K to 12", "PUBLIC_PRIVATE": "Private", "SCHOOLSYSTEM": "Private", "NAME_FORMER": null, "FULL_ADDRESS": "1771 LOBDELL BLVD", "CITY": "BATON ROUGE", "STATE": "LOUISIANA", "ZIP": 70806, "PHONE_NUMBER": "225-932-2357", "WEBSITE": "http://jjcacademy.org/" }, "geometry": { "type": "Point", "coordinates": [ -91.118218589883355, 30.464121794935686 ] } },
{ "type": "Feature", "properties": { "ID": 96, "NAME": "Parkview Baptist School", "TYPE": "All Grades", "GRADELEVELS": "K to 12", "PUBLIC_PRIVATE": "Private", "SCHOOLSYSTEM": "Private", "NAME_FORMER": null, "FULL_ADDRESS": "5750 PARKVIEW CHURCH RD", "CITY": "BATON ROUGE", "STATE": "LOUISIANA", "ZIP": 70816, "PHONE_NUMBER": "225-291-2500", "WEBSITE": "http://www.parkviewbaptist.com/" }, "geometry": { "type": "Point", "coordinates": [ -91.050235493425347, 30.39768279726858 ] } },
{ "type": "Feature", "properties": { "ID": 99, "NAME": "Greater Baton Rouge Hope Academy", "TYPE": "All Grades", "GRADELEVELS": "1 to 12", "PUBLIC_PRIVATE": "Private", "SCHOOLSYSTEM": "Private", "NAME_FORMER": "Gables Academy", "FULL_ADDRESS": "15333 JEFFERSON HWY", "CITY": "BATON ROUGE", "STATE": "LOUISIANA", "ZIP": 70817, "PHONE_NUMBER": "225-293-0141", "WEBSITE": "http://hopeacademybr.org" }, "geometry": { "type": "Point", "coordinates": [ -91.01734087811694, 30.376526479093851 ] } },
{ "type": "Feature", "properties": { "ID": 100, "NAME": "Jimmy Swaggart Bible College and Seminary", "TYPE": "College", "GRADELEVELS": null, "PUBLIC_PRIVATE": "Private", "SCHOOLSYSTEM": "Private", "NAME_FORMER": "World Evangelism Bible College", "FULL_ADDRESS": "7320 BLUEBONNET BLVD", "CITY": "BATON ROUGE", "STATE": "LOUISIANA", "ZIP": 70810, "PHONE_NUMBER": "225-768-3890", "WEBSITE": "http://www.jsbc.edu" }, "geometry": { "type": "Point", "coordinates": [ -91.095700284932121, 30.384978687233176 ] } },
{ "type": "Feature", "properties": { "ID": 102, "NAME": "Brighton School, The", "TYPE": "Elementary", "GRADELEVELS": "K to 6", "PUBLIC_PRIVATE": "Private", "SCHOOLSYSTEM": "Private", "NAME_FORMER": "Brighton Academy", "FULL_ADDRESS": "9150 BEREFORD DR", "CITY": "BATON ROUGE", "STATE": "LOUISIANA", "ZIP": 70809, "PHONE_NUMBER": "225-291-2524", "WEBSITE": "http://www.thebrightonschool.org/" }, "geometry": { "type": "Point", "coordinates": [ -91.045526224233541, 30.405295051897518 ] } },
{ "type": "Feature", "properties": { "ID": 103, "NAME": "Westdale Middle School", "TYPE": "Middle", "GRADELEVELS": "6 to 8", "PUBLIC_PRIVATE": "Public", "SCHOOLSYSTEM": "East Baton Rouge Parish", "NAME_FORMER": null, "FULL_ADDRESS": "5650 CLAYCUT RD", "CITY": "BATON ROUGE", "STATE": "LOUISIANA", "ZIP": 70806, "PHONE_NUMBER": "225-924-1308", "WEBSITE": "https://www.ebrschools.org/schools/" }, "geometry": { "type": "Point", "coordinates": [ -91.131672920970288, 30.440838484048712 ] } },
{ "type": "Feature", "properties": { "ID": 104, "NAME": "Westdale Heights Academic Magnet School", "TYPE": "Elementary", "GRADELEVELS": "Pre-K to 5", "PUBLIC_PRIVATE": "Public", "SCHOOLSYSTEM": "East Baton Rouge Parish", "NAME_FORMER": null, "FULL_ADDRESS": "2000 COLLEGE DR", "CITY": "BATON ROUGE", "STATE": "LOUISIANA", "ZIP": 70808, "PHONE_NUMBER": "225-926-5421", "WEBSITE": "https://www.ebrschools.org/schools/" }, "geometry": { "type": "Point", "coordinates": [ -91.134172920485597, 30.431394481565437 ] } },
{ "type": "Feature", "properties": { "ID": 105, "NAME": "Geo Prep Baker", "TYPE": "Elementary", "GRADELEVELS": "Pre-K to 8", "PUBLIC_PRIVATE": "Public", "SCHOOLSYSTEM": "Charter", "NAME_FORMER": "White Hills Elementary School", "FULL_ADDRESS": "5300 BENTLEY DR", "CITY": "BAKER", "STATE": "LOUISIANA", "ZIP": 70714, "PHONE_NUMBER": "225-533-6829", "WEBSITE": "https://www.geoprepbaker.org" }, "geometry": { "type": "Point", "coordinates": [ -91.139906953093558, 30.592891178700253 ] } },
{ "type": "Feature", "properties": { "ID": 106, "NAME": "Woodlawn Magnet High School", "TYPE": "High", "GRADELEVELS": "9 to 12", "PUBLIC_PRIVATE": "Public", "SCHOOLSYSTEM": "East Baton Rouge Parish", "NAME_FORMER": null, "FULL_ADDRESS": "15755 JEFFERSON HWY", "CITY": "BATON ROUGE", "STATE": "LOUISIANA", "ZIP": 70817, "PHONE_NUMBER": "225-753-1200", "WEBSITE": "https://www.ebrschools.org/schools/" }, "geometry": { "type": "Point", "coordinates": [ -91.011556804452667, 30.373532374778971 ] } },
{ "type": "Feature", "properties": { "ID": 109, "NAME": "The Dunham School", "TYPE": "All Grades", "GRADELEVELS": "Pre-K to 12", "PUBLIC_PRIVATE": "Private", "SCHOOLSYSTEM": "Private", "NAME_FORMER": "Chapel Trafton School", "FULL_ADDRESS": "11111 ROY EMERSON DR", "CITY": "BATON ROUGE", "STATE": "LOUISIANA", "ZIP": 70810, "PHONE_NUMBER": "225-767-7097", "WEBSITE": "http://www.dunhamschool.org/" }, "geometry": { "type": "Point", "coordinates": [ -91.085534197004293, 30.383009303318797 ] } },
{ "type": "Feature", "properties": { "ID": 111, "NAME": "Bellingrath Hills Elementary School", "TYPE": "Elementary", "GRADELEVELS": "Pre-K to K", "PUBLIC_PRIVATE": "Public", "SCHOOLSYSTEM": "Central Community", "NAME_FORMER": null, "FULL_ADDRESS": "6612 AUDUSSON DR", "CITY": "GREENWELL SPRINGS", "STATE": "LOUISIANA", "ZIP": 70739, "PHONE_NUMBER": "225-261-4093", "WEBSITE": "http://bellingrathhills.centralcss.org/" }, "geometry": { "type": "Point", "coordinates": [ -90.992227886276311, 30.51528350412136 ] } },
{ "type": "Feature", "properties": { "ID": 112, "NAME": "Family Christian Academy", "TYPE": "All Grades", "GRADELEVELS": "K to 12", "PUBLIC_PRIVATE": "Private", "SCHOOLSYSTEM": "Private", "NAME_FORMER": null, "FULL_ADDRESS": "8919 WORLD MINISTRY AVE", "CITY": "BATON ROUGE", "STATE": "LOUISIANA", "ZIP": 70810, "PHONE_NUMBER": "225-768-3026", "WEBSITE": "http://fcacademy.net/" }, "geometry": { "type": "Point", "coordinates": [ -91.091066116240498, 30.383811747937678 ] } },
{ "type": "Feature", "properties": { "ID": 114, "NAME": "Hosanna Christian Academy", "TYPE": "All Grades", "GRADELEVELS": "K to 8", "PUBLIC_PRIVATE": "Private", "SCHOOLSYSTEM": "Private", "NAME_FORMER": null, "FULL_ADDRESS": "8850 GOODWOOD BLVD", "CITY": "BATON ROUGE", "STATE": "LOUISIANA", "ZIP": 70806, "PHONE_NUMBER": "225-926-4885", "WEBSITE": "http://hcablazers.org/" }, "geometry": { "type": "Point", "coordinates": [ -91.09164298434095, 30.442243935002775 ] } },
{ "type": "Feature", "properties": { "ID": 115, "NAME": "The Dufrocq School", "TYPE": "Elementary", "GRADELEVELS": "Pre-K to 5", "PUBLIC_PRIVATE": "Public", "SCHOOLSYSTEM": "East Baton Rouge Parish", "NAME_FORMER": null, "FULL_ADDRESS": "330 S 19TH ST", "CITY": "BATON ROUGE", "STATE": "LOUISIANA", "ZIP": 70806, "PHONE_NUMBER": "225-334-7653", "WEBSITE": "https://www.ebrschools.org/schools/" }, "geometry": { "type": "Point", "coordinates": [ -91.168568272401984, 30.445289658937394 ] } },
{ "type": "Feature", "properties": { "ID": 116, "NAME": "Twin Oaks Elementary School", "TYPE": "Elementary", "GRADELEVELS": "Pre-K to 5", "PUBLIC_PRIVATE": "Public", "SCHOOLSYSTEM": "East Baton Rouge Parish", "NAME_FORMER": null, "FULL_ADDRESS": "819 TRAMMELL DR", "CITY": "BATON ROUGE", "STATE": "LOUISIANA", "ZIP": 70815, "PHONE_NUMBER": "225-275-6620", "WEBSITE": "https://www.ebrschools.org/schools/" }, "geometry": { "type": "Point", "coordinates": [ -91.037672430224063, 30.451679401118259 ] } },
{ "type": "Feature", "properties": { "ID": 117, "NAME": "Park Ridge Performing Arts Academy", "TYPE": "Elementary", "GRADELEVELS": "Pre-K to 8", "PUBLIC_PRIVATE": "Public", "SCHOOLSYSTEM": "Charter - Baker", "NAME_FORMER": "Baker Middle School", "FULL_ADDRESS": "5903 GROOM RD", "CITY": "BAKER", "STATE": "LOUISIANA", "ZIP": 70714, "PHONE_NUMBER": "225-775-9750", "WEBSITE": "https://www.bakerschools.org/schools/park-ridge-achievement-academy/home" }, "geometry": { "type": "Point", "coordinates": [ -91.134623795512979, 30.584834520829553 ] } },
{ "type": "Feature", "properties": { "ID": 118, "NAME": "Northwestern Elementary School", "TYPE": "Elementary", "GRADELEVELS": "K to 1", "PUBLIC_PRIVATE": "Public", "SCHOOLSYSTEM": "Zachary Community", "NAME_FORMER": null, "FULL_ADDRESS": "4200 ROLLINS RD", "CITY": "ZACHARY", "STATE": "LOUISIANA", "ZIP": 70791, "PHONE_NUMBER": "225-654-2786", "WEBSITE": "http://www.northwesternelementary.org/" }, "geometry": { "type": "Point", "coordinates": [ -91.16000593797412, 30.658616528806576 ] } },
{ "type": "Feature", "properties": { "ID": 119, "NAME": "Saint Thomas More Catholic School", "TYPE": "Elementary", "GRADELEVELS": "Pre-K to 8", "PUBLIC_PRIVATE": "Private", "SCHOOLSYSTEM": "Catholic", "NAME_FORMER": null, "FULL_ADDRESS": "11400 SHERBROOK DR", "CITY": "BATON ROUGE", "STATE": "LOUISIANA", "ZIP": 70815, "PHONE_NUMBER": "225-275-2820", "WEBSITE": "http://www.stmbr.org/" }, "geometry": { "type": "Point", "coordinates": [ -91.055611255337695, 30.449944060875048 ] } },
{ "type": "Feature", "properties": { "ID": 120, "NAME": "Saint Michael the Archangel Diocesan Regional High School", "TYPE": "High", "GRADELEVELS": "9 to 12", "PUBLIC_PRIVATE": "Private", "SCHOOLSYSTEM": "Catholic", "NAME_FORMER": "Bishop Sullivan High School", "FULL_ADDRESS": "17521 MONITOR AVE", "CITY": "BATON ROUGE", "STATE": "LOUISIANA", "ZIP": 70817, "PHONE_NUMBER": "225-753-9782", "WEBSITE": "http://www.smhsbr.org/" }, "geometry": { "type": "Point", "coordinates": [ -90.989449881258352, 30.410005481682365 ] } },
{ "type": "Feature", "properties": { "ID": 121, "NAME": "LSU Carrol L. Herring Fire and Emergency Training Institute", "TYPE": "University", "GRADELEVELS": null, "PUBLIC_PRIVATE": "Public", "SCHOOLSYSTEM": "Louisiana State University System", "NAME_FORMER": "Louisiana State University Fireman Training Center", "FULL_ADDRESS": "6868 NICHOLSON DR", "CITY": "BATON ROUGE", "STATE": "LOUISIANA", "ZIP": 70820, "PHONE_NUMBER": "225-334-6300", "WEBSITE": "http://feti.lsu.edu/" }, "geometry": { "type": "Point", "coordinates": [ -91.160283925296014, 30.368616467164582 ] } },
{ "type": "Feature", "properties": { "ID": 122, "NAME": "Southeastern Louisiana University School of Nursing", "TYPE": "University", "GRADELEVELS": null, "PUBLIC_PRIVATE": "Public", "SCHOOLSYSTEM": "University of Louisiana System", "NAME_FORMER": null, "FULL_ADDRESS": "4849 ESSEN LN", "CITY": "BATON ROUGE", "STATE": "LOUISIANA", "ZIP": 70809, "PHONE_NUMBER": "225-765-2324", "WEBSITE": "http://southeastern.edu/acad_research/depts/nurs/" }, "geometry": { "type": "Point", "coordinates": [ -91.102783911263643, 30.402227476301885 ] } },
{ "type": "Feature", "properties": { "ID": 123, "NAME": "Southern University", "TYPE": "University", "GRADELEVELS": null, "PUBLIC_PRIVATE": "Public", "SCHOOLSYSTEM": "Southern University System", "NAME_FORMER": null, "FULL_ADDRESS": "803 HARDING BLVD", "CITY": "BATON ROUGE", "STATE": "LOUISIANA", "ZIP": 70813, "PHONE_NUMBER": "225-771-4500", "WEBSITE": "http://www.subr.edu/" }, "geometry": { "type": "Point", "coordinates": [ -91.191805299157366, 30.523444375115155 ] } },
{ "type": "Feature", "properties": { "ID": 124, "NAME": "Camelot College", "TYPE": "College", "GRADELEVELS": null, "PUBLIC_PRIVATE": "Private", "SCHOOLSYSTEM": "Private", "NAME_FORMER": null, "FULL_ADDRESS": "2618 WOODDALE BLVD", "CITY": "BATON ROUGE", "STATE": "LOUISIANA", "ZIP": 70805, "PHONE_NUMBER": "225-928-3005", "WEBSITE": "http://www.camelotcollege.com/" }, "geometry": { "type": "Point", "coordinates": [ -91.115240548797715, 30.474294475302848 ] } },
{ "type": "Feature", "properties": { "ID": 125, "NAME": "Louisiana Key Academy", "TYPE": "All Grades", "GRADELEVELS": "K to 10", "PUBLIC_PRIVATE": "Public", "SCHOOLSYSTEM": "Charter", "NAME_FORMER": "Baton Rouge International School", "FULL_ADDRESS": "5015 AUTOPLEX DR", "CITY": "BATON ROUGE", "STATE": "LOUISIANA", "ZIP": 70809, "PHONE_NUMBER": "225-298-1223", "WEBSITE": "https://www.lkaschools.com/our-campuses/capital-region-campus" }, "geometry": { "type": "Point", "coordinates": [ -91.060265436290038, 30.402408457205777 ] } },
{ "type": "Feature", "properties": { "ID": 127, "NAME": "Brighter Horizon School of Baton Rouge", "TYPE": "All Grades", "GRADELEVELS": "PK to 12", "PUBLIC_PRIVATE": "Private", "SCHOOLSYSTEM": "Private", "NAME_FORMER": null, "FULL_ADDRESS": "1896 WOODDALE BLVD", "CITY": "BATON ROUGE", "STATE": "LOUISIANA", "ZIP": 70806, "PHONE_NUMBER": "225-927-2521", "WEBSITE": "http://www.brighterhorizonschool.org/" }, "geometry": { "type": "Point", "coordinates": [ -91.113134124890777, 30.465748801208974 ] } },
{ "type": "Feature", "properties": { "ID": 128, "NAME": "Capital Renaissance International School", "TYPE": "Elementary", "GRADELEVELS": "PK to 5", "PUBLIC_PRIVATE": "Private", "SCHOOLSYSTEM": "Private", "NAME_FORMER": "Cypress Heights Academy", "FULL_ADDRESS": "10420 BARINGER FOREMAN RD", "CITY": "BATON ROUGE", "STATE": "LOUISIANA", "ZIP": 70809, "PHONE_NUMBER": "225-421-8303", "WEBSITE": "https://www.crisbr.org/" }, "geometry": { "type": "Point", "coordinates": [ -91.027930937834995, 30.356943357757633 ] } },
{ "type": "Feature", "properties": { "ID": 129, "NAME": "Elan Vital Montessori School", "TYPE": "Elementary", "GRADELEVELS": "K to 6", "PUBLIC_PRIVATE": "Private", "SCHOOLSYSTEM": "Private", "NAME_FORMER": null, "FULL_ADDRESS": "7518 HIGHLAND RD", "CITY": "BATON ROUGE", "STATE": "LOUISIANA", "ZIP": 70808, "PHONE_NUMBER": "225-767-6620", "WEBSITE": "http://www.elanvitalmontessori.org/" }, "geometry": { "type": "Point", "coordinates": [ -91.137259800455368, 30.376812960900239 ] } },
{ "type": "Feature", "properties": { "ID": 130, "NAME": "La Printaniere Montessori School", "TYPE": "Elementary", "GRADELEVELS": "K to 5", "PUBLIC_PRIVATE": "Private", "SCHOOLSYSTEM": "Private", "NAME_FORMER": null, "FULL_ADDRESS": "5064 PERKINS RD", "CITY": "BATON ROUGE", "STATE": "LOUISIANA", "ZIP": 70808, "PHONE_NUMBER": "225-769-2255", "WEBSITE": "http://www.laprintaniere.com/" }, "geometry": { "type": "Point", "coordinates": [ -91.136149516727485, 30.412704051825646 ] } },
{ "type": "Feature", "properties": { "ID": 131, "NAME": "Louisiana New School Academy", "TYPE": "All Grades", "GRADELEVELS": "4 to 12", "PUBLIC_PRIVATE": "Private", "SCHOOLSYSTEM": "Private", "NAME_FORMER": null, "FULL_ADDRESS": "1900 NORTH BLVD", "CITY": "BATON ROUGE", "STATE": "LOUISIANA", "ZIP": 70806, "PHONE_NUMBER": "225-344-8900", "WEBSITE": "http://www.lanewschoolacademy.com" }, "geometry": { "type": "Point", "coordinates": [ -91.168742653041278, 30.447571568975388 ] } },
{ "type": "Feature", "properties": { "ID": 133, "NAME": "Montessori School of Baton Rouge", "TYPE": "Elementary", "GRADELEVELS": "PK to K", "PUBLIC_PRIVATE": "Private", "SCHOOLSYSTEM": "Private", "NAME_FORMER": null, "FULL_ADDRESS": "8227 WIMBLEDON AVE", "CITY": "BATON ROUGE", "STATE": "LOUISIANA", "ZIP": 70810, "PHONE_NUMBER": "225-766-9942", "WEBSITE": "http://montessorischoolofbatonrouge.org/" }, "geometry": { "type": "Point", "coordinates": [ -91.089083957064219, 30.374995604120762 ] } },
{ "type": "Feature", "properties": { "ID": 135, "NAME": "McKinley Middle Academic Magnet School of Visual and Performing Arts", "TYPE": "Middle", "GRADELEVELS": "6 to 8", "PUBLIC_PRIVATE": "Public", "SCHOOLSYSTEM": "East Baton Rouge Parish", "NAME_FORMER": null, "FULL_ADDRESS": "1550 EDDIE ROBINSON SR DR", "CITY": "BATON ROUGE", "STATE": "LOUISIANA", "ZIP": 70802, "PHONE_NUMBER": "225-388-0089", "WEBSITE": "https://www.ebrschools.org/schools/" }, "geometry": { "type": "Point", "coordinates": [ -91.174794440301326, 30.433189331546895 ] } },
{ "type": "Feature", "properties": { "ID": 136, "NAME": "Our Lady of Mercy Catholic School", "TYPE": "Elementary", "GRADELEVELS": "Pre-K to 8", "PUBLIC_PRIVATE": "Private", "SCHOOLSYSTEM": "Catholic", "NAME_FORMER": null, "FULL_ADDRESS": "400 MARQUETTE AVE", "CITY": "BATON ROUGE", "STATE": "LOUISIANA", "ZIP": 70806, "PHONE_NUMBER": "225-924-1054", "WEBSITE": "http://www.olomschool.org/" }, "geometry": { "type": "Point", "coordinates": [ -91.124428436404486, 30.44710063283981 ] } },
{ "type": "Feature", "properties": { "ID": 137, "NAME": "Park Medical Academy", "TYPE": "Elementary", "GRADELEVELS": "Pre-K to 8", "PUBLIC_PRIVATE": "Public", "SCHOOLSYSTEM": "East Baton Rouge Parish", "NAME_FORMER": "Park Elementary School", "FULL_ADDRESS": "2680 BOGAN WALK", "CITY": "BATON ROUGE", "STATE": "LOUISIANA", "ZIP": 70802, "PHONE_NUMBER": "225-344-2145", "WEBSITE": "https://www.ebrschools.org/schools/" }, "geometry": { "type": "Point", "coordinates": [ -91.16138004394638, 30.460620656980225 ] } },
{ "type": "Feature", "properties": { "ID": 140, "NAME": "Saint Joseph's Academy", "TYPE": "High", "GRADELEVELS": "9 to 12", "PUBLIC_PRIVATE": "Private", "SCHOOLSYSTEM": "Catholic", "NAME_FORMER": null, "FULL_ADDRESS": "3015 BROUSSARD ST", "CITY": "BATON ROUGE", "STATE": "LOUISIANA", "ZIP": 70806, "PHONE_NUMBER": "225-383-7207", "WEBSITE": "https://sjabr.org/" }, "geometry": { "type": "Point", "coordinates": [ -91.156603305863214, 30.436911520240443 ] } },
{ "type": "Feature", "properties": { "ID": 143, "NAME": "Park Forest Middle Creative Sciences and Art Magnet School", "TYPE": "Middle", "GRADELEVELS": "6 to 8", "PUBLIC_PRIVATE": "Public", "SCHOOLSYSTEM": "East Baton Rouge Parish", "NAME_FORMER": null, "FULL_ADDRESS": "3760 ALETHA DR", "CITY": "BATON ROUGE", "STATE": "LOUISIANA", "ZIP": 70814, "PHONE_NUMBER": "225-275-6650", "WEBSITE": "https://www.ebrschools.org/schools/" }, "geometry": { "type": "Point", "coordinates": [ -91.07310853628438, 30.484363994385351 ] } },
{ "type": "Feature", "properties": { "ID": 145, "NAME": "Tanglewood Elementary School", "TYPE": "Elementary", "GRADELEVELS": "1 to 2", "PUBLIC_PRIVATE": "Public", "SCHOOLSYSTEM": "Central Community", "NAME_FORMER": null, "FULL_ADDRESS": "9352 RUSTLING OAKS DR", "CITY": "CENTRAL", "STATE": "LOUISIANA", "ZIP": 70818, "PHONE_NUMBER": "225-261-3454", "WEBSITE": "http://tanglewood.centralcss.org/" }, "geometry": { "type": "Point", "coordinates": [ -91.07444990919484, 30.533616505059985 ] } },
{ "type": "Feature", "properties": { "ID": 146, "NAME": "Woodlawn Elementary School", "TYPE": "Elementary", "GRADELEVELS": "Pre-K to 5", "PUBLIC_PRIVATE": "Public", "SCHOOLSYSTEM": "East Baton Rouge Parish", "NAME_FORMER": null, "FULL_ADDRESS": "8160 ANTIOCH RD", "CITY": "BATON ROUGE", "STATE": "LOUISIANA", "ZIP": 70817, "PHONE_NUMBER": "225-756-3681", "WEBSITE": "https://www.ebrschools.org/schools/" }, "geometry": { "type": "Point", "coordinates": [ -91.009648776460594, 30.377754675023979 ] } },
{ "type": "Feature", "properties": { "ID": 147, "NAME": "Baton Rouge Foreign Language Academic Immersion Magnet Elementary School", "TYPE": "Elementary", "GRADELEVELS": "Pre-K to 5", "PUBLIC_PRIVATE": "Public", "SCHOOLSYSTEM": "East Baton Rouge Parish", "NAME_FORMER": "Valley Park Alternative School", "FULL_ADDRESS": "4510 BAWELL ST", "CITY": "BATON ROUGE", "STATE": "LOUISIANA", "ZIP": 70808, "PHONE_NUMBER": "225-343-6630", "WEBSITE": "http://www.brflaim.org" }, "geometry": { "type": "Point", "coordinates": [ -91.142068444075093, 30.426644272391211 ] } },
{ "type": "Feature", "properties": { "ID": 148, "NAME": "Villa Del Rey Elementary School", "TYPE": "Elementary", "GRADELEVELS": "Pre-K to 5", "PUBLIC_PRIVATE": "Public", "SCHOOLSYSTEM": "East Baton Rouge Parish", "NAME_FORMER": null, "FULL_ADDRESS": "9765 CUYHANGA PKWY", "CITY": "BATON ROUGE", "STATE": "LOUISIANA", "ZIP": 70815, "PHONE_NUMBER": "225-924-1606", "WEBSITE": "https://www.ebrschools.org/schools/" }, "geometry": { "type": "Point", "coordinates": [ -91.07606292813756, 30.465367247984574 ] } },
{ "type": "Feature", "properties": { "ID": 150, "NAME": "Baton Rouge Community College - Acadian Campus", "TYPE": "College", "GRADELEVELS": null, "PUBLIC_PRIVATE": "Public", "SCHOOLSYSTEM": "Louisiana Community and Technical College System", "NAME_FORMER": "Baton Rouge Vocational Technical Institute", "FULL_ADDRESS": "3250 N ACADIAN THWY", "CITY": "BATON ROUGE", "STATE": "LOUISIANA", "ZIP": 70805, "PHONE_NUMBER": "1-866-217-9823", "WEBSITE": "http://www.mybrcc.edu/" }, "geometry": { "type": "Point", "coordinates": [ -91.155283928699006, 30.477227490381114 ] } },
{ "type": "Feature", "properties": { "ID": 152, "NAME": "Louisiana State University And A&M College", "TYPE": "University", "GRADELEVELS": null, "PUBLIC_PRIVATE": "Public", "SCHOOLSYSTEM": "Louisiana State University System", "NAME_FORMER": null, "FULL_ADDRESS": "3810 W LAKESHORE DR", "CITY": "BATON ROUGE", "STATE": "LOUISIANA", "ZIP": 70808, "PHONE_NUMBER": null, "WEBSITE": "http://www.lsu.edu/" }, "geometry": { "type": "Point", "coordinates": [ -91.17889434217534, 30.414437348828482 ] } },
{ "type": "Feature", "properties": { "ID": 155, "NAME": "Capitol Elementary School", "TYPE": "Elementary", "GRADELEVELS": "3 to 6", "PUBLIC_PRIVATE": "Public", "SCHOOLSYSTEM": "East Baton Rouge Parish", "NAME_FORMER": null, "FULL_ADDRESS": "4141 GUS YOUNG AVE", "CITY": "BATON ROUGE", "STATE": "LOUISIANA", "ZIP": 70802, "PHONE_NUMBER": "225-343-9364", "WEBSITE": "https://www.ebrschools.org/schools/" }, "geometry": { "type": "Point", "coordinates": [ -91.148314059752352, 30.462824356070076 ] } },
{ "type": "Feature", "properties": { "ID": 156, "NAME": "Inspire Charter Academy", "TYPE": "Elementary", "GRADELEVELS": "K to 8", "PUBLIC_PRIVATE": "Public", "SCHOOLSYSTEM": "Charter - EBRPSS", "NAME_FORMER": null, "FULL_ADDRESS": "5454 N FOSTER DR", "CITY": "BATON ROUGE", "STATE": "LOUISIANA", "ZIP": 70805, "PHONE_NUMBER": "225-356-3936", "WEBSITE": "https://www.nhaschools.com/schools/Inspire-Charter-Academy/en" }, "geometry": { "type": "Point", "coordinates": [ -91.140403316997947, 30.49896669869679 ] } },
{ "type": "Feature", "properties": { "ID": 157, "NAME": "Helix Mentorship STEAM Academy", "TYPE": "High", "GRADELEVELS": "9 to 12", "PUBLIC_PRIVATE": "Public", "SCHOOLSYSTEM": "Charter - EBRPSS", "NAME_FORMER": null, "FULL_ADDRESS": "339 FLORIDA ST", "CITY": "BATON ROUGE", "STATE": "LOUISIANA", "ZIP": 70801, "PHONE_NUMBER": "225-346-5180", "WEBSITE": "https://www.helixmentorshipacademy.org/index.jsp" }, "geometry": { "type": "Point", "coordinates": [ -91.187379539639011, 30.44968004406919 ] } },
{ "type": "Feature", "properties": { "ID": 158, "NAME": "Gardere Community Christian School", "TYPE": "Elementary", "GRADELEVELS": "PK to 8", "PUBLIC_PRIVATE": "Private", "SCHOOLSYSTEM": "Private", "NAME_FORMER": null, "FULL_ADDRESS": "8538 GSRI AVE", "CITY": "BATON ROUGE", "STATE": "LOUISIANA", "ZIP": 70810, "PHONE_NUMBER": "225-387-5082", "WEBSITE": "http://gardereschool.com/" }, "geometry": { "type": "Point", "coordinates": [ -91.126433917930612, 30.354534060126461 ] } },
{ "type": "Feature", "properties": { "ID": 159, "NAME": "Baton Rouge Community College - Frazier Campus", "TYPE": "College", "GRADELEVELS": null, "PUBLIC_PRIVATE": "Public", "SCHOOLSYSTEM": "Louisiana Community and Technical College System", "NAME_FORMER": null, "FULL_ADDRESS": "555 JULIA ST", "CITY": "BATON ROUGE", "STATE": "LOUISIANA", "ZIP": 70802, "PHONE_NUMBER": "1-866-217-9823", "WEBSITE": "http://www.mybrcc.edu/" }, "geometry": { "type": "Point", "coordinates": [ -91.185107370153858, 30.43765453796064 ] } },
{ "type": "Feature", "properties": { "ID": 161, "NAME": "Northeast Elementary School", "TYPE": "Elementary", "GRADELEVELS": "Pre-K to 6", "PUBLIC_PRIVATE": "Public", "SCHOOLSYSTEM": "East Baton Rouge Parish", "NAME_FORMER": null, "FULL_ADDRESS": "13801 PORT HUDSON-PRIDE RD", "CITY": "PRIDE", "STATE": "LOUISIANA", "ZIP": 70770, "PHONE_NUMBER": "225-654-5113", "WEBSITE": "https://www.ebrschools.org/schools/" }, "geometry": { "type": "Point", "coordinates": [ -91.014473512860604, 30.706061204961721 ] } },
{ "type": "Feature", "properties": { "ID": 162, "NAME": "Liberty Magnet High School", "TYPE": "High", "GRADELEVELS": "9 to 12", "PUBLIC_PRIVATE": "Public", "SCHOOLSYSTEM": "East Baton Rouge Parish", "NAME_FORMER": "Robert E. Lee High School", "FULL_ADDRESS": "1105 LEE DR", "CITY": "BATON ROUGE", "STATE": "LOUISIANA", "ZIP": 70808, "PHONE_NUMBER": "225-924-9406", "WEBSITE": "https://www.ebrschools.org/schools/" }, "geometry": { "type": "Point", "coordinates": [ -91.152089823538418, 30.405688588337341 ] } },
{ "type": "Feature", "properties": { "ID": 163, "NAME": "Saint Luke's Episcopal Day School", "TYPE": "Elementary", "GRADELEVELS": "Pre-K to 8", "PUBLIC_PRIVATE": "Private", "SCHOOLSYSTEM": "Private", "NAME_FORMER": null, "FULL_ADDRESS": "8833 GOODWOOD BLVD", "CITY": "BATON ROUGE", "STATE": "LOUISIANA", "ZIP": 70806, "PHONE_NUMBER": "225-927-8601", "WEBSITE": "https://www.slesbr.org/" }, "geometry": { "type": "Point", "coordinates": [ -91.092663956959058, 30.443360577570516 ] } },
{ "type": "Feature", "properties": { "ID": 164, "NAME": "Belfair Montessori Magnet School", "TYPE": "Elementary", "GRADELEVELS": "Pre-K to 8", "PUBLIC_PRIVATE": "Public", "SCHOOLSYSTEM": "East Baton Rouge Parish", "NAME_FORMER": "Winbourne Elementary School", "FULL_ADDRESS": "3450 MISSION DR", "CITY": "BATON ROUGE", "STATE": "LOUISIANA", "ZIP": 70805, "PHONE_NUMBER": "225-355-4446", "WEBSITE": "https://www.ebrschools.org/schools/" }, "geometry": { "type": "Point", "coordinates": [ -91.144449925369855, 30.47944949109711 ] } },
{ "type": "Feature", "properties": { "ID": 165, "NAME": "EBR Readiness Elementary Campus", "TYPE": "Elementary", "GRADELEVELS": "K to 5", "PUBLIC_PRIVATE": "Public", "SCHOOLSYSTEM": "East Baton Rouge Parish", "NAME_FORMER": "Greenville Elementary School", "FULL_ADDRESS": "1645 N FOSTER DR", "CITY": "BATON ROUGE", "STATE": "LOUISIANA", "ZIP": 70802, "PHONE_NUMBER": "225-930-5637", "WEBSITE": "https://www.ebrschools.org/schools/" }, "geometry": { "type": "Point", "coordinates": [ -91.140005923602928, 30.464172488278813 ] } },
{ "type": "Feature", "properties": { "ID": 167, "NAME": "Baton Rouge Center for the Visual and Performing Arts", "TYPE": "Elementary", "GRADELEVELS": "Pre-K to 5", "PUBLIC_PRIVATE": "Public", "SCHOOLSYSTEM": "East Baton Rouge Parish", "NAME_FORMER": "Walnut Hills Elementary School", "FULL_ADDRESS": "2040 S ACADIAN THWY", "CITY": "BATON ROUGE", "STATE": "LOUISIANA", "ZIP": 70808, "PHONE_NUMBER": "225-344-0084", "WEBSITE": "http://www.brcvpa.com/" }, "geometry": { "type": "Point", "coordinates": [ -91.153338926050068, 30.429449480563783 ] } },
{ "type": "Feature", "properties": { "ID": 168, "NAME": "Red Stick Academy", "TYPE": "Elementary", "GRADELEVELS": "K to 8", "PUBLIC_PRIVATE": "Private", "SCHOOLSYSTEM": "Private", "NAME_FORMER": "Runnels Pre-School", "FULL_ADDRESS": "6455 JEFFERSON HWY", "CITY": "BATON ROUGE", "STATE": "LOUISIANA", "ZIP": 70806, "PHONE_NUMBER": null, "WEBSITE": null }, "geometry": { "type": "Point", "coordinates": [ -91.122957290379716, 30.435492163313075 ] } },
{ "type": "Feature", "properties": { "ID": 170, "NAME": "Geo Prep Academy of Baton Rouge", "TYPE": "Elementary", "GRADELEVELS": "3 to 8", "PUBLIC_PRIVATE": "Public", "SCHOOLSYSTEM": "Charter", "NAME_FORMER": null, "FULL_ADDRESS": "2311 N SHERWOOD FOREST DR", "CITY": "BATON ROUGE", "STATE": "LOUISIANA", "ZIP": 70815, "PHONE_NUMBER": "225-927-1500", "WEBSITE": "http://geoprep.org/" }, "geometry": { "type": "Point", "coordinates": [ -91.060088222668256, 30.470370954405485 ] } },
{ "type": "Feature", "properties": { "ID": 171, "NAME": "Basis Baton Rouge Primary Mid City", "TYPE": "Elementary", "GRADELEVELS": "K to 5", "PUBLIC_PRIVATE": "Public", "SCHOOLSYSTEM": "Charter - EBRPSS", "NAME_FORMER": null, "FULL_ADDRESS": "7921 FLORIDA BLVD", "CITY": "BATON ROUGE", "STATE": "LOUISIANA", "ZIP": 70806, "PHONE_NUMBER": "225-347-0209", "WEBSITE": "https://enrollbasis.com/baton-rouge-mid-city/" }, "geometry": { "type": "Point", "coordinates": [ -91.106918347925188, 30.452641065529576 ] } },
{ "type": "Feature", "properties": { "ID": 172, "NAME": "Helix Aviation Academy", "TYPE": "High", "GRADELEVELS": "7 to 12", "PUBLIC_PRIVATE": "Public", "SCHOOLSYSTEM": "Charter - EBRPSS", "NAME_FORMER": "IDEA University Prep", "FULL_ADDRESS": "7701 PLANK RD", "CITY": "BATON ROUGE", "STATE": "LOUISIANA", "ZIP": 70807, "PHONE_NUMBER": "225-427-8004", "WEBSITE": "https://helixaviationacademy.org" }, "geometry": { "type": "Point", "coordinates": [ -91.147913848317302, 30.518458252474709 ] } },
{ "type": "Feature", "properties": { "ID": 173, "NAME": "Helix Legal Academy", "TYPE": "Middle", "GRADELEVELS": "6 to 8", "PUBLIC_PRIVATE": "Public", "SCHOOLSYSTEM": "Charter - EBRPSS", "NAME_FORMER": null, "FULL_ADDRESS": "302 3RD ST", "CITY": "BATON ROUGE", "STATE": "LOUISIANA", "ZIP": 70801, "PHONE_NUMBER": "225-346-5180", "WEBSITE": "https://helixlegalacademy.org" }, "geometry": { "type": "Point", "coordinates": [ -91.188078349746846, 30.449510487444634 ] } },
{ "type": "Feature", "properties": { "ID": 174, "NAME": "Saint Lillian Academy", "TYPE": "All Grades", "GRADELEVELS": "K to 12", "PUBLIC_PRIVATE": "Private", "SCHOOLSYSTEM": "Private", "NAME_FORMER": null, "FULL_ADDRESS": "9755 GOODWOOD BLVD", "CITY": "BATON ROUGE", "STATE": "LOUISIANA", "ZIP": 70815, "PHONE_NUMBER": "225-771-8173", "WEBSITE": "https://stlillian.org" }, "geometry": { "type": "Point", "coordinates": [ -91.079457977015181, 30.444102859941957 ] } },
{ "type": "Feature", "properties": { "ID": 175, "NAME": "Central Private School - Upper School", "TYPE": "Middle and High", "GRADELEVELS": "6 to 12", "PUBLIC_PRIVATE": "Private", "SCHOOLSYSTEM": "Private", "NAME_FORMER": null, "FULL_ADDRESS": "12801 CENTERRA CT", "CITY": "BAKER", "STATE": "LOUISIANA", "ZIP": 70714, "PHONE_NUMBER": "225-261-3341", "WEBSITE": "http://www.centralprivate.org/" }, "geometry": { "type": "Point", "coordinates": [ -91.046077205681144, 30.560309008767383 ] } },
{ "type": "Feature", "properties": { "ID": 176, "NAME": "Geo Prep Academy of Baton Rouge", "TYPE": "Elementary", "GRADELEVELS": "K to 2", "PUBLIC_PRIVATE": "Public", "SCHOOLSYSTEM": "Charter", "NAME_FORMER": null, "FULL_ADDRESS": "4006 PLATT DR", "CITY": "BATON ROUGE", "STATE": "LOUISIANA", "ZIP": 70814, "PHONE_NUMBER": "225-314-2044", "WEBSITE": "http://geonextgenerationhighschool.org/" }, "geometry": { "type": "Point", "coordinates": [ -91.075176955466389, 30.487243579942302 ] } },
{ "type": "Feature", "properties": { "ID": 177, "NAME": "McKinley Elementary School", "TYPE": "Elementary", "GRADELEVELS": "K to 5", "PUBLIC_PRIVATE": "Public", "SCHOOLSYSTEM": "East Baton Rouge Parish", "NAME_FORMER": "University Terrace Elementary School", "FULL_ADDRESS": "800 E MC KINLEY ST", "CITY": "BATON ROUGE", "STATE": "LOUISIANA", "ZIP": 70802, "PHONE_NUMBER": null, "WEBSITE": "https://www.ebrschools.org/schools/" }, "geometry": { "type": "Point", "coordinates": [ -91.182669256119112, 30.421352666519983 ] } },
{ "type": "Feature", "properties": { "ID": 178, "NAME": "Great Hearts Harveston", "TYPE": "Elementary", "GRADELEVELS": "K to 7", "PUBLIC_PRIVATE": "Public", "SCHOOLSYSTEM": "Charter - EBRPSS", "NAME_FORMER": null, "FULL_ADDRESS": "11801 BLUEBONNET BLVD", "CITY": "BATON ROUGE", "STATE": "LOUISIANA", "ZIP": 70810, "PHONE_NUMBER": "225-416-7611", "WEBSITE": "https://harveston.greatheartsamerica.org" }, "geometry": { "type": "Point", "coordinates": [ -91.131384452375826, 30.335667872062103 ] } },
{ "type": "Feature", "properties": { "ID": 179, "NAME": "Kenilworth Science and Technology Academy", "TYPE": "Elementary", "GRADELEVELS": "K to 8", "PUBLIC_PRIVATE": "Public", "SCHOOLSYSTEM": "Charter", "NAME_FORMER": null, "FULL_ADDRESS": "8716 SIEGEN LN", "CITY": "BATON ROUGE", "STATE": "LOUISIANA", "ZIP": 70810, "PHONE_NUMBER": "225-766-8111", "WEBSITE": "https://www.kenilworthacademy.org" }, "geometry": { "type": "Point", "coordinates": [ -91.074168098910448, 30.370673756199224 ] } },
{ "type": "Feature", "properties": { "ID": 180, "NAME": "Park Ridge Achievement Academy", "TYPE": "Elementary", "GRADELEVELS": "Pre-K to 8", "PUBLIC_PRIVATE": "Public", "SCHOOLSYSTEM": "Charter - Baker", "NAME_FORMER": "Geo Prep Baker", "FULL_ADDRESS": "13855 PLANK RD", "CITY": "BAKER", "STATE": "LOUISIANA", "ZIP": 70714, "PHONE_NUMBER": "225-346-5180", "WEBSITE": "https://www.bakerschools.org/schools/park-ridge-achievement-academy/home" }, "geometry": { "type": "Point", "coordinates": [ -91.129900948745004, 30.572799735359101 ] } },
{ "type": "Feature", "properties": { "ID": 182, "NAME": "Shiloh Baptist Early Learning Academy", "TYPE": "Elementary", "GRADELEVELS": "K to 1", "PUBLIC_PRIVATE": "Private", "SCHOOLSYSTEM": "Private", "NAME_FORMER": null, "FULL_ADDRESS": "185 EDDIE ROBINSON SR DR", "CITY": "BATON ROUGE", "STATE": "LOUISIANA", "ZIP": 70802, "PHONE_NUMBER": "225-343-4734", "WEBSITE": null }, "geometry": { "type": "Point", "coordinates": [ -91.17571380892646, 30.446477160602488 ] } },
{ "type": "Feature", "properties": { "ID": 184, "NAME": "Thrive Academy", "TYPE": "High", "GRADELEVELS": "6 to 12", "PUBLIC_PRIVATE": "Public", "SCHOOLSYSTEM": "Charter", "NAME_FORMER": null, "FULL_ADDRESS": "2585 BRIGHTSIDE DR", "CITY": "BATON ROUGE", "STATE": "LOUISIANA", "ZIP": 70820, "PHONE_NUMBER": "225-239-7820", "WEBSITE": "http://thrivebr.org/" }, "geometry": { "type": "Point", "coordinates": [ -91.187881291109747, 30.38797418442336 ] } },
{ "type": "Feature", "properties": { "ID": 186, "NAME": "South Baton Rouge Charter Academy", "TYPE": "Elementary", "GRADELEVELS": "PK to 8", "PUBLIC_PRIVATE": "Public", "SCHOOLSYSTEM": "Charter - EBRPSS", "NAME_FORMER": null, "FULL_ADDRESS": "9211 PARKWAY DR", "CITY": "BATON ROUGE", "STATE": "LOUISIANA", "ZIP": 70810, "PHONE_NUMBER": "225-349-7489", "WEBSITE": "http://www.sbrcharter.org/" }, "geometry": { "type": "Point", "coordinates": [ -91.115445156041588, 30.354818134915096 ] } },
{ "type": "Feature", "properties": { "ID": 187, "NAME": "Baton Rouge Community College", "TYPE": "College", "GRADELEVELS": null, "PUBLIC_PRIVATE": "Public", "SCHOOLSYSTEM": "Louisiana Community and Technical College System", "NAME_FORMER": null, "FULL_ADDRESS": "201 COMMUNITY COLLEGE DR", "CITY": "BATON ROUGE", "STATE": "LOUISIANA", "ZIP": 70806, "PHONE_NUMBER": "1-866-217-9823", "WEBSITE": "http://www.mybrcc.edu/" }, "geometry": { "type": "Point", "coordinates": [ -91.137819828888439, 30.4479802868271 ] } },
{ "type": "Feature", "properties": { "ID": 188, "NAME": "Emerge School for Autism", "TYPE": "Elementary", "GRADELEVELS": "K to 3", "PUBLIC_PRIVATE": "Public", "SCHOOLSYSTEM": "Charter - EBRPSS", "NAME_FORMER": null, "FULL_ADDRESS": "7784 INNOVATION PARK DR", "CITY": "BATON ROUGE", "STATE": "LOUISIANA", "ZIP": 70820, "PHONE_NUMBER": "225-343-4232", "WEBSITE": "https://www.emergeschool.org" }, "geometry": { "type": "Point", "coordinates": [ -91.142102015204827, 30.361646394208481 ] } },
{ "type": "Feature", "properties": { "ID": 192, "NAME": "Basis Baton Rouge Materra Campus", "TYPE": "Elementary", "GRADELEVELS": "K to 9", "PUBLIC_PRIVATE": "Public", "SCHOOLSYSTEM": "Charter - EBRPSS", "NAME_FORMER": null, "FULL_ADDRESS": "7550 MC CALL DR", "CITY": "BATON ROUGE", "STATE": "LOUISIANA", "ZIP": 70817, "PHONE_NUMBER": null, "WEBSITE": "https://www.basised.com/baton-rouge/" }, "geometry": { "type": "Point", "coordinates": [ -91.033100145160617, 30.380600350033074 ] } },
{ "type": "Feature", "properties": { "ID": 193, "NAME": "Bridge Academy", "TYPE": "Elementary", "GRADELEVELS": "K to 8", "PUBLIC_PRIVATE": "Public", "SCHOOLSYSTEM": "Charter - EBRPSS", "NAME_FORMER": null, "FULL_ADDRESS": "1500 N AIRWAY DR", "CITY": "BATON ROUGE", "STATE": "LOUISIANA", "ZIP": 70815, "PHONE_NUMBER": "225-963-5910", "WEBSITE": "https://thirdfuture.org/schools/bridge-academy" }, "geometry": { "type": "Point", "coordinates": [ -91.097075663263652, 30.463721525084985 ] } },
{ "type": "Feature", "properties": { "ID": 194, "NAME": "Audubon Schools", "TYPE": "Elementary", "GRADELEVELS": "K to 5", "PUBLIC_PRIVATE": "Public", "SCHOOLSYSTEM": "Charter - EBRPSS", "NAME_FORMER": "Idea Innovation School", "FULL_ADDRESS": "7800 INNOVATION PARK DR", "CITY": "BATON ROUGE", "STATE": "LOUISIANA", "ZIP": 70820, "PHONE_NUMBER": "225-283-1669", "WEBSITE": "https://br.auduboncharter.org" }, "geometry": { "type": "Point", "coordinates": [ -91.141540525375049, 30.360725966873247 ] } },
{ "type": "Feature", "properties": { "ID": 195, "NAME": "EBR Career and Technical Education Center", "TYPE": "High", "GRADELEVELS": "9 to 12", "PUBLIC_PRIVATE": "Public", "SCHOOLSYSTEM": "East Baton Rouge Parish", "NAME_FORMER": null, "FULL_ADDRESS": "2101 LOBDELL BLVD", "CITY": "BATON ROUGE", "STATE": "LOUISIANA", "ZIP": 70806, "PHONE_NUMBER": "225-412-1663", "WEBSITE": "https://www.ebrschools.org/schools/" }, "geometry": { "type": "Point", "coordinates": [ -91.122572240523965, 30.46733731918119 ] } },
{ "type": "Feature", "properties": { "ID": 196, "NAME": "Louisiana Virtual Charter Academy", "TYPE": "All Grades", "GRADELEVELS": "Pre-K to 12", "PUBLIC_PRIVATE": "Public", "SCHOOLSYSTEM": "Charter - Virtual", "NAME_FORMER": null, "FULL_ADDRESS": "4962 FLORIDA BLVD", "CITY": "BATON ROUGE", "STATE": "LOUISIANA", "ZIP": 70806, "PHONE_NUMBER": "877-490-3596", "WEBSITE": "https://lavca.k12.com" }, "geometry": { "type": "Point", "coordinates": [ -91.139423459085251, 30.450343284313412 ] } },
{ "type": "Feature", "properties": { "ID": 197, "NAME": "Baton Rouge Community College - Ardendale Campus", "TYPE": "College", "GRADELEVELS": null, "PUBLIC_PRIVATE": "Public", "SCHOOLSYSTEM": "Louisiana Community and Technical College System", "NAME_FORMER": null, "FULL_ADDRESS": "2115 LOBDELL BLVD", "CITY": "BATON ROUGE", "STATE": "LOUISIANA", "ZIP": 70806, "PHONE_NUMBER": "1-866-217-9823", "WEBSITE": "http://www.mybrcc.edu/" }, "geometry": { "type": "Point", "coordinates": [ -91.120805288125908, 30.467127026713136 ] } },
{ "type": "Feature", "properties": { "ID": 198, "NAME": "Baton Rouge Community College - Central Campus", "TYPE": "College", "GRADELEVELS": null, "PUBLIC_PRIVATE": "Public", "SCHOOLSYSTEM": "Louisiana Community and Technical College System", "NAME_FORMER": null, "FULL_ADDRESS": "10700 HOOPER RD", "CITY": "CENTRAL", "STATE": "LOUISIANA", "ZIP": 70818, "PHONE_NUMBER": "1-866-217-9823", "WEBSITE": "http://www.mybrcc.edu/" }, "geometry": { "type": "Point", "coordinates": [ -91.067201345645842, 30.540701482045879 ] } },
{ "type": "Feature", "properties": { "ID": 199, "NAME": "Country Day School of Baton Rouge", "TYPE": "Elementary", "GRADELEVELS": "Pre-K ", "PUBLIC_PRIVATE": "Private", "SCHOOLSYSTEM": "Private", "NAME_FORMER": null, "FULL_ADDRESS": "3743 SILVERSIDE DR", "CITY": "BATON ROUGE", "STATE": "LOUISIANA", "ZIP": 70808, "PHONE_NUMBER": "225-767-5259", "WEBSITE": "http://www.countrydayschoolbr.com/" }, "geometry": { "type": "Point", "coordinates": [ -91.113376747497469, 30.394767354894292 ] } },
{ "type": "Feature", "properties": { "ID": 200, "NAME": "Country Day School of Baton Rouge", "TYPE": "Elementary", "GRADELEVELS": "Pre-K ", "PUBLIC_PRIVATE": "Private", "SCHOOLSYSTEM": "Private", "NAME_FORMER": null, "FULL_ADDRESS": "7424 HIGHLAND RD", "CITY": "BATON ROUGE", "STATE": "LOUISIANA", "ZIP": 70808, "PHONE_NUMBER": "225-766-1159", "WEBSITE": "http://www.countrydayschoolbr.com/" }, "geometry": { "type": "Point", "coordinates": [ -91.138637221814477, 30.377291399391957 ] } },
{ "type": "Feature", "properties": { "ID": 201, "NAME": "Country Day School of Baton Rouge", "TYPE": "Elementary", "GRADELEVELS": "Pre-K ", "PUBLIC_PRIVATE": "Private", "SCHOOLSYSTEM": "Private", "NAME_FORMER": null, "FULL_ADDRESS": "3131 CONGRESS BLVD", "CITY": "BATON ROUGE", "STATE": "LOUISIANA", "ZIP": 70808, "PHONE_NUMBER": "225-761-4800", "WEBSITE": "http://www.countrydayschoolbr.com/" }, "geometry": { "type": "Point", "coordinates": [ -91.13581097611808, 30.413908150236882 ] } },
{ "type": "Feature", "properties": { "ID": 202, "NAME": "Geo Next Generation High School", "TYPE": "High", "GRADELEVELS": "9 to 12", "PUBLIC_PRIVATE": "Public", "SCHOOLSYSTEM": "Charter", "NAME_FORMER": null, "FULL_ADDRESS": "2355 N SHERWOOD FOREST DR", "CITY": "BATON ROUGE", "STATE": "LOUISIANA", "ZIP": 70815, "PHONE_NUMBER": "225-314-2044", "WEBSITE": "http://geonextgenerationhighschool.org/" }, "geometry": { "type": "Point", "coordinates": [ -91.05883927795692, 30.47035821048927 ] } },
{ "type": "Feature", "properties": { "ID": 203, "NAME": "Collegiate Baton Rouge", "TYPE": "High", "GRADELEVELS": "9 to 12", "PUBLIC_PRIVATE": "Public", "SCHOOLSYSTEM": "Charter", "NAME_FORMER": null, "FULL_ADDRESS": "282 LOBDELL BLVD", "CITY": "BATON ROUGE", "STATE": "LOUISIANA", "ZIP": 70806, "PHONE_NUMBER": "225-892-6962", "WEBSITE": "https://cbr.collegiateacademies.org" }, "geometry": { "type": "Point", "coordinates": [ -91.111358677215307, 30.453495338174225 ] } },
{ "type": "Feature", "properties": { "ID": 204, "NAME": "Jefferson Terrace Academy", "TYPE": "Elementary", "GRADELEVELS": "Pre-K to 8", "PUBLIC_PRIVATE": "Public", "SCHOOLSYSTEM": "East Baton Rouge Parish", "NAME_FORMER": null, "FULL_ADDRESS": "5601 UPTON DR", "CITY": "BATON ROUGE", "STATE": "LOUISIANA", "ZIP": 70809, "PHONE_NUMBER": "225-293-3210", "WEBSITE": "https://www.ebrschools.org/schools/" }, "geometry": { "type": "Point", "coordinates": [ -91.077043731314959, 30.397014083055023 ] } },
{ "type": "Feature", "properties": { "ID": 205, "NAME": "Zachary Christian Academy", "TYPE": "All Grades", "GRADELEVELS": "K to 12", "PUBLIC_PRIVATE": "Private", "SCHOOLSYSTEM": "Private", "NAME_FORMER": null, "FULL_ADDRESS": "11950 MILLDALE RD", "CITY": "ZACHARY", "STATE": "LOUISIANA", "ZIP": 70791, "PHONE_NUMBER": "225-570-2539", "WEBSITE": "https://www.milldale.org/zachary-christian-academy" }, "geometry": { "type": "Point", "coordinates": [ -91.039288862686632, 30.664673575547049 ] } },
{ "type": "Feature", "properties": { "ID": 207, "NAME": "Geo Prep Mid City", "TYPE": "Elementary", "GRADELEVELS": "K to 8", "PUBLIC_PRIVATE": "Public", "SCHOOLSYSTEM": "Charter", "NAME_FORMER": null, "FULL_ADDRESS": "1900 LOBDELL BLVD", "CITY": "BATON ROUGE", "STATE": "LOUISIANA", "ZIP": 70806, "PHONE_NUMBER": "225-236-9333", "WEBSITE": "https://geoprepmc.org/" }, "geometry": { "type": "Point", "coordinates": [ -91.116957428062321, 30.46503234966405 ] } },
{ "type": "Feature", "properties": { "ID": 212, "NAME": "CSAL Madison Preparatory Academy", "TYPE": "High", "GRADELEVELS": "9 to 12", "PUBLIC_PRIVATE": "Public", "SCHOOLSYSTEM": "Charter - EBRPSS", "NAME_FORMER": null, "FULL_ADDRESS": "2269 N 17TH ST", "CITY": "BATON ROUGE", "STATE": "LOUISIANA", "ZIP": 70802, "PHONE_NUMBER": "225-448-5399", "WEBSITE": "https://mpa.csalcharterschools.org" }, "geometry": { "type": "Point", "coordinates": [ -91.172938192560565, 30.468720966243101 ] } },
{ "type": "Feature", "properties": { "ID": 213, "NAME": "CSAL Elementary School", "TYPE": "Elementary", "GRADELEVELS": "K to 5", "PUBLIC_PRIVATE": "Public", "SCHOOLSYSTEM": "Charter - EBRPSS", "NAME_FORMER": null, "FULL_ADDRESS": "1555 MADISON AVE", "CITY": "BATON ROUGE", "STATE": "LOUISIANA", "ZIP": 70802, "PHONE_NUMBER": "225-448-5399", "WEBSITE": "https://ces.csalcharterschools.org" }, "geometry": { "type": "Point", "coordinates": [ -91.173572854417102, 30.467607010143873 ] } },
{ "type": "Feature", "properties": { "ID": 214, "NAME": "University View Academy", "TYPE": "All Grades", "GRADELEVELS": "K to 12", "PUBLIC_PRIVATE": "Public", "SCHOOLSYSTEM": "Charter - Virtual", "NAME_FORMER": null, "FULL_ADDRESS": "3113 VALLEY CREEK DR", "CITY": "BATON ROUGE", "STATE": "LOUISIANA", "ZIP": 70808, "PHONE_NUMBER": "225-421-2900", "WEBSITE": "https://www.universityview.academy" }, "geometry": { "type": "Point", "coordinates": [ -91.138108434517378, 30.417904771313953 ] } },
{ "type": "Feature", "properties": { "ID": 215, "NAME": "Agape School of Baton Rouge", "TYPE": "Elementary", "GRADELEVELS": "K to 8", "PUBLIC_PRIVATE": "Private", "SCHOOLSYSTEM": "Private", "NAME_FORMER": null, "FULL_ADDRESS": "17170 PERKINS RD", "CITY": "BATON ROUGE", "STATE": "LOUISIANA", "ZIP": 70810, "PHONE_NUMBER": "225-605-3055", "WEBSITE": "https://agapeschoolofbr.com" }, "geometry": { "type": "Point", "coordinates": [ -91.035672089825297, 30.349006352887017 ] } },
{ "type": "Feature", "properties": { "ID": 216, "NAME": "AMIKids Baton Rouge", "TYPE": "All Grades", "GRADELEVELS": "4 to 12", "PUBLIC_PRIVATE": "Private", "SCHOOLSYSTEM": "Private", "NAME_FORMER": null, "FULL_ADDRESS": "5555 BEECHWOOD DR", "CITY": "BATON ROUGE", "STATE": "LOUISIANA", "ZIP": 70805, "PHONE_NUMBER": "225-356-3461", "WEBSITE": "http://www.amikidsbatonrouge.org" }, "geometry": { "type": "Point", "coordinates": [ -91.144471806168951, 30.500494742236317 ] } },
{ "type": "Feature", "properties": { "ID": 217, "NAME": "Helix Aviation Academy", "TYPE": "Elementary", "GRADELEVELS": "K to 6", "PUBLIC_PRIVATE": "Public", "SCHOOLSYSTEM": "Charter - EBRPSS", "NAME_FORMER": null, "FULL_ADDRESS": "4400 AIRPARK BLVD", "CITY": "BATON ROUGE", "STATE": "LOUISIANA", "ZIP": 70807, "PHONE_NUMBER": "225-427-8004", "WEBSITE": "https://helixaviationacademy.org" }, "geometry": { "type": "Point", "coordinates": [ -91.14468074279219, 30.541261395030059 ] } },
{ "type": "Feature", "properties": { "ID": 218, "NAME": "Advantage Charter Academy", "TYPE": "Elementary", "GRADELEVELS": "K to 8", "PUBLIC_PRIVATE": "Public", "SCHOOLSYSTEM": "Charter", "NAME_FORMER": null, "FULL_ADDRESS": "14740 PLANK RD", "CITY": "BAKER", "STATE": "LOUISIANA", "ZIP": 70714, "PHONE_NUMBER": "225-774-3111", "WEBSITE": "https://www.nhaschools.com/schools/Advantage-Charter-Academy/en" }, "geometry": { "type": "Point", "coordinates": [ -91.128330021791342, 30.581903595939771 ] } },
{ "type": "Feature", "properties": { "ID": 222, "NAME": "ITI Technical College", "TYPE": "College", "GRADELEVELS": null, "PUBLIC_PRIVATE": "Private", "SCHOOLSYSTEM": "Private", "NAME_FORMER": null, "FULL_ADDRESS": "13944 AIRLINE HWY", "CITY": "BATON ROUGE", "STATE": "LOUISIANA", "ZIP": 70809, "PHONE_NUMBER": "225-752-4233", "WEBSITE": "https://www.iticollege.edu" }, "geometry": { "type": "Point", "coordinates": [ -91.031407207182426, 30.368493423534343 ] } },
{ "type": "Feature", "properties": { "ID": 223, "NAME": "Bethany College", "TYPE": "College", "GRADELEVELS": null, "PUBLIC_PRIVATE": "Private", "SCHOOLSYSTEM": "Private", "NAME_FORMER": null, "FULL_ADDRESS": "10877 RIEGER RD", "CITY": "BATON ROUGE", "STATE": "LOUISIANA", "ZIP": 70809, "PHONE_NUMBER": "225-412-5308", "WEBSITE": "http://www.bethanycollege.net" }, "geometry": { "type": "Point", "coordinates": [ -91.060968987017617, 30.381023840092642 ] } },
{ "type": "Feature", "properties": { "ID": 224, "NAME": "Franciscan Missionaries of Our Lady University", "TYPE": "University", "GRADELEVELS": null, "PUBLIC_PRIVATE": "Private", "SCHOOLSYSTEM": "Private", "NAME_FORMER": "Our Lady of the Lake College", "FULL_ADDRESS": "5414 BRITTANY DR", "CITY": "BATON ROUGE", "STATE": "LOUISIANA", "ZIP": 70808, "PHONE_NUMBER": "225-768-1700", "WEBSITE": "https://franu.edu" }, "geometry": { "type": "Point", "coordinates": [ -91.110519642997033, 30.400309714604237 ] } },
{ "type": "Feature", "properties": { "ID": 225, "NAME": "Most Blessed Sacrament School", "TYPE": "Elementary", "GRADELEVELS": "Pre-K to 8", "PUBLIC_PRIVATE": "Private", "SCHOOLSYSTEM": "Catholic", "NAME_FORMER": null, "FULL_ADDRESS": "8033 BARINGER RD", "CITY": "BATON ROUGE", "STATE": "LOUISIANA", "ZIP": 70817, "PHONE_NUMBER": "225-751-0273", "WEBSITE": "http://www.mbsbr.org/" }, "geometry": { "type": "Point", "coordinates": [ -91.014372033463204, 30.378327698392152 ] } },
{ "type": "Feature", "properties": { "ID": 227, "NAME": "Wildwood Elementary School", "TYPE": "Elementary", "GRADELEVELS": "Pre-K to 5", "PUBLIC_PRIVATE": "Public", "SCHOOLSYSTEM": "East Baton Rouge Parish", "NAME_FORMER": null, "FULL_ADDRESS": "444 HALFWAY TREE RD", "CITY": "BATON ROUGE", "STATE": "LOUISIANA", "ZIP": 70810, "PHONE_NUMBER": "225-766-6002", "WEBSITE": "https://www.ebrschools.org/schools/" }, "geometry": { "type": "Point", "coordinates": [ -91.116558859433908, 30.370553639353012 ] } },
{ "type": "Feature", "properties": { "ID": 229, "NAME": "Louisiana School for the Deaf", "TYPE": "All Grades", "GRADELEVELS": "Pre-K to 12", "PUBLIC_PRIVATE": "Public", "SCHOOLSYSTEM": "Louisiana Board of Elementary and Secondary Education", "NAME_FORMER": null, "FULL_ADDRESS": "2888 BRIGHTSIDE DR", "CITY": "BATON ROUGE", "STATE": "LOUISIANA", "ZIP": 70820, "PHONE_NUMBER": "225-769-8160", "WEBSITE": "http://lalsd.org/" }, "geometry": { "type": "Point", "coordinates": [ -91.189727933902148, 30.393894471814864 ] } },
{ "type": "Feature", "properties": { "ID": 230, "NAME": "McKinley Senior High School", "TYPE": "High", "GRADELEVELS": "9 to 12", "PUBLIC_PRIVATE": "Public", "SCHOOLSYSTEM": "East Baton Rouge Parish", "NAME_FORMER": "Kenilworth Elementary School", "FULL_ADDRESS": "7600 BOONE DR", "CITY": "BATON ROUGE", "STATE": "LOUISIANA", "ZIP": 70808, "PHONE_NUMBER": "225-344-7696", "WEBSITE": "https://ebrschools.org/schools/mckinleyhigh" }, "geometry": { "type": "Point", "coordinates": [ -91.132505918499746, 30.381116470964486 ] } },
{ "type": "Feature", "properties": { "ID": 232, "NAME": "Louisiana School for the Visually Impaired", "TYPE": "All Grades", "GRADELEVELS": "Pre-K to 12", "PUBLIC_PRIVATE": "Public", "SCHOOLSYSTEM": "Louisiana Board of Elementary and Secondary Education", "NAME_FORMER": "Louisiana State School for the Blind", "FULL_ADDRESS": "2888 BRIGHTSIDE DR", "CITY": "BATON ROUGE", "STATE": "LOUISIANA", "ZIP": 70820, "PHONE_NUMBER": "225-757-3481", "WEBSITE": "http://lsvi.org/" }, "geometry": { "type": "Point", "coordinates": [ -91.189060176627379, 30.393784323531115 ] } },
{ "type": "Feature", "properties": { "ID": 233, "NAME": "Saint James Episcopal Day School", "TYPE": "Elementary", "GRADELEVELS": "Pre-K to 5", "PUBLIC_PRIVATE": "Private", "SCHOOLSYSTEM": "Private", "NAME_FORMER": null, "FULL_ADDRESS": "445 CONVENTION ST", "CITY": "BATON ROUGE", "STATE": "LOUISIANA", "ZIP": 70801, "PHONE_NUMBER": "225-344-0805", "WEBSITE": "http://www.stjameseds.org/" }, "geometry": { "type": "Point", "coordinates": [ -91.186418896362497, 30.44868330215829 ] } },
{ "type": "Feature", "properties": { "ID": 234, "NAME": "Baton Rouge Magnet High School", "TYPE": "High", "GRADELEVELS": "9 to 12", "PUBLIC_PRIVATE": "Public", "SCHOOLSYSTEM": "East Baton Rouge Parish", "NAME_FORMER": null, "FULL_ADDRESS": "2825 GOVERNMENT ST", "CITY": "BATON ROUGE", "STATE": "LOUISIANA", "ZIP": 70806, "PHONE_NUMBER": "225-383-0520", "WEBSITE": "https://www.ebrschools.org/schools/" }, "geometry": { "type": "Point", "coordinates": [ -91.159482025987487, 30.446037679066169 ] } },
{ "type": "Feature", "properties": { "ID": 238, "NAME": "EBR Virtual Academy", "TYPE": "All Grades", "GRADELEVELS": "K to 12", "PUBLIC_PRIVATE": "Public", "SCHOOLSYSTEM": "East Baton Rouge Parish", "NAME_FORMER": "Bernard Terrace Elementary School", "FULL_ADDRESS": "241 EDISON ST", "CITY": "BATON ROUGE", "STATE": "LOUISIANA", "ZIP": 70806, "PHONE_NUMBER": "225-343-5769", "WEBSITE": "https://www.ebrschools.org/schools/" }, "geometry": { "type": "Point", "coordinates": [ -91.145838924733013, 30.446949484958292 ] } },
{ "type": "Feature", "properties": { "ID": 240, "NAME": "Broadmoor Senior High School", "TYPE": "High", "GRADELEVELS": "9 to 12", "PUBLIC_PRIVATE": "Public", "SCHOOLSYSTEM": "East Baton Rouge Parish", "NAME_FORMER": null, "FULL_ADDRESS": "10100 GOODWOOD BLVD", "CITY": "BATON ROUGE", "STATE": "LOUISIANA", "ZIP": 70815, "PHONE_NUMBER": "225-926-1420", "WEBSITE": "https://www.ebrschools.org/schools/" }, "geometry": { "type": "Point", "coordinates": [ -91.075390246236537, 30.442325081877183 ] } },
{ "type": "Feature", "properties": { "ID": 241, "NAME": "Broadmoor Elementary School", "TYPE": "Elementary", "GRADELEVELS": "K to 5", "PUBLIC_PRIVATE": "Public", "SCHOOLSYSTEM": "East Baton Rouge Parish", "NAME_FORMER": null, "FULL_ADDRESS": "9650 GOODWOOD BLVD", "CITY": "BATON ROUGE", "STATE": "LOUISIANA", "ZIP": 70815, "PHONE_NUMBER": "225-925-0343", "WEBSITE": "https://www.ebrschools.org/schools/" }, "geometry": { "type": "Point", "coordinates": [ -91.079993871257471, 30.442550587844515 ] } },
{ "type": "Feature", "properties": { "ID": 242, "NAME": "EBR Readiness High School", "TYPE": "High", "GRADELEVELS": "9 to 12", "PUBLIC_PRIVATE": "Public", "SCHOOLSYSTEM": "East Baton Rouge Parish", "NAME_FORMER": "Brookstown Middle Magnet Academy", "FULL_ADDRESS": "4375 E BROOKSTOWN DR", "CITY": "BATON ROUGE", "STATE": "LOUISIANA", "ZIP": 70805, "PHONE_NUMBER": "225-355-6556", "WEBSITE": "https://www.ebrschools.org/schools/" }, "geometry": { "type": "Point", "coordinates": [ -91.128894922243617, 30.490561494767483 ] } },
{ "type": "Feature", "properties": { "ID": 243, "NAME": "Brownfields Elementary School", "TYPE": "Elementary", "GRADELEVELS": "Pre-K to 5", "PUBLIC_PRIVATE": "Public", "SCHOOLSYSTEM": "East Baton Rouge Parish", "NAME_FORMER": null, "FULL_ADDRESS": "11615 ELLEN DR", "CITY": "BATON ROUGE", "STATE": "LOUISIANA", "ZIP": 70811, "PHONE_NUMBER": "225-775-3527", "WEBSITE": "https://www.ebrschools.org/schools/" }, "geometry": { "type": "Point", "coordinates": [ -91.131585061802724, 30.550678143018185 ] } },
{ "type": "Feature", "properties": { "ID": 246, "NAME": "Dalton Elementary A Redesign School", "TYPE": "Elementary", "GRADELEVELS": "Pre-K to 5", "PUBLIC_PRIVATE": "Public", "SCHOOLSYSTEM": "Charter - RSD", "NAME_FORMER": "Celerity Dalton Charter School", "FULL_ADDRESS": "3605 ONTARIO ST", "CITY": "BATON ROUGE", "STATE": "LOUISIANA", "ZIP": 70805, "PHONE_NUMBER": "225-357-0244", "WEBSITE": "https://www.redesignschoolslouisiana.org" }, "geometry": { "type": "Point", "coordinates": [ -91.153458168293554, 30.476248428769836 ] } },
{ "type": "Feature", "properties": { "ID": 247, "NAME": "Delmont Pre-K Center", "TYPE": "Elementary", "GRADELEVELS": "Pre-K", "PUBLIC_PRIVATE": "Public", "SCHOOLSYSTEM": "East Baton Rouge Parish", "NAME_FORMER": null, "FULL_ADDRESS": "5300 DOUGLAS AVE", "CITY": "BATON ROUGE", "STATE": "LOUISIANA", "ZIP": 70805, "PHONE_NUMBER": "225-355-2106", "WEBSITE": "https://www.ebrschools.org/schools/" }, "geometry": { "type": "Point", "coordinates": [ -91.161545939548631, 30.498260502132105 ] } },
{ "type": "Feature", "properties": { "ID": 250, "NAME": "Glasgow Middle School", "TYPE": "Middle", "GRADELEVELS": "6 to 8", "PUBLIC_PRIVATE": "Public", "SCHOOLSYSTEM": "East Baton Rouge Parish", "NAME_FORMER": null, "FULL_ADDRESS": "1676 GLASGOW AVE", "CITY": "BATON ROUGE", "STATE": "LOUISIANA", "ZIP": 70808, "PHONE_NUMBER": "225-925-2942", "WEBSITE": "https://www.ebrschools.org/schools/" }, "geometry": { "type": "Point", "coordinates": [ -91.142937575446169, 30.408372661371072 ] } },
{ "type": "Feature", "properties": { "ID": 251, "NAME": "Glen Oaks Magnet High School", "TYPE": "High", "GRADELEVELS": "6 to 12", "PUBLIC_PRIVATE": "Public", "SCHOOLSYSTEM": "East Baton Rouge Parish", "NAME_FORMER": null, "FULL_ADDRESS": "6650 CEDAR GROVE DR", "CITY": "BATON ROUGE", "STATE": "LOUISIANA", "ZIP": 70812, "PHONE_NUMBER": "225-356-4306", "WEBSITE": "https://www.ebrschools.org/schools/" }, "geometry": { "type": "Point", "coordinates": [ -91.120217713785081, 30.512101429081035 ] } },
{ "type": "Feature", "properties": { "ID": 252, "NAME": "Greenbrier Elementary School", "TYPE": "Elementary", "GRADELEVELS": "Pre-K to 5", "PUBLIC_PRIVATE": "Public", "SCHOOLSYSTEM": "East Baton Rouge Parish", "NAME_FORMER": null, "FULL_ADDRESS": "12203 CANTERBURY DR", "CITY": "BATON ROUGE", "STATE": "LOUISIANA", "ZIP": 70814, "PHONE_NUMBER": "225-275-4260", "WEBSITE": "https://www.ebrschools.org/schools/" }, "geometry": { "type": "Point", "coordinates": [ -91.049817983281628, 30.495870306521216 ] } },
{ "type": "Feature", "properties": { "ID": 253, "NAME": "Impact Charter School", "TYPE": "Elementary", "GRADELEVELS": "Pre-K to 8", "PUBLIC_PRIVATE": "Public", "SCHOOLSYSTEM": "Charter", "NAME_FORMER": "Baker Heights Elementary School", "FULL_ADDRESS": "3750 HARDING ST", "CITY": "BAKER", "STATE": "LOUISIANA", "ZIP": 70714, "PHONE_NUMBER": "225-286-1443", "WEBSITE": "https://www.impactcharter.org" }, "geometry": { "type": "Point", "coordinates": [ -91.159449934130322, 30.582783513377223 ] } },
{ "type": "Feature", "properties": { "ID": 254, "NAME": "Baker High School", "TYPE": "High", "GRADELEVELS": "9 to 12", "PUBLIC_PRIVATE": "Public", "SCHOOLSYSTEM": "Charter - Baker", "NAME_FORMER": null, "FULL_ADDRESS": "3200 GROOM RD", "CITY": "BAKER", "STATE": "LOUISIANA", "ZIP": 70714, "PHONE_NUMBER": "225-775-1259", "WEBSITE": "https://www.bakerschools.org/schools/baker-high-school/home" }, "geometry": { "type": "Point", "coordinates": [ -91.165283936492969, 30.587227513818952 ] } },
{ "type": "Feature", "properties": { "ID": 255, "NAME": "CSAL Middle Charter School", "TYPE": "Middle", "GRADELEVELS": "6 to 8", "PUBLIC_PRIVATE": "Public", "SCHOOLSYSTEM": "Charter - EBRPSS", "NAME_FORMER": null, "FULL_ADDRESS": "1555 MADISON AVE", "CITY": "BATON ROUGE", "STATE": "LOUISIANA", "ZIP": 70802, "PHONE_NUMBER": "225-448-5399", "WEBSITE": "https://mcs.csalcharterschools.org" }, "geometry": { "type": "Point", "coordinates": [ -91.173735138072402, 30.467604701880187 ] } },
{ "type": "Feature", "properties": { "ID": 256, "NAME": "Northwestern Middle School", "TYPE": "Middle", "GRADELEVELS": "6 to 8", "PUBLIC_PRIVATE": "Public", "SCHOOLSYSTEM": "Zachary Community", "NAME_FORMER": null, "FULL_ADDRESS": "5200 E CENTRAL AVE", "CITY": "ZACHARY", "STATE": "LOUISIANA", "ZIP": 70791, "PHONE_NUMBER": "225-654-9201", "WEBSITE": "http://northwesternmiddle.org/" }, "geometry": { "type": "Point", "coordinates": [ -91.153894935898251, 30.654449528753716 ] } },
{ "type": "Feature", "properties": { "ID": 259, "NAME": "Central High School", "TYPE": "High", "GRADELEVELS": "9 to 12", "PUBLIC_PRIVATE": "Public", "SCHOOLSYSTEM": "Central Community", "NAME_FORMER": null, "FULL_ADDRESS": "10200 E BROOKSIDE DR", "CITY": "CENTRAL", "STATE": "LOUISIANA", "ZIP": 70818, "PHONE_NUMBER": "225-261-3438", "WEBSITE": "http://centralhigh.centralcss.org/" }, "geometry": { "type": "Point", "coordinates": [ -91.018338895053517, 30.541672508644602 ] } },
{ "type": "Feature", "properties": { "ID": 260, "NAME": "Central Middle School", "TYPE": "Middle", "GRADELEVELS": "6 to 8", "PUBLIC_PRIVATE": "Public", "SCHOOLSYSTEM": "Central Community", "NAME_FORMER": null, "FULL_ADDRESS": "12656 SULLIVAN RD", "CITY": "CENTRAL", "STATE": "LOUISIANA", "ZIP": 70818, "PHONE_NUMBER": "225-261-2237", "WEBSITE": "http://centralmiddle.centralcss.org/" }, "geometry": { "type": "Point", "coordinates": [ -91.039632346487593, 30.564374503693337 ] } },
{ "type": "Feature", "properties": { "ID": 265, "NAME": "Forest Heights Academy of Excellence", "TYPE": "Elementary", "GRADELEVELS": "Pre-K to 6", "PUBLIC_PRIVATE": "Public", "SCHOOLSYSTEM": "East Baton Rouge Parish", "NAME_FORMER": "Forest Heights Elementary School", "FULL_ADDRESS": "7447 SUMRALL DR", "CITY": "BATON ROUGE", "STATE": "LOUISIANA", "ZIP": 70812, "PHONE_NUMBER": "225-355-5681", "WEBSITE": "https://www.ebrschools.org/schools/" }, "geometry": { "type": "Point", "coordinates": [ -91.115882001863739, 30.514797352203253 ] } },
{ "type": "Feature", "properties": { "ID": 267, "NAME": "Audubon Elementary School", "TYPE": "Elementary", "GRADELEVELS": "Pre-K to 5", "PUBLIC_PRIVATE": "Public", "SCHOOLSYSTEM": "East Baton Rouge Parish", "NAME_FORMER": null, "FULL_ADDRESS": "10730 GOODWOOD BLVD", "CITY": "BATON ROUGE", "STATE": "LOUISIANA", "ZIP": 70815, "PHONE_NUMBER": "225-272-2620", "WEBSITE": "https://www.ebrschools.org/schools/" }, "geometry": { "type": "Point", "coordinates": [ -91.065626513184952, 30.446052556070899 ] } },
{ "type": "Feature", "properties": { "ID": 268, "NAME": "Trinity Episcopal School", "TYPE": "Elementary", "GRADELEVELS": "Pre-K to 5", "PUBLIC_PRIVATE": "Private", "SCHOOLSYSTEM": "Private", "NAME_FORMER": null, "FULL_ADDRESS": "3550 MORNING GLORY AVE", "CITY": "BATON ROUGE", "STATE": "LOUISIANA", "ZIP": 70808, "PHONE_NUMBER": "225-387-0398", "WEBSITE": "http://www.trinityschoolbr.org/" }, "geometry": { "type": "Point", "coordinates": [ -91.156434111065764, 30.416551260197888 ] } },
{ "type": "Feature", "properties": { "ID": 269, "NAME": "Claiborne Elementary School", "TYPE": "Elementary", "GRADELEVELS": "Pre-K to 5", "PUBLIC_PRIVATE": "Public", "SCHOOLSYSTEM": "East Baton Rouge Parish", "NAME_FORMER": null, "FULL_ADDRESS": "4707 DENHAM ST", "CITY": "BATON ROUGE", "STATE": "LOUISIANA", "ZIP": 70805, "PHONE_NUMBER": "225-357-9712", "WEBSITE": "https://www.ebrschools.org/schools/" }, "geometry": { "type": "Point", "coordinates": [ -91.143061926425005, 30.505005497095155 ] } },
{ "type": "Feature", "properties": { "ID": 270, "NAME": "Merrydale Elementary School", "TYPE": "Elementary", "GRADELEVELS": "Pre-K to 2", "PUBLIC_PRIVATE": "Public", "SCHOOLSYSTEM": "East Baton Rouge Parish", "NAME_FORMER": null, "FULL_ADDRESS": "6700 RIO DR", "CITY": "BATON ROUGE", "STATE": "LOUISIANA", "ZIP": 70812, "PHONE_NUMBER": "225-355-0346", "WEBSITE": "https://www.ebrschools.org/schools/" }, "geometry": { "type": "Point", "coordinates": [ -91.122783921353943, 30.50306149761726 ] } }
]
}
