{"type": "FeatureCollection", "features": [{"type": "Feature", "id": 1073, "geometry": {"type": "Point", "coordinates": [-91.1864000002537, 30.4922000002792]}, "properties": {"FID": 1073, "OBJECTID": 62764, "Plant_Code": 1391, "Plant_Name": "Louisiana 1", "Utility_ID": 11241, "Utility_Na": "Entergy Louisiana LLC", "sector_nam": "Industrial CHP", "Street_Add": "Gulf States Road", "City": "Baton Rouge", "County": "East Baton Rouge", "State": "Louisiana", "Zip": 70821, "PrimSource": "natural gas", "source_des": "Natural Gas = 254.4 MW, Other = 128 MW", "tech_desc": "Natural Gas Fired Combustion Turbine; Other Gases;", "Install_MW": 450.9, "Total_MW": 382.4, "Bat_MW": 0, "Bio_MW": 0, "Coal_MW": 0, "Geo_MW": 0, "Hydro_MW": 0, "HydroPS_MW": 0, "NG_MW": 254.4, "Nuclear_MW": 0, "Crude_MW": 0, "Solar_MW": 0, "Wind_MW": 0, "Other_MW": 128, "Source": "EIA-860, EIA-860M and EIA-923", "Period": "202502", "Longitude": -91.1864, "Latitude": 30.4922}}, {"type": "Feature", "id": 1074, "geometry": {"type": "Point", "coordinates": [-91.1864000002537, 30.4922000002792]}, "properties": {"FID": 1074, "OBJECTID": 62765, "Plant_Code": 1392, "Plant_Name": "Louisiana 2", "Utility_ID": 11241, "Utility_Na": "Entergy Louisiana LLC", "sector_nam": "Electric Utility", "Street_Add": "Gulf States Road", "City": "Baton Rouge", "County": "East Baton Rouge", "State": "Louisiana", "Zip": 70821, "PrimSource": "natural gas", "source_des": "Natural Gas = 138 MW", "tech_desc": "Natural Gas Steam Turbine", "Install_MW": 175, "Total_MW": 138, "Bat_MW": 0, "Bio_MW": 0, "Coal_MW": 0, "Geo_MW": 0, "Hydro_MW": 0, "HydroPS_MW": 0, "NG_MW": 138, "Nuclear_MW": 0, "Crude_MW": 0, "Solar_MW": 0, "Wind_MW": 0, "Other_MW": 0, "Source": "EIA-860, EIA-860M and EIA-923", "Period": "202502", "Longitude": -91.1864, "Latitude": 30.4922}}, {"type": "Feature", "id": 1084, "geometry": {"type": "Point", "coordinates": [-91.3683330000875, 30.7261109998896]}, "properties": {"FID": 1084, "OBJECTID": 62775, "Plant_Code": 1453, "Plant_Name": "New Roads", "Utility_ID": 26253, "Utility_Na": "Louisiana Energy & Power Authority", "sector_nam": "Electric Utility", "Street_Add": "215 Oak Street", "City": "New Roads", "County": "Pointe Coupee", "State": "Louisiana", "Zip": 70760, "PrimSource": "petroleum", "source_des": "Petroleum = 7 MW", "tech_desc": "Petroleum Liquids", "Install_MW": 9.4, "Total_MW": 7, "Bat_MW": 0, "Bio_MW": 0, "Coal_MW": 0, "Geo_MW": 0, "Hydro_MW": 0, "HydroPS_MW": 0, "NG_MW": 0, "Nuclear_MW": 0, "Crude_MW": 7, "Solar_MW": 0, "Wind_MW": 0, "Other_MW": 0, "Source": "EIA-860, EIA-860M and EIA-923", "Period": "202502", "Longitude": -91.368333, "Latitude": 30.726111}}, {"type": "Feature", "id": 1086, "geometry": {"type": "Point", "coordinates": [-91.3555999998744, 30.6739000003592]}, "properties": {"FID": 1086, "OBJECTID": 62777, "Plant_Code": 1464, "Plant_Name": "Big Cajun 1", "Utility_ID": 11252, "Utility_Na": "Louisiana Generating LLC", "sector_nam": "IPP Non-CHP", "Street_Add": "7807 River Road - Hwy 415", "City": "Jarreau", "County": "Pointe Coupee", "State": "Louisiana", "Zip": 70749, "PrimSource": "natural gas", "source_des": "Natural Gas = 367.1 MW", "tech_desc": "Natural Gas Fired Combustion Turbine; Natural Gas Steam Turbine;", "Install_MW": 492.8, "Total_MW": 367.1, "Bat_MW": 0, "Bio_MW": 0, "Coal_MW": 0, "Geo_MW": 0, "Hydro_MW": 0, "HydroPS_MW": 0, "NG_MW": 367.1, "Nuclear_MW": 0, "Crude_MW": 0, "Solar_MW": 0, "Wind_MW": 0, "Other_MW": 0, "Source": "EIA-860, EIA-860M and EIA-923", "Period": "202502", "Longitude": -91.3556, "Latitude": 30.6739}}, {"type": "Feature", "id": 1477, "geometry": {"type": "Point", "coordinates": [-91.3692000001009, 30.7260999997667]}, "properties": {"FID": 1477, "OBJECTID": 63752, "Plant_Code": 6055, "Plant_Name": "Big Cajun 2", "Utility_ID": 11252, "Utility_Na": "Louisiana Generating LLC", "sector_nam": "IPP Non-CHP", "Street_Add": "10431 Cajun 2 Road - Hwy 981", "City": "New Roads", "County": "Pointe Coupee", "State": "Louisiana", "Zip": 70760, "PrimSource": "coal", "source_des": "Coal = 1108.8 MW, Natural Gas = 562.6 MW", "tech_desc": "Conventional Steam Coal; Natural Gas Steam Turbine;", "Install_MW": 1902.9, "Total_MW": 1671.4, "Bat_MW": 0, "Bio_MW": 0, "Coal_MW": 1108.8, "Geo_MW": 0, "Hydro_MW": 0, "HydroPS_MW": 0, "NG_MW": 562.6, "Nuclear_MW": 0, "Crude_MW": 0, "Solar_MW": 0, "Wind_MW": 0, "Other_MW": 0, "Source": "EIA-860, EIA-860M and EIA-923", "Period": "202502", "Longitude": -91.3692, "Latitude": 30.7261}}, {"type": "Feature", "id": 1840, "geometry": {"type": "Point", "coordinates": [-91.3327000002262, 30.7570000000376]}, "properties": {"FID": 1840, "OBJECTID": 63936, "Plant_Code": 6462, "Plant_Name": "River Bend", "Utility_ID": 11241, "Utility_Na": "Entergy Louisiana LLC", "sector_nam": "Electric Utility", "Street_Add": "5485 U.S. Highway 61", "City": "St. Francisville", "County": "West Feliciana", "State": "Louisiana", "Zip": 70775, "PrimSource": "nuclear", "source_des": "Nuclear = 975.5 MW", "tech_desc": "Nuclear", "Install_MW": 1035.9, "Total_MW": 975.5, "Bat_MW": 0, "Bio_MW": 0, "Coal_MW": 0, "Geo_MW": 0, "Hydro_MW": 0, "HydroPS_MW": 0, "NG_MW": 0, "Nuclear_MW": 975.5, "Crude_MW": 0, "Solar_MW": 0, "Wind_MW": 0, "Other_MW": 0, "Source": "EIA-860, EIA-860M and EIA-923", "Period": "202502", "Longitude": -91.3327, "Latitude": 30.757}}, {"type": "Feature", "id": 2013, "geometry": {"type": "Point", "coordinates": [-91.2109999995933, 30.4769999998919]}, "properties": {"FID": 2013, "OBJECTID": 64909, "Plant_Code": 50389, "Plant_Name": "Port Allen (LA)", "Utility_ID": 15173, "Utility_Na": "Placid Refining Co LLC", "sector_nam": "Industrial CHP", "Street_Add": "1940 Louisiana Highway 1 North", "City": "Port Allen", "County": "West Baton Rouge", "State": "Louisiana", "Zip": 70767, "PrimSource": "natural gas", "source_des": "Natural Gas = 7 MW", "tech_desc": "Natural Gas Fired Combustion Turbine", "Install_MW": 7.6, "Total_MW": 7, "Bat_MW": 0, "Bio_MW": 0, "Coal_MW": 0, "Geo_MW": 0, "Hydro_MW": 0, "HydroPS_MW": 0, "NG_MW": 7, "Nuclear_MW": 0, "Crude_MW": 0, "Solar_MW": 0, "Wind_MW": 0, "Other_MW": 0, "Source": "EIA-860, EIA-860M and EIA-923", "Period": "202502", "Longitude": -91.211, "Latitude": 30.477}}, {"type": "Feature", "id": 2842, "geometry": {"type": "Point", "coordinates": [-91.0000000001088, 30.1999999998928]}, "properties": {"FID": 2842, "OBJECTID": 64538, "Plant_Code": 10319, "Plant_Name": "Geismar", "Utility_ID": 1182, "Utility_Na": "BASF Corporation", "sector_nam": "Industrial CHP", "Street_Add": "8404 Highway 75", "City": "Geismar", "County": "Ascension", "State": "Louisiana", "Zip": 70734, "PrimSource": "natural gas", "source_des": "Natural Gas = 80.1 MW", "tech_desc": "Natural Gas Fired Combustion Turbine; Natural Gas Steam Turbine;", "Install_MW": 84.1, "Total_MW": 80.1, "Bat_MW": 0, "Bio_MW": 0, "Coal_MW": 0, "Geo_MW": 0, "Hydro_MW": 0, "HydroPS_MW": 0, "NG_MW": 80.1, "Nuclear_MW": 0, "Crude_MW": 0, "Solar_MW": 0, "Wind_MW": 0, "Other_MW": 0, "Source": "EIA-860, EIA-860M and EIA-923", "Period": "202502", "Longitude": -91, "Latitude": 30.2}}, {"type": "Feature", "id": 2963, "geometry": {"type": "Point", "coordinates": [-91.1872220000611, 30.4897219997959]}, "properties": {"FID": 2963, "OBJECTID": 64659, "Plant_Code": 10690, "Plant_Name": "ExxonMobil Baton Rouge Turbine Generator", "Utility_ID": 6088, "Utility_Na": "Exxon Mobil Corp", "sector_nam": "Industrial CHP", "Street_Add": "4045 Scenic Highway", "City": "Baton Rouge", "County": "East Baton Rouge", "State": "Louisiana", "Zip": 70805, "PrimSource": "natural gas", "source_des": "Natural Gas = 66.3 MW", "tech_desc": "Natural Gas Fired Combustion Turbine", "Install_MW": 85.3, "Total_MW": 66.3, "Bat_MW": 0, "Bio_MW": 0, "Coal_MW": 0, "Geo_MW": 0, "Hydro_MW": 0, "HydroPS_MW": 0, "NG_MW": 66.3, "Nuclear_MW": 0, "Crude_MW": 0, "Solar_MW": 0, "Wind_MW": 0, "Other_MW": 0, "Source": "EIA-860, EIA-860M and EIA-923", "Period": "202502", "Longitude": -91.187222, "Latitude": 30.489722}}, {"type": "Feature", "id": 2967, "geometry": {"type": "Point", "coordinates": [-91.3235999999227, 30.710800000295]}, "properties": {"FID": 2967, "OBJECTID": 64663, "Plant_Code": 10697, "Plant_Name": "St Francisville Mill", "Utility_ID": 59867, "Utility_Na": "Hood Container of Louisiana, LLC", "sector_nam": "Industrial CHP", "Street_Add": "2105 HY 964", "City": "St. Francisville", "County": "West Feliciana", "State": "Louisiana", "Zip": 70775, "PrimSource": "biomass", "source_des": "Biomass = 16 MW", "tech_desc": "Wood/Wood Waste Biomass", "Install_MW": 12.5, "Total_MW": 16, "Bat_MW": 0, "Bio_MW": 16, "Coal_MW": 0, "Geo_MW": 0, "Hydro_MW": 0, "HydroPS_MW": 0, "NG_MW": 0, "Nuclear_MW": 0, "Crude_MW": 0, "Solar_MW": 0, "Wind_MW": 0, "Other_MW": 0, "Source": "EIA-860, EIA-860M and EIA-923", "Period": "202502", "Longitude": -91.3236, "Latitude": 30.7108}}, {"type": "Feature", "id": 3194, "geometry": {"type": "Point", "coordinates": [-91.0551139999688, 30.226977000046]}, "properties": {"FID": 3194, "OBJECTID": 64890, "Plant_Code": 50341, "Plant_Name": "PCS Nitrogen Fertilizer LP", "Utility_ID": 15237, "Utility_Na": "PCS Nitrogen LP", "sector_nam": "Industrial Non-CHP", "Street_Add": "10886 Hwy 75", "City": "Geismar", "County": "Iberville", "State": "Louisiana", "Zip": 70734, "PrimSource": "other", "source_des": "Other = 8 MW,Petroleum = 3.6 MW", "tech_desc": "All Other; Petroleum Liquids;", "Install_MW": 14, "Total_MW": 11.6, "Bat_MW": 0, "Bio_MW": 0, "Coal_MW": 0, "Geo_MW": 0, "Hydro_MW": 0, "HydroPS_MW": 0, "NG_MW": 0, "Nuclear_MW": 0, "Crude_MW": 3.6, "Solar_MW": 0, "Wind_MW": 0, "Other_MW": 8, "Source": "EIA-860, EIA-860M and EIA-923", "Period": "202502", "Longitude": -91.055114, "Latitude": 30.226977}}, {"type": "Feature", "id": 3237, "geometry": {"type": "Point", "coordinates": [-91.1872000003198, 30.4991999996653]}, "properties": {"FID": 3237, "OBJECTID": 65333, "Plant_Code": 54518, "Plant_Name": "Formosa Plastics", "Utility_ID": 6564, "Utility_Na": "Formosa Plastics Corp", "sector_nam": "Industrial CHP", "Street_Add": "Gulf States Road", "City": "Baton Rouge", "County": "East Baton Rouge", "State": "Louisiana", "Zip": 70805, "PrimSource": "natural gas", "source_des": "Natural Gas = 82 MW", "tech_desc": "Natural Gas Fired Combustion Turbine; Natural Gas Steam Turbine;", "Install_MW": 100.8, "Total_MW": 82, "Bat_MW": 0, "Bio_MW": 0, "Coal_MW": 0, "Geo_MW": 0, "Hydro_MW": 0, "HydroPS_MW": 0, "NG_MW": 82, "Nuclear_MW": 0, "Crude_MW": 0, "Solar_MW": 0, "Wind_MW": 0, "Other_MW": 0, "Source": "EIA-860, EIA-860M and EIA-923", "Period": "202502", "Longitude": -91.1872, "Latitude": 30.4992}}, {"type": "Feature", "id": 3451, "geometry": {"type": "Point", "coordinates": [-91.1850000001379, 30.2585999997159]}, "properties": {"FID": 3451, "OBJECTID": 65546, "Plant_Code": 55051, "Plant_Name": "Westlake Plaquemine", "Utility_ID": 65195, "Utility_Na": "Westlake Chemicals & Vinyls LLC", "sector_nam": "Industrial CHP", "Street_Add": "26100 Hwy 405", "City": "Plaquemine", "County": "Iberville", "State": "Louisiana", "Zip": 70765, "PrimSource": "natural gas", "source_des": "Natural Gas = 225 MW", "tech_desc": "Natural Gas Fired Combustion Turbine", "Install_MW": 306, "Total_MW": 225, "Bat_MW": 0, "Bio_MW": 0, "Coal_MW": 0, "Geo_MW": 0, "Hydro_MW": 0, "HydroPS_MW": 0, "NG_MW": 225, "Nuclear_MW": 0, "Crude_MW": 0, "Solar_MW": 0, "Wind_MW": 0, "Other_MW": 0, "Source": "EIA-860, EIA-860M and EIA-923", "Period": "202502", "Longitude": -91.185, "Latitude": 30.2586}}, {"type": "Feature", "id": 3657, "geometry": {"type": "Point", "coordinates": [-91.0650000000947, 30.2293999997453]}, "properties": {"FID": 3657, "OBJECTID": 65753, "Plant_Code": 55404, "Plant_Name": "Carville Energy LLC", "Utility_ID": 3131, "Utility_Na": "Carville Energy LLC", "sector_nam": "IPP CHP", "Street_Add": "4322 Hwy 30", "City": "St Gabriel", "County": "Iberville", "State": "Louisiana", "Zip": 70776, "PrimSource": "natural gas", "source_des": "Natural Gas = 521 MW", "tech_desc": "Natural Gas Fired Combined Cycle", "Install_MW": 555, "Total_MW": 521, "Bat_MW": 0, "Bio_MW": 0, "Coal_MW": 0, "Geo_MW": 0, "Hydro_MW": 0, "HydroPS_MW": 0, "NG_MW": 521, "Nuclear_MW": 0, "Crude_MW": 0, "Solar_MW": 0, "Wind_MW": 0, "Other_MW": 0, "Source": "EIA-860, EIA-860M and EIA-923", "Period": "202502", "Longitude": -91.065, "Latitude": 30.2294}}, {"type": "Feature", "id": 3667, "geometry": {"type": "Point", "coordinates": [-91.2347000002059, 30.3217000002145]}, "properties": {"FID": 3667, "OBJECTID": 65763, "Plant_Code": 55419, "Plant_Name": "Plaquemine Cogeneration Plant", "Utility_ID": 5347, "Utility_Na": "Dow Chemical Co", "sector_nam": "Industrial CHP", "Street_Add": "21255 Highway 1", "City": "Plaquemine", "County": "Iberville", "State": "Louisiana", "Zip": 70765, "PrimSource": "natural gas", "source_des": "Natural Gas = 890.8 MW", "tech_desc": "Natural Gas Fired Combined Cycle", "Install_MW": 1084.8, "Total_MW": 890.8, "Bat_MW": 0, "Bio_MW": 0, "Coal_MW": 0, "Geo_MW": 0, "Hydro_MW": 0, "HydroPS_MW": 0, "NG_MW": 890.8, "Nuclear_MW": 0, "Crude_MW": 0, "Solar_MW": 0, "Wind_MW": 0, "Other_MW": 0, "Source": "EIA-860, EIA-860M and EIA-923", "Period": "202502", "Longitude": -91.2347, "Latitude": 30.3217}}, {"type": "Feature", "id": 3996, "geometry": {"type": "Point", "coordinates": [-90.9839629998739, 30.1875079998213]}, "properties": {"FID": 3996, "OBJECTID": 66092, "Plant_Code": 56248, "Plant_Name": "Shell Chemical", "Utility_ID": 63888, "Utility_Na": "Shell Chemical LP - Geismar", "sector_nam": "Industrial CHP", "Street_Add": "7594 Hwy 75", "City": "Geismar", "County": "Ascension", "State": "Louisiana", "Zip": 70734, "PrimSource": "natural gas", "source_des": "Natural Gas = 69 MW", "tech_desc": "Natural Gas Fired Combustion Turbine", "Install_MW": 80, "Total_MW": 69, "Bat_MW": 0, "Bio_MW": 0, "Coal_MW": 0, "Geo_MW": 0, "Hydro_MW": 0, "HydroPS_MW": 0, "NG_MW": 69, "Nuclear_MW": 0, "Crude_MW": 0, "Solar_MW": 0, "Wind_MW": 0, "Other_MW": 0, "Source": "EIA-860, EIA-860M and EIA-923", "Period": "202502", "Longitude": -90.983963, "Latitude": 30.187508}}, {"type": "Feature", "id": 4359, "geometry": {"type": "Point", "coordinates": [-90.9920999999045, 30.2089999996566]}, "properties": {"FID": 4359, "OBJECTID": 66455, "Plant_Code": 56787, "Plant_Name": "Geismar Cogen", "Utility_ID": 327, "Utility_Na": "Air Liquide Large Industries U S LP", "sector_nam": "Industrial CHP", "Street_Add": "36597 Hwy 30", "City": "Geismar", "County": "Ascension", "State": "Louisiana", "Zip": 70734, "PrimSource": "natural gas", "source_des": "Natural Gas = 72.5 MW", "tech_desc": "Natural Gas Fired Combustion Turbine", "Install_MW": 83.9, "Total_MW": 72.5, "Bat_MW": 0, "Bio_MW": 0, "Coal_MW": 0, "Geo_MW": 0, "Hydro_MW": 0, "HydroPS_MW": 0, "NG_MW": 72.5, "Nuclear_MW": 0, "Crude_MW": 0, "Solar_MW": 0, "Wind_MW": 0, "Other_MW": 0, "Source": "EIA-860, EIA-860M and EIA-923", "Period": "202502", "Longitude": -90.9921, "Latitude": 30.209}}, {"type": "Feature", "id": 5222, "geometry": {"type": "Point", "coordinates": [-91.1813889999695, 30.4105560000658]}, "properties": {"FID": 5222, "OBJECTID": 67717, "Plant_Code": 58428, "Plant_Name": "LSU Cogen", "Utility_ID": 58425, "Utility_Na": "LSU and A&M College", "sector_nam": "Commercial CHP", "Street_Add": "South Stadium Drive", "City": "Baton Rouge", "County": "East Baton Rouge", "State": "Louisiana", "Zip": 70803, "PrimSource": "natural gas", "source_des": "Natural Gas = 20.6 MW", "tech_desc": "Natural Gas Fired Combustion Turbine", "Install_MW": 19.6, "Total_MW": 20.6, "Bat_MW": 0, "Bio_MW": 0, "Coal_MW": 0, "Geo_MW": 0, "Hydro_MW": 0, "HydroPS_MW": 0, "NG_MW": 20.6, "Nuclear_MW": 0, "Crude_MW": 0, "Solar_MW": 0, "Wind_MW": 0, "Other_MW": 0, "Source": "EIA-860, EIA-860M and EIA-923", "Period": "202502", "Longitude": -91.181389, "Latitude": 30.410556}}, {"type": "Feature", "id": 8711, "geometry": {"type": "Point", "coordinates": [-91.3318549999542, 30.4651049999881]}, "properties": {"FID": 8711, "OBJECTID": 70407, "Plant_Code": 61646, "Plant_Name": "LA3 West Baton Rouge Solar Facility", "Utility_ID": 61677, "Utility_Na": "Sol Systems", "sector_nam": "IPP Non-CHP", "Street_Add": "TBD", "City": "West Baton Rouge", "County": "West Baton Rouge", "State": "Louisiana", "Zip": 70767, "PrimSource": "solar", "source_des": "Solar = 50 MW", "tech_desc": "Solar Photovoltaic", "Install_MW": 50, "Total_MW": 50, "Bat_MW": 0, "Bio_MW": 0, "Coal_MW": 0, "Geo_MW": 0, "Hydro_MW": 0, "HydroPS_MW": 0, "NG_MW": 0, "Nuclear_MW": 0, "Crude_MW": 0, "Solar_MW": 50, "Wind_MW": 0, "Other_MW": 0, "Source": "EIA-860, EIA-860M and EIA-923", "Period": "202502", "Longitude": -91.331855, "Latitude": 30.465105}}, {"type": "Feature", "id": 11674, "geometry": {"type": "Point", "coordinates": [-91.3917059995637, 30.6678779997114]}, "properties": {"FID": 11674, "OBJECTID": 73244, "Plant_Code": 65030, "Plant_Name": "Oxbow Solar 1", "Utility_ID": 62842, "Utility_Na": "Lightsource Renewable Energy Asset Management, LLC", "sector_nam": "IPP Non-CHP", "Street_Add": "13330 Ventress Rd", "City": "New Roads", "County": "Pointe Coupee", "State": "Louisiana", "Zip": 70783, "PrimSource": "solar", "source_des": "Solar = 300 MW", "tech_desc": "Solar Photovoltaic", "Install_MW": 300, "Total_MW": 300, "Bat_MW": 0, "Bio_MW": 0, "Coal_MW": 0, "Geo_MW": 0, "Hydro_MW": 0, "HydroPS_MW": 0, "NG_MW": 0, "Nuclear_MW": 0, "Crude_MW": 0, "Solar_MW": 300, "Wind_MW": 0, "Other_MW": 0, "Source": "EIA-860, EIA-860M and EIA-923", "Period": "202502", "Longitude": -91.391706, "Latitude": 30.667878}}], "source": "https://services2.arcgis.com/FiaPA4ga0iQKduv3/arcgis/rest/services/Power_Plants_in_the_US/FeatureServer/0", "exported_at": "2026-09-14T23:33:10.374515+00:00", "extent": [-91.44765802329604, 30.16246895044765, -90.69418102270886, 30.86945795129952]}